<gpx xmlns:ns3="http://www.garmin.com/xmlschemas/TrackPointExtension/v1" xmlns="http://www.topografix.com/GPX/1/1" xmlns:xsi="http://www.w3.org/2001/XMLSchema-instance" xmlns:ns2="http://www.garmin.com/xmlschemas/GpxExtensions/v3" creator="Garmin Connect" version="1.1" xsi:schemaLocation="http://www.topografix.com/GPX/1/1 http://www.topografix.com/GPX/11.xsd">
  <extensions>
<distance>14219.54</distance>
<average_hr>93.0</average_hr>
<average_speed>0.578000009059906</average_speed>
<start_time>2023-04-04T01:21:53+00:00</start_time>
<end_time>2023-04-04T08:12:05.787000+00:00</end_time>
<moving_time>11654.0</moving_time>
<elapsed_time>28385.383</elapsed_time>
</extensions>
<metadata>
    <link href="connect.garmin.com">
      <text>Garmin Connect</text>
    </link>
    <time>2023-04-04T01:21:53.000Z</time>
  </metadata>
  <trk>
    <name>厦门市 跑步</name>
    <type>running</type>
    <trkseg/>
  </trk>
</gpx>
