<gpx xmlns:ns3="http://www.garmin.com/xmlschemas/TrackPointExtension/v1" xmlns="http://www.topografix.com/GPX/1/1" xmlns:xsi="http://www.w3.org/2001/XMLSchema-instance" xmlns:ns2="http://www.garmin.com/xmlschemas/GpxExtensions/v3" creator="Garmin Connect" version="1.1" xsi:schemaLocation="http://www.topografix.com/GPX/1/1 http://www.topografix.com/GPX/11.xsd">
  <extensions>
<distance>0.0</distance>
<average_hr>140.0</average_hr>
<average_speed>0.0</average_speed>
<start_time>2023-08-01T13:01:32+00:00</start_time>
<end_time>2023-08-01T13:10:55.283000+00:00</end_time>
<moving_time>563.283</moving_time>
<elapsed_time>563.283</elapsed_time>
</extensions>
<metadata>
    <link href="connect.garmin.com">
      <text>Garmin Connect</text>
    </link>
    <time>2023-08-01T13:01:32.000Z</time>
  </metadata>
  <trk>
    <name>HIIT</name>
    <type>hiit</type>
    <trkseg/>
  </trk>
</gpx>
