<gpx xmlns:ns3="http://www.garmin.com/xmlschemas/TrackPointExtension/v1" xmlns="http://www.topografix.com/GPX/1/1" xmlns:xsi="http://www.w3.org/2001/XMLSchema-instance" xmlns:ns2="http://www.garmin.com/xmlschemas/GpxExtensions/v3" creator="Garmin Connect" version="1.1" xsi:schemaLocation="http://www.topografix.com/GPX/1/1 http://www.topografix.com/GPX/11.xsd">
  <extensions>
<distance>20227.43</distance>
<average_hr>143.0</average_hr>
<average_speed>0.8500000238418579</average_speed>
<start_time>2023-08-12T22:19:01+00:00</start_time>
<end_time>2023-08-13T04:55:36.186000+00:00</end_time>
<moving_time>12453.504</moving_time>
<elapsed_time>27128.092</elapsed_time>
</extensions>
<metadata>
    <link href="connect.garmin.com">
      <text>Garmin Connect</text>
    </link>
    <time>2023-08-12T22:19:01.000Z</time>
  </metadata>
  <trk>
    <name>厦门市 跑步</name>
    <type>running</type>
    <trkseg/>
  </trk>
</gpx>
