<gpx xmlns:ns3="http://www.garmin.com/xmlschemas/TrackPointExtension/v1" xmlns="http://www.topografix.com/GPX/1/1" xmlns:xsi="http://www.w3.org/2001/XMLSchema-instance" xmlns:ns2="http://www.garmin.com/xmlschemas/GpxExtensions/v3" creator="Garmin Connect" version="1.1" xsi:schemaLocation="http://www.topografix.com/GPX/1/1 http://www.topografix.com/GPX/11.xsd">
  <extensions>
<distance>57720.2</distance>
<average_hr>144.0</average_hr>
<average_speed>1.0700000524520874</average_speed>
<start_time>2023-09-01T21:59:42+00:00</start_time>
<end_time>2023-09-02T12:59:10.707000+00:00</end_time>
<moving_time>40319.729</moving_time>
<elapsed_time>53970.652</elapsed_time>
</extensions>
<metadata>
    <link href="connect.garmin.com">
      <text>Garmin Connect</text>
    </link>
    <time>2023-09-01T21:59:42.000Z</time>
  </metadata>
  <trk>
    <name>萍乡市 跑步</name>
    <type>running</type>
    <trkseg/>
  </trk>
</gpx>
