<gpx xmlns:ns3="http://www.garmin.com/xmlschemas/TrackPointExtension/v1" xmlns="http://www.topografix.com/GPX/1/1" xmlns:xsi="http://www.w3.org/2001/XMLSchema-instance" xmlns:ns2="http://www.garmin.com/xmlschemas/GpxExtensions/v3" creator="Garmin Connect" version="1.1" xsi:schemaLocation="http://www.topografix.com/GPX/1/1 http://www.topografix.com/GPX/11.xsd">
  <extensions>
<distance>51781.52</distance>
<average_hr>150.0</average_hr>
<average_speed>1.3730000257492065</average_speed>
<start_time>2023-12-23T22:40:26+00:00</start_time>
<end_time>2023-12-24T09:09:03.012000+00:00</end_time>
<moving_time>30575.473</moving_time>
<elapsed_time>38496.43</elapsed_time>
</extensions>
<metadata>
    <link href="connect.garmin.com">
      <text>Garmin Connect</text>
    </link>
    <time>2023-12-23T22:40:26.000Z</time>
  </metadata>
  <trk>
    <name>漳州市 跑步</name>
    <type>running</type>
    <trkseg/>
  </trk>
</gpx>
