<gpx xmlns:ns3="http://www.garmin.com/xmlschemas/TrackPointExtension/v1" xmlns="http://www.topografix.com/GPX/1/1" xmlns:xsi="http://www.w3.org/2001/XMLSchema-instance" xmlns:ns2="http://www.garmin.com/xmlschemas/GpxExtensions/v3" creator="Garmin Connect" version="1.1" xsi:schemaLocation="http://www.topografix.com/GPX/1/1 http://www.topografix.com/GPX/11.xsd">
  <extensions>
<distance>59741.09</distance>
<average_hr>145.0</average_hr>
<average_speed>1.2359999418258667</average_speed>
<start_time>2023-11-11T01:10:05+00:00</start_time>
<end_time>2023-11-11T14:35:46.383000+00:00</end_time>
<moving_time>37927.345</moving_time>
<elapsed_time>49387.531</elapsed_time>
</extensions>
<metadata>
    <link href="connect.garmin.com">
      <text>Garmin Connect</text>
    </link>
    <time>2023-11-11T01:10:05.000Z</time>
  </metadata>
  <trk>
    <name>新界 越野跑</name>
    <type>trail_running</type>
    <trkseg/>
  </trk>
</gpx>
