<gpx xmlns:ns3="http://www.garmin.com/xmlschemas/TrackPointExtension/v1" xmlns="http://www.topografix.com/GPX/1/1" xmlns:xsi="http://www.w3.org/2001/XMLSchema-instance" xmlns:ns2="http://www.garmin.com/xmlschemas/GpxExtensions/v3" creator="Garmin Connect" version="1.1" xsi:schemaLocation="http://www.topografix.com/GPX/1/1 http://www.topografix.com/GPX/11.xsd">
  <extensions>
<distance>485.49</distance>
<average_hr>92.0</average_hr>
<average_speed>2.6051331033113505</average_speed>
<start_time>2015-07-11T10:46:29+00:00</start_time>
<end_time>2015-07-11T10:49:35.359000+00:00</end_time>
<moving_time>169.0</moving_time>
<elapsed_time>186.359</elapsed_time>
</extensions>
<metadata>
    <link href="connect.garmin.com">
      <text>Garmin Connect</text>
    </link>
    <time>2015-07-11T10:46:29.000Z</time>
  </metadata>
  <trk>
    <name>跑步去</name>
    <type>running</type>
    <trkseg/>
  </trk>
</gpx>
