<gpx xmlns:ns3="http://www.garmin.com/xmlschemas/TrackPointExtension/v1" xmlns="http://www.topografix.com/GPX/1/1" xmlns:xsi="http://www.w3.org/2001/XMLSchema-instance" xmlns:ns2="http://www.garmin.com/xmlschemas/GpxExtensions/v3" creator="Garmin Connect" version="1.1" xsi:schemaLocation="http://www.topografix.com/GPX/1/1 http://www.topografix.com/GPX/11.xsd">
  <extensions>
<distance>1338.72</distance>
<average_hr>133.0</average_hr>
<average_speed>2.760133602738031</average_speed>
<start_time>2015-07-11T12:39:29+00:00</start_time>
<end_time>2015-07-11T12:47:34.020000+00:00</end_time>
<moving_time>486.0</moving_time>
<elapsed_time>526.931</elapsed_time>
</extensions>
<metadata>
    <link href="connect.garmin.com">
      <text>Garmin Connect</text>
    </link>
    <time>2015-07-11T12:39:29.000Z</time>
  </metadata>
  <trk>
    <type>running</type>
    <trkseg/>
  </trk>
</gpx>
