<gpx xmlns:ns3="http://www.garmin.com/xmlschemas/TrackPointExtension/v1" xmlns="http://www.topografix.com/GPX/1/1" xmlns:xsi="http://www.w3.org/2001/XMLSchema-instance" xmlns:ns2="http://www.garmin.com/xmlschemas/GpxExtensions/v3" creator="Garmin Connect" version="1.1" xsi:schemaLocation="http://www.topografix.com/GPX/1/1 http://www.topografix.com/GPX/11.xsd">
  <extensions>
<distance>582.33</distance>
<average_hr>135.0</average_hr>
<average_speed>2.8252126198943333</average_speed>
<start_time>2016-01-22T09:25:47+00:00</start_time>
<end_time>2016-01-22T09:29:13.119000+00:00</end_time>
<moving_time>203.0</moving_time>
<elapsed_time>206.119</elapsed_time>
</extensions>
<metadata>
    <link href="connect.garmin.com">
      <text>Garmin Connect</text>
    </link>
    <time>2016-01-22T09:25:47.000Z</time>
  </metadata>
  <trk>
    <type>running</type>
    <trkseg/>
  </trk>
</gpx>
