<gpx xmlns:ns3="http://www.garmin.com/xmlschemas/TrackPointExtension/v1" xmlns="http://www.topografix.com/GPX/1/1" xmlns:xsi="http://www.w3.org/2001/XMLSchema-instance" xmlns:ns2="http://www.garmin.com/xmlschemas/GpxExtensions/v3" creator="Garmin Connect" version="1.1" xsi:schemaLocation="http://www.topografix.com/GPX/1/1 http://www.topografix.com/GPX/11.xsd">
  <extensions>
<distance>44091.74</distance>
<average_hr>147.0</average_hr>
<average_speed>1.5119999647140503</average_speed>
<start_time>2024-04-20T22:00:07+00:00</start_time>
<end_time>2024-04-21T06:06:03.328000+00:00</end_time>
<moving_time>26223.101</moving_time>
<elapsed_time>29156.328</elapsed_time>
</extensions>
<metadata>
    <link href="connect.garmin.com">
      <text>Garmin Connect</text>
    </link>
    <time>2024-04-20T22:00:07.000Z</time>
  </metadata>
  <trk>
    <name>汕头市 跑步</name>
    <type>running</type>
    <trkseg/>
  </trk>
</gpx>
