<gpx xmlns:ns3="http://www.garmin.com/xmlschemas/TrackPointExtension/v1" xmlns="http://www.topografix.com/GPX/1/1" xmlns:xsi="http://www.w3.org/2001/XMLSchema-instance" xmlns:ns2="http://www.garmin.com/xmlschemas/GpxExtensions/v3" creator="Garmin Connect" version="1.1" xsi:schemaLocation="http://www.topografix.com/GPX/1/1 http://www.topografix.com/GPX/11.xsd">
  <extensions>
<distance></distance>
<average_hr>127.0</average_hr>
<average_speed></average_speed>
<start_time>2024-11-04T12:15:15+00:00</start_time>
<end_time>2024-11-04T12:48:36.725000+00:00</end_time>
<moving_time>1397.8</moving_time>
<elapsed_time>2001.725</elapsed_time>
</extensions>
<metadata>
    <link href="connect.garmin.com">
      <text>Garmin Connect</text>
    </link>
    <time>2024-11-04T12:15:15.000Z</time>
  </metadata>
  <trk>
    <name>跳绳</name>
    <type>jump_rope</type>
    <trkseg/>
  </trk>
</gpx>
