<gpx xmlns:ns3="http://www.garmin.com/xmlschemas/TrackPointExtension/v1" xmlns="http://www.topografix.com/GPX/1/1" xmlns:xsi="http://www.w3.org/2001/XMLSchema-instance" xmlns:ns2="http://www.garmin.com/xmlschemas/GpxExtensions/v3" creator="Garmin Connect" version="1.1" xsi:schemaLocation="http://www.topografix.com/GPX/1/1 http://www.topografix.com/GPX/11.xsd">
  <extensions>
<distance>102246.01</distance>
<average_hr>117.0</average_hr>
<average_speed>0.9649999737739563</average_speed>
<start_time>2024-11-22T23:01:09+00:00</start_time>
<end_time>2024-11-24T04:27:35.953000+00:00</end_time>
<moving_time>66623.941</moving_time>
<elapsed_time>105987.75</elapsed_time>
</extensions>
<metadata>
    <link href="connect.garmin.com">
      <text>Garmin Connect</text>
    </link>
    <time>2024-11-22T23:01:09.000Z</time>
  </metadata>
  <trk>
    <name>厦门市 越野跑</name>
    <type>trail_running</type>
    <trkseg/>
  </trk>
</gpx>
