<gpx xmlns:ns3="http://www.garmin.com/xmlschemas/TrackPointExtension/v1" xmlns="http://www.topografix.com/GPX/1/1" xmlns:xsi="http://www.w3.org/2001/XMLSchema-instance" xmlns:ns2="http://www.garmin.com/xmlschemas/GpxExtensions/v3" creator="Garmin Connect" version="1.1" xsi:schemaLocation="http://www.topografix.com/GPX/1/1 http://www.topografix.com/GPX/11.xsd">
  <extensions>
<distance>55809.43</distance>
<average_hr>141.0</average_hr>
<average_speed>1.309000015258789</average_speed>
<start_time>2025-01-18T00:05:45+00:00</start_time>
<end_time>2025-01-18T11:56:04.020000+00:00</end_time>
<moving_time>34323.016</moving_time>
<elapsed_time>42619.844</elapsed_time>
</extensions>
<metadata>
    <link href="connect.garmin.com">
      <text>Garmin Connect</text>
    </link>
    <time>2025-01-18T00:05:45.000Z</time>
  </metadata>
  <trk>
    <name>新界 越野跑</name>
    <type>trail_running</type>
    <trkseg/>
  </trk>
</gpx>
