<gpx xmlns:ns3="http://www.garmin.com/xmlschemas/TrackPointExtension/v1" xmlns="http://www.topografix.com/GPX/1/1" xmlns:xsi="http://www.w3.org/2001/XMLSchema-instance" xmlns:ns2="http://www.garmin.com/xmlschemas/GpxExtensions/v3" creator="Garmin Connect" version="1.1" xsi:schemaLocation="http://www.topografix.com/GPX/1/1 http://www.topografix.com/GPX/11.xsd">
  <extensions>
<distance>50817.52</distance>
<average_hr>150.0</average_hr>
<average_speed>1.6009999513626099</average_speed>
<start_time>2025-03-29T23:30:09+00:00</start_time>
<end_time>2025-03-30T08:19:09.066000+00:00</end_time>
<moving_time>28640.622</moving_time>
<elapsed_time>31740.066</elapsed_time>
</extensions>
<metadata>
    <link href="connect.garmin.com">
      <text>Garmin Connect</text>
    </link>
    <time>2025-03-29T23:30:09.000Z</time>
  </metadata>
  <trk>
    <name>泉州市 越野跑</name>
    <type>trail_running</type>
    <trkseg/>
  </trk>
</gpx>
