<gpx xmlns:ns3="http://www.garmin.com/xmlschemas/TrackPointExtension/v1" xmlns="http://www.topografix.com/GPX/1/1" xmlns:xsi="http://www.w3.org/2001/XMLSchema-instance" xmlns:ns2="http://www.garmin.com/xmlschemas/GpxExtensions/v3" creator="Garmin Connect" version="1.1" xsi:schemaLocation="http://www.topografix.com/GPX/1/1 http://www.topografix.com/GPX/11.xsd">
  <extensions>
<distance>25205.12</distance>
<average_hr>129.0</average_hr>
<average_speed>0.7789999842643738</average_speed>
<start_time>2025-07-05T22:55:36+00:00</start_time>
<end_time>2025-07-06T07:54:53.561000+00:00</end_time>
<moving_time>23826.0</moving_time>
<elapsed_time>32657.473</elapsed_time>
</extensions>
<metadata>
    <link href="connect.garmin.com">
      <text>Garmin Connect</text>
    </link>
    <time>2025-07-05T22:55:36.000Z</time>
  </metadata>
  <trk>
    <name>乐山市 越野跑</name>
    <type>trail_running</type>
    <trkseg/>
  </trk>
</gpx>
