<gpx xmlns:ns3="http://www.garmin.com/xmlschemas/TrackPointExtension/v1" xmlns="http://www.topografix.com/GPX/1/1" xmlns:xsi="http://www.w3.org/2001/XMLSchema-instance" xmlns:ns2="http://www.garmin.com/xmlschemas/GpxExtensions/v3" creator="Garmin Connect" version="1.1" xsi:schemaLocation="http://www.topografix.com/GPX/1/1 http://www.topografix.com/GPX/11.xsd">
  <extensions>
<distance>43430.06</distance>
<average_hr>159.0</average_hr>
<average_speed>1.218999981880188</average_speed>
<start_time>2025-09-13T22:30:25+00:00</start_time>
<end_time>2025-09-14T08:24:12.688000+00:00</end_time>
<moving_time>28934.944</moving_time>
<elapsed_time>35627.688</elapsed_time>
</extensions>
<metadata>
    <link href="connect.garmin.com">
      <text>Garmin Connect</text>
    </link>
    <time>2025-09-13T22:30:25.000Z</time>
  </metadata>
  <trk>
    <name>九江市 越野跑</name>
    <type>trail_running</type>
    <trkseg/>
  </trk>
</gpx>
