<gpx xmlns:ns3="http://www.garmin.com/xmlschemas/TrackPointExtension/v1" xmlns="http://www.topografix.com/GPX/1/1" xmlns:xsi="http://www.w3.org/2001/XMLSchema-instance" xmlns:ns2="http://www.garmin.com/xmlschemas/GpxExtensions/v3" creator="Garmin Connect" version="1.1" xsi:schemaLocation="http://www.topografix.com/GPX/1/1 http://www.topografix.com/GPX/11.xsd">
  <extensions>
<distance>12497.49</distance>
<average_hr>112.0</average_hr>
<average_speed>0.5139999985694885</average_speed>
<start_time>2025-10-01T01:08:56+00:00</start_time>
<end_time>2025-10-01T07:54:21.740000+00:00</end_time>
<moving_time>11478.0</moving_time>
<elapsed_time>30403.891</elapsed_time>
</extensions>
<metadata>
    <link href="connect.garmin.com">
      <text>Garmin Connect</text>
    </link>
    <time>2025-10-01T01:08:56.000Z</time>
  </metadata>
  <trk>
    <name>厦门市 越野跑</name>
    <type>trail_running</type>
    <trkseg/>
  </trk>
</gpx>
