<gpx xmlns:ns3="http://www.garmin.com/xmlschemas/TrackPointExtension/v1" xmlns="http://www.topografix.com/GPX/1/1" xmlns:xsi="http://www.w3.org/2001/XMLSchema-instance" xmlns:ns2="http://www.garmin.com/xmlschemas/GpxExtensions/v3" creator="Garmin Connect" version="1.1" xsi:schemaLocation="http://www.topografix.com/GPX/1/1 http://www.topografix.com/GPX/11.xsd">
  <extensions>
<distance>31732.21</distance>
<average_hr>145.0</average_hr>
<average_speed>1.4819999933242796</average_speed>
<start_time>2025-11-08T22:30:20+00:00</start_time>
<end_time>2025-11-09T04:27:18.086000+00:00</end_time>
<moving_time>18683.916</moving_time>
<elapsed_time>21418.086</elapsed_time>
</extensions>
<metadata>
    <link href="connect.garmin.com">
      <text>Garmin Connect</text>
    </link>
    <time>2025-11-08T22:30:20.000Z</time>
  </metadata>
  <trk>
    <name>南平市 越野跑</name>
    <type>trail_running</type>
    <trkseg/>
  </trk>
</gpx>
