<gpx xmlns:ns3="http://www.garmin.com/xmlschemas/TrackPointExtension/v1" xmlns="http://www.topografix.com/GPX/1/1" xmlns:xsi="http://www.w3.org/2001/XMLSchema-instance" xmlns:ns2="http://www.garmin.com/xmlschemas/GpxExtensions/v3" creator="Garmin Connect" version="1.1" xsi:schemaLocation="http://www.topografix.com/GPX/1/1 http://www.topografix.com/GPX/11.xsd">
  <extensions>
<distance>20516.1</distance>
<average_hr>113.0</average_hr>
<average_speed>0.7680000066757203</average_speed>
<start_time>2025-11-23T01:42:05+00:00</start_time>
<end_time>2025-11-23T09:07:14.836000+00:00</end_time>
<moving_time>17282.661</moving_time>
<elapsed_time>27373.266</elapsed_time>
</extensions>
<metadata>
    <link href="connect.garmin.com">
      <text>Garmin Connect</text>
    </link>
    <time>2025-11-23T01:42:05.000Z</time>
  </metadata>
  <trk>
    <name>厦门市 越野跑</name>
    <type>trail_running</type>
    <trkseg/>
  </trk>
</gpx>
