<gpx xmlns:ns3="http://www.garmin.com/xmlschemas/TrackPointExtension/v1" xmlns="http://www.topografix.com/GPX/1/1" xmlns:xsi="http://www.w3.org/2001/XMLSchema-instance" xmlns:ns2="http://www.garmin.com/xmlschemas/GpxExtensions/v3" creator="Garmin Connect" version="1.1" xsi:schemaLocation="http://www.topografix.com/GPX/1/1 http://www.topografix.com/GPX/11.xsd">
  <extensions>
<distance>19003.74</distance>
<average_hr>109.0</average_hr>
<average_speed>1.0180000066757202</average_speed>
<start_time>2025-11-30T01:58:45+00:00</start_time>
<end_time>2025-11-30T07:09:43.910000+00:00</end_time>
<moving_time>15845.728</moving_time>
<elapsed_time>27834.285</elapsed_time>
</extensions>
<metadata>
    <link href="connect.garmin.com">
      <text>Garmin Connect</text>
    </link>
    <time>2025-11-30T01:58:45.000Z</time>
  </metadata>
  <trk>
    <name>厦门市 越野跑</name>
    <type>trail_running</type>
    <trkseg/>
  </trk>
</gpx>
