<gpx xmlns:ns3="http://www.garmin.com/xmlschemas/TrackPointExtension/v1" xmlns="http://www.topografix.com/GPX/1/1" xmlns:xsi="http://www.w3.org/2001/XMLSchema-instance" xmlns:ns2="http://www.garmin.com/xmlschemas/GpxExtensions/v3" creator="Garmin Connect" version="1.1" xsi:schemaLocation="http://www.topografix.com/GPX/1/1 http://www.topografix.com/GPX/11.xsd">
  <extensions>
<distance>62779.55</distance>
<average_hr>141.0</average_hr>
<average_speed>1.1299999952316284</average_speed>
<start_time>2025-12-19T23:31:44+00:00</start_time>
<end_time>2025-12-20T14:57:41.133000+00:00</end_time>
<moving_time>46008.227</moving_time>
<elapsed_time>55557.133</elapsed_time>
</extensions>
<metadata>
    <link href="connect.garmin.com">
      <text>Garmin Connect</text>
    </link>
    <time>2025-12-19T23:31:44.000Z</time>
  </metadata>
  <trk>
    <name>福州市 越野跑</name>
    <type>trail_running</type>
    <trkseg/>
  </trk>
</gpx>
