<gpx xmlns:ns3="http://www.garmin.com/xmlschemas/TrackPointExtension/v1" xmlns="http://www.topografix.com/GPX/1/1" xmlns:xsi="http://www.w3.org/2001/XMLSchema-instance" xmlns:ns2="http://www.garmin.com/xmlschemas/GpxExtensions/v3" creator="Garmin Connect" version="1.1" xsi:schemaLocation="http://www.topografix.com/GPX/1/1 http://www.topografix.com/GPX/11.xsd">
  <extensions>
<distance>8147.0</distance>
<average_hr>0.0</average_hr>
<average_speed>2.696000099182129</average_speed>
<start_time>2016-10-27T11:51:12+00:00</start_time>
<end_time>2016-10-27T12:41:34+00:00</end_time>
<moving_time>805.0</moving_time>
<elapsed_time>3022.0</elapsed_time>
</extensions>
<metadata>
    <link href="connect.garmin.com">
      <text>Garmin Connect</text>
    </link>
    <time>2016-10-27T11:51:12.000Z</time>
  </metadata>
  <trk>
    <name>厦门市 街道路跑</name>
    <type>street_running</type>
    <trkseg>
      <trkpt lat="24.49780457653105258941650390625" lon="118.14450829289853572845458984375">
        <ele>0</ele>
        <time>2016-10-27T11:51:12.000Z</time>
        <extensions>
          <ns3:TrackPointExtension/>
        </extensions>
      </trkpt>
      <trkpt lat="24.49780457653105258941650390625" lon="118.14450829289853572845458984375">
        <ele>0</ele>
        <time>2016-10-27T11:51:17.000Z</time>
        <extensions>
          <ns3:TrackPointExtension/>
        </extensions>
      </trkpt>
      <trkpt lat="24.49040788225829601287841796875" lon="118.14828484319150447845458984375">
        <ele>0</ele>
        <time>2016-10-27T11:51:22.000Z</time>
        <extensions>
          <ns3:TrackPointExtension/>
        </extensions>
      </trkpt>
      <trkpt lat="24.4903544895350933074951171875" lon="118.1483917124569416046142578125">
        <ele>0</ele>
        <time>2016-10-27T11:51:27.000Z</time>
        <extensions>
          <ns3:TrackPointExtension/>
        </extensions>
      </trkpt>
      <trkpt lat="24.4903182797133922576904296875" lon="118.148246705532073974609375">
        <ele>0</ele>
        <time>2016-10-27T11:51:32.000Z</time>
        <extensions>
          <ns3:TrackPointExtension/>
        </extensions>
      </trkpt>
      <trkpt lat="24.49008174240589141845703125" lon="118.14822382293641567230224609375">
        <ele>0</ele>
        <time>2016-10-27T11:51:37.000Z</time>
        <extensions>
          <ns3:TrackPointExtension/>
        </extensions>
      </trkpt>
      <trkpt lat="24.48996917344629764556884765625" lon="118.14818568527698516845703125">
        <ele>0</ele>
        <time>2016-10-27T11:51:42.000Z</time>
        <extensions>
          <ns3:TrackPointExtension/>
        </extensions>
      </trkpt>
      <trkpt lat="24.489885270595550537109375" lon="118.14806364476680755615234375">
        <ele>0</ele>
        <time>2016-10-27T11:51:47.000Z</time>
        <extensions>
          <ns3:TrackPointExtension/>
        </extensions>
      </trkpt>
      <trkpt lat="24.4897784851491451263427734375" lon="118.14801025204360485076904296875">
        <ele>0</ele>
        <time>2016-10-27T11:51:52.000Z</time>
        <extensions>
          <ns3:TrackPointExtension/>
        </extensions>
      </trkpt>
      <trkpt lat="24.4897288642823696136474609375" lon="118.14786524511873722076416015625">
        <ele>0</ele>
        <time>2016-10-27T11:51:57.000Z</time>
        <extensions>
          <ns3:TrackPointExtension/>
        </extensions>
      </trkpt>
      <trkpt lat="24.4896373338997364044189453125" lon="118.14789575524628162384033203125">
        <ele>0</ele>
        <time>2016-10-27T11:52:02.000Z</time>
        <extensions>
          <ns3:TrackPointExtension/>
        </extensions>
      </trkpt>
      <trkpt lat="24.4896373338997364044189453125" lon="118.14789575524628162384033203125">
        <ele>0</ele>
        <time>2016-10-27T11:52:07.000Z</time>
        <extensions>
          <ns3:TrackPointExtension/>
        </extensions>
      </trkpt>
      <trkpt lat="24.48952862061560153961181640625" lon="118.14778896979987621307373046875">
        <ele>0</ele>
        <time>2016-10-27T11:52:12.000Z</time>
        <extensions>
          <ns3:TrackPointExtension/>
        </extensions>
      </trkpt>
      <trkpt lat="24.48952862061560153961181640625" lon="118.14778896979987621307373046875">
        <ele>0</ele>
        <time>2016-10-27T11:52:17.000Z</time>
        <extensions>
          <ns3:TrackPointExtension/>
        </extensions>
      </trkpt>
      <trkpt lat="24.4876174628734588623046875" lon="118.1475448049604892730712890625">
        <ele>0</ele>
        <time>2016-10-27T11:52:22.000Z</time>
        <extensions>
          <ns3:TrackPointExtension/>
        </extensions>
      </trkpt>
      <trkpt lat="24.48750874958932399749755859375" lon="118.14750666730105876922607421875">
        <ele>0</ele>
        <time>2016-10-27T11:52:27.000Z</time>
        <extensions>
          <ns3:TrackPointExtension/>
        </extensions>
      </trkpt>
      <trkpt lat="24.48733516037464141845703125" lon="118.1475142948329448699951171875">
        <ele>0</ele>
        <time>2016-10-27T11:52:32.000Z</time>
        <extensions>
          <ns3:TrackPointExtension/>
        </extensions>
      </trkpt>
      <trkpt lat="24.48733516037464141845703125" lon="118.1475142948329448699951171875">
        <ele>0</ele>
        <time>2016-10-27T11:52:37.000Z</time>
        <extensions>
          <ns3:TrackPointExtension/>
        </extensions>
      </trkpt>
      <trkpt lat="24.48446075432002544403076171875" lon="118.1474380195140838623046875">
        <ele>0</ele>
        <time>2016-10-27T11:52:42.000Z</time>
        <extensions>
          <ns3:TrackPointExtension/>
        </extensions>
      </trkpt>
      <trkpt lat="24.4843558967113494873046875" lon="118.14741513691842555999755859375">
        <ele>0</ele>
        <time>2016-10-27T11:52:47.000Z</time>
        <extensions>
          <ns3:TrackPointExtension/>
        </extensions>
      </trkpt>
      <trkpt lat="24.48418800719082355499267578125" lon="118.14741513691842555999755859375">
        <ele>0</ele>
        <time>2016-10-27T11:52:52.000Z</time>
        <extensions>
          <ns3:TrackPointExtension/>
        </extensions>
      </trkpt>
      <trkpt lat="24.48409647680819034576416015625" lon="118.14743039198219776153564453125">
        <ele>0</ele>
        <time>2016-10-27T11:52:57.000Z</time>
        <extensions>
          <ns3:TrackPointExtension/>
        </extensions>
      </trkpt>
      <trkpt lat="24.48394962586462497711181640625" lon="118.1474227644503116607666015625">
        <ele>0</ele>
        <time>2016-10-27T11:53:02.000Z</time>
        <extensions>
          <ns3:TrackPointExtension/>
        </extensions>
      </trkpt>
      <trkpt lat="24.4838809780776500701904296875" lon="118.147346489131450653076171875">
        <ele>0</ele>
        <time>2016-10-27T11:53:07.000Z</time>
        <extensions>
          <ns3:TrackPointExtension/>
        </extensions>
      </trkpt>
      <trkpt lat="24.4838809780776500701904296875" lon="118.147346489131450653076171875">
        <ele>0</ele>
        <time>2016-10-27T11:53:12.000Z</time>
        <extensions>
          <ns3:TrackPointExtension/>
        </extensions>
      </trkpt>
      <trkpt lat="24.4838809780776500701904296875" lon="118.147346489131450653076171875">
        <ele>0</ele>
        <time>2016-10-27T11:53:17.000Z</time>
        <extensions>
          <ns3:TrackPointExtension/>
        </extensions>
      </trkpt>
      <trkpt lat="24.483320228755474090576171875" lon="118.1474380195140838623046875">
        <ele>0</ele>
        <time>2016-10-27T11:53:22.000Z</time>
        <extensions>
          <ns3:TrackPointExtension/>
        </extensions>
      </trkpt>
      <trkpt lat="24.48314093984663486480712890625" lon="118.1474532745778560638427734375">
        <ele>0</ele>
        <time>2016-10-27T11:53:27.000Z</time>
        <extensions>
          <ns3:TrackPointExtension/>
        </extensions>
      </trkpt>
      <trkpt lat="24.48302074335515499114990234375" lon="118.1474380195140838623046875">
        <ele>0</ele>
        <time>2016-10-27T11:53:32.000Z</time>
        <extensions>
          <ns3:TrackPointExtension/>
        </extensions>
      </trkpt>
      <trkpt lat="24.48302074335515499114990234375" lon="118.1474380195140838623046875">
        <ele>0</ele>
        <time>2016-10-27T11:53:37.000Z</time>
        <extensions>
          <ns3:TrackPointExtension/>
        </extensions>
      </trkpt>
      <trkpt lat="24.4829063303768634796142578125" lon="118.14741513691842555999755859375">
        <ele>0</ele>
        <time>2016-10-27T11:53:42.000Z</time>
        <extensions>
          <ns3:TrackPointExtension/>
        </extensions>
      </trkpt>
      <trkpt lat="24.4828109443187713623046875" lon="118.14739988185465335845947265625">
        <ele>0</ele>
        <time>2016-10-27T11:53:47.000Z</time>
        <extensions>
          <ns3:TrackPointExtension/>
        </extensions>
      </trkpt>
      <trkpt lat="24.4828109443187713623046875" lon="118.14739988185465335845947265625">
        <ele>0</ele>
        <time>2016-10-27T11:53:52.000Z</time>
        <extensions>
          <ns3:TrackPointExtension/>
        </extensions>
      </trkpt>
      <trkpt lat="24.4826850481331348419189453125" lon="118.147407509386539459228515625">
        <ele>0</ele>
        <time>2016-10-27T11:53:57.000Z</time>
        <extensions>
          <ns3:TrackPointExtension/>
        </extensions>
      </trkpt>
      <trkpt lat="24.48256107978522777557373046875" lon="118.14733886159956455230712890625">
        <ele>0</ele>
        <time>2016-10-27T11:54:02.000Z</time>
        <extensions>
          <ns3:TrackPointExtension/>
        </extensions>
      </trkpt>
      <trkpt lat="24.482534341514110565185546875" lon="118.1474380195140838623046875">
        <ele>0</ele>
        <time>2016-10-27T11:54:07.000Z</time>
        <extensions>
          <ns3:TrackPointExtension/>
        </extensions>
      </trkpt>
      <trkpt lat="24.482448510825634002685546875" lon="118.14747615717351436614990234375">
        <ele>0</ele>
        <time>2016-10-27T11:54:12.000Z</time>
        <extensions>
          <ns3:TrackPointExtension/>
        </extensions>
      </trkpt>
      <trkpt lat="24.482534341514110565185546875" lon="118.1474380195140838623046875">
        <ele>0</ele>
        <time>2016-10-27T11:54:17.000Z</time>
        <extensions>
          <ns3:TrackPointExtension/>
        </extensions>
      </trkpt>
      <trkpt lat="24.482448510825634002685546875" lon="118.14747615717351436614990234375">
        <ele>0</ele>
        <time>2016-10-27T11:54:22.000Z</time>
        <extensions>
          <ns3:TrackPointExtension/>
        </extensions>
      </trkpt>
      <trkpt lat="24.482448510825634002685546875" lon="118.14747615717351436614990234375">
        <ele>0</ele>
        <time>2016-10-27T11:54:27.000Z</time>
        <extensions>
          <ns3:TrackPointExtension/>
        </extensions>
      </trkpt>
      <trkpt lat="24.48184392414987087249755859375" lon="118.1474380195140838623046875">
        <ele>0</ele>
        <time>2016-10-27T11:54:32.000Z</time>
        <extensions>
          <ns3:TrackPointExtension/>
        </extensions>
      </trkpt>
      <trkpt lat="24.481737054884433746337890625" lon="118.1473617441952228546142578125">
        <ele>0</ele>
        <time>2016-10-27T11:54:37.000Z</time>
        <extensions>
          <ns3:TrackPointExtension/>
        </extensions>
      </trkpt>
      <trkpt lat="24.4816093146800994873046875" lon="118.14739988185465335845947265625">
        <ele>0</ele>
        <time>2016-10-27T11:54:42.000Z</time>
        <extensions>
          <ns3:TrackPointExtension/>
        </extensions>
      </trkpt>
      <trkpt lat="24.48156162165105342864990234375" lon="118.1472930125892162322998046875">
        <ele>0</ele>
        <time>2016-10-27T11:54:47.000Z</time>
        <extensions>
          <ns3:TrackPointExtension/>
        </extensions>
      </trkpt>
      <trkpt lat="24.48144905269145965576171875" lon="118.14727775752544403076171875">
        <ele>0</ele>
        <time>2016-10-27T11:54:52.000Z</time>
        <extensions>
          <ns3:TrackPointExtension/>
        </extensions>
      </trkpt>
      <trkpt lat="24.481332711875438690185546875" lon="118.14727012999355792999267578125">
        <ele>0</ele>
        <time>2016-10-27T11:54:57.000Z</time>
        <extensions>
          <ns3:TrackPointExtension/>
        </extensions>
      </trkpt>
      <trkpt lat="24.48123355396091938018798828125" lon="118.14723961986601352691650390625">
        <ele>0</ele>
        <time>2016-10-27T11:55:02.000Z</time>
        <extensions>
          <ns3:TrackPointExtension/>
        </extensions>
      </trkpt>
      <trkpt lat="24.48114202357828617095947265625" lon="118.147247247397899627685546875">
        <ele>0</ele>
        <time>2016-10-27T11:55:07.000Z</time>
        <extensions>
          <ns3:TrackPointExtension/>
        </extensions>
      </trkpt>
      <trkpt lat="24.48123355396091938018798828125" lon="118.14723961986601352691650390625">
        <ele>0</ele>
        <time>2016-10-27T11:55:12.000Z</time>
        <extensions>
          <ns3:TrackPointExtension/>
        </extensions>
      </trkpt>
      <trkpt lat="24.4810943305492401123046875" lon="118.14714808948338031768798828125">
        <ele>0</ele>
        <time>2016-10-27T11:55:17.000Z</time>
        <extensions>
          <ns3:TrackPointExtension/>
        </extensions>
      </trkpt>
      <trkpt lat="24.481002800166606903076171875" lon="118.1471709720790386199951171875">
        <ele>0</ele>
        <time>2016-10-27T11:55:22.000Z</time>
        <extensions>
          <ns3:TrackPointExtension/>
        </extensions>
      </trkpt>
      <trkpt lat="24.480916969478130340576171875" lon="118.14722436480224132537841796875">
        <ele>0</ele>
        <time>2016-10-27T11:55:27.000Z</time>
        <extensions>
          <ns3:TrackPointExtension/>
        </extensions>
      </trkpt>
      <trkpt lat="24.480916969478130340576171875" lon="118.14722436480224132537841796875">
        <ele>0</ele>
        <time>2016-10-27T11:55:32.000Z</time>
        <extensions>
          <ns3:TrackPointExtension/>
        </extensions>
      </trkpt>
      <trkpt lat="24.480916969478130340576171875" lon="118.14722436480224132537841796875">
        <ele>0</ele>
        <time>2016-10-27T11:55:37.000Z</time>
        <extensions>
          <ns3:TrackPointExtension/>
        </extensions>
      </trkpt>
      <trkpt lat="24.47926514782011508941650390625" lon="118.1474380195140838623046875">
        <ele>0</ele>
        <time>2016-10-27T11:55:42.000Z</time>
        <extensions>
          <ns3:TrackPointExtension/>
        </extensions>
      </trkpt>
      <trkpt lat="24.47937008924782276153564453125" lon="118.14738462679088115692138671875">
        <ele>0</ele>
        <time>2016-10-27T11:55:47.000Z</time>
        <extensions>
          <ns3:TrackPointExtension/>
        </extensions>
      </trkpt>
      <trkpt lat="24.47939489968121051788330078125" lon="118.14794152043759822845458984375">
        <ele>0</ele>
        <time>2016-10-27T11:55:52.000Z</time>
        <extensions>
          <ns3:TrackPointExtension/>
        </extensions>
      </trkpt>
      <trkpt lat="24.47932616807520389556884765625" lon="118.14802550710737705230712890625">
        <ele>0</ele>
        <time>2016-10-27T11:55:57.000Z</time>
        <extensions>
          <ns3:TrackPointExtension/>
        </extensions>
      </trkpt>
      <trkpt lat="24.4793185405433177947998046875" lon="118.1481399200856685638427734375">
        <ele>0</ele>
        <time>2016-10-27T11:56:02.000Z</time>
        <extensions>
          <ns3:TrackPointExtension/>
        </extensions>
      </trkpt>
      <trkpt lat="24.479322396218776702880859375" lon="118.14828484319150447845458984375">
        <ele>0</ele>
        <time>2016-10-27T11:56:07.000Z</time>
        <extensions>
          <ns3:TrackPointExtension/>
        </extensions>
      </trkpt>
      <trkpt lat="24.479322396218776702880859375" lon="118.14828484319150447845458984375">
        <ele>0</ele>
        <time>2016-10-27T11:56:12.000Z</time>
        <extensions>
          <ns3:TrackPointExtension/>
        </extensions>
      </trkpt>
      <trkpt lat="24.47933572344481945037841796875" lon="118.14842985011637210845947265625">
        <ele>0</ele>
        <time>2016-10-27T11:56:17.000Z</time>
        <extensions>
          <ns3:TrackPointExtension/>
        </extensions>
      </trkpt>
      <trkpt lat="24.4793014414608478546142578125" lon="118.14852900803089141845703125">
        <ele>0</ele>
        <time>2016-10-27T11:56:22.000Z</time>
        <extensions>
          <ns3:TrackPointExtension/>
        </extensions>
      </trkpt>
      <trkpt lat="24.479272775352001190185546875" lon="118.14868927001953125">
        <ele>0</ele>
        <time>2016-10-27T11:56:27.000Z</time>
        <extensions>
          <ns3:TrackPointExtension/>
        </extensions>
      </trkpt>
      <trkpt lat="24.479272775352001190185546875" lon="118.14868927001953125">
        <ele>0</ele>
        <time>2016-10-27T11:56:32.000Z</time>
        <extensions>
          <ns3:TrackPointExtension/>
        </extensions>
      </trkpt>
      <trkpt lat="24.47927855886518955230712890625" lon="118.1488113105297088623046875">
        <ele>0</ele>
        <time>2016-10-27T11:56:37.000Z</time>
        <extensions>
          <ns3:TrackPointExtension/>
        </extensions>
      </trkpt>
      <trkpt lat="24.47922893799841403961181640625" lon="118.14891046844422817230224609375">
        <ele>0</ele>
        <time>2016-10-27T11:56:42.000Z</time>
        <extensions>
          <ns3:TrackPointExtension/>
        </extensions>
      </trkpt>
      <trkpt lat="24.4792518205940723419189453125" lon="118.14901725389063358306884765625">
        <ele>0</ele>
        <time>2016-10-27T11:56:47.000Z</time>
        <extensions>
          <ns3:TrackPointExtension/>
        </extensions>
      </trkpt>
      <trkpt lat="24.4792518205940723419189453125" lon="118.14901725389063358306884765625">
        <ele>0</ele>
        <time>2016-10-27T11:56:52.000Z</time>
        <extensions>
          <ns3:TrackPointExtension/>
        </extensions>
      </trkpt>
      <trkpt lat="24.47926514782011508941650390625" lon="118.14911649562418460845947265625">
        <ele>0</ele>
        <time>2016-10-27T11:56:57.000Z</time>
        <extensions>
          <ns3:TrackPointExtension/>
        </extensions>
      </trkpt>
      <trkpt lat="24.47922508232295513153076171875" lon="118.1492309086024761199951171875">
        <ele>0</ele>
        <time>2016-10-27T11:57:02.000Z</time>
        <extensions>
          <ns3:TrackPointExtension/>
        </extensions>
      </trkpt>
      <trkpt lat="24.4792327098548412322998046875" lon="118.14934532158076763153076171875">
        <ele>0</ele>
        <time>2016-10-27T11:57:07.000Z</time>
        <extensions>
          <ns3:TrackPointExtension/>
        </extensions>
      </trkpt>
      <trkpt lat="24.479211755096912384033203125" lon="118.149467445909976959228515625">
        <ele>0</ele>
        <time>2016-10-27T11:57:12.000Z</time>
        <extensions>
          <ns3:TrackPointExtension/>
        </extensions>
      </trkpt>
      <trkpt lat="24.47915450669825077056884765625" lon="118.1495742313563823699951171875">
        <ele>0</ele>
        <time>2016-10-27T11:57:17.000Z</time>
        <extensions>
          <ns3:TrackPointExtension/>
        </extensions>
      </trkpt>
      <trkpt lat="24.479211755096912384033203125" lon="118.149467445909976959228515625">
        <ele>0</ele>
        <time>2016-10-27T11:57:22.000Z</time>
        <extensions>
          <ns3:TrackPointExtension/>
        </extensions>
      </trkpt>
      <trkpt lat="24.47920982725918292999267578125" lon="118.14968101680278778076171875">
        <ele>0</ele>
        <time>2016-10-27T11:57:27.000Z</time>
        <extensions>
          <ns3:TrackPointExtension/>
        </extensions>
      </trkpt>
      <trkpt lat="24.47918887250125408172607421875" lon="118.1498565338551998138427734375">
        <ele>0</ele>
        <time>2016-10-27T11:57:32.000Z</time>
        <extensions>
          <ns3:TrackPointExtension/>
        </extensions>
      </trkpt>
      <trkpt lat="24.47917747311294078826904296875" lon="118.14998620189726352691650390625">
        <ele>0</ele>
        <time>2016-10-27T11:57:37.000Z</time>
        <extensions>
          <ns3:TrackPointExtension/>
        </extensions>
      </trkpt>
      <trkpt lat="24.479150734841823577880859375" lon="118.15010069869458675384521484375">
        <ele>0</ele>
        <time>2016-10-27T11:57:42.000Z</time>
        <extensions>
          <ns3:TrackPointExtension/>
        </extensions>
      </trkpt>
      <trkpt lat="24.47917931713163852691650390625" lon="118.15022273920476436614990234375">
        <ele>0</ele>
        <time>2016-10-27T11:57:47.000Z</time>
        <extensions>
          <ns3:TrackPointExtension/>
        </extensions>
      </trkpt>
      <trkpt lat="24.47917361743748188018798828125" lon="118.1503524072468280792236328125">
        <ele>0</ele>
        <time>2016-10-27T11:57:52.000Z</time>
        <extensions>
          <ns3:TrackPointExtension/>
        </extensions>
      </trkpt>
      <trkpt lat="24.4792156107723712921142578125" lon="118.15044402144849300384521484375">
        <ele>0</ele>
        <time>2016-10-27T11:57:57.000Z</time>
        <extensions>
          <ns3:TrackPointExtension/>
        </extensions>
      </trkpt>
      <trkpt lat="24.4792156107723712921142578125" lon="118.15044402144849300384521484375">
        <ele>0</ele>
        <time>2016-10-27T11:58:02.000Z</time>
        <extensions>
          <ns3:TrackPointExtension/>
        </extensions>
      </trkpt>
      <trkpt lat="24.47921745479106903076171875" lon="118.15056606195867061614990234375">
        <ele>0</ele>
        <time>2016-10-27T11:58:07.000Z</time>
        <extensions>
          <ns3:TrackPointExtension/>
        </extensions>
      </trkpt>
      <trkpt lat="24.47918887250125408172607421875" lon="118.15067284740507602691650390625">
        <ele>0</ele>
        <time>2016-10-27T11:58:12.000Z</time>
        <extensions>
          <ns3:TrackPointExtension/>
        </extensions>
      </trkpt>
      <trkpt lat="24.47918124496936798095703125" lon="118.15081022679805755615234375">
        <ele>0</ele>
        <time>2016-10-27T11:58:17.000Z</time>
        <extensions>
          <ns3:TrackPointExtension/>
        </extensions>
      </trkpt>
      <trkpt lat="24.4791698455810546875" lon="118.15092463977634906768798828125">
        <ele>0</ele>
        <time>2016-10-27T11:58:22.000Z</time>
        <extensions>
          <ns3:TrackPointExtension/>
        </extensions>
      </trkpt>
      <trkpt lat="24.4791698455810546875" lon="118.15092463977634906768798828125">
        <ele>0</ele>
        <time>2016-10-27T11:58:27.000Z</time>
        <extensions>
          <ns3:TrackPointExtension/>
        </extensions>
      </trkpt>
      <trkpt lat="24.4791851006448268890380859375" lon="118.15106193535029888153076171875">
        <ele>0</ele>
        <time>2016-10-27T11:58:32.000Z</time>
        <extensions>
          <ns3:TrackPointExtension/>
        </extensions>
      </trkpt>
      <trkpt lat="24.47916791774332523345947265625" lon="118.15120694227516651153564453125">
        <ele>0</ele>
        <time>2016-10-27T11:58:37.000Z</time>
        <extensions>
          <ns3:TrackPointExtension/>
        </extensions>
      </trkpt>
      <trkpt lat="24.47914880700409412384033203125" lon="118.151306100189685821533203125">
        <ele>0</ele>
        <time>2016-10-27T11:58:42.000Z</time>
        <extensions>
          <ns3:TrackPointExtension/>
        </extensions>
      </trkpt>
      <trkpt lat="24.479186944663524627685546875" lon="118.1514128856360912322998046875">
        <ele>0</ele>
        <time>2016-10-27T11:58:47.000Z</time>
        <extensions>
          <ns3:TrackPointExtension/>
        </extensions>
      </trkpt>
      <trkpt lat="24.47916791774332523345947265625" lon="118.15155026502907276153564453125">
        <ele>0</ele>
        <time>2016-10-27T11:58:52.000Z</time>
        <extensions>
          <ns3:TrackPointExtension/>
        </extensions>
      </trkpt>
      <trkpt lat="24.47914310730993747711181640625" lon="118.1516646780073642730712890625">
        <ele>0</ele>
        <time>2016-10-27T11:58:57.000Z</time>
        <extensions>
          <ns3:TrackPointExtension/>
        </extensions>
      </trkpt>
      <trkpt lat="24.47914310730993747711181640625" lon="118.1516646780073642730712890625">
        <ele>0</ele>
        <time>2016-10-27T11:59:02.000Z</time>
        <extensions>
          <ns3:TrackPointExtension/>
        </extensions>
      </trkpt>
      <trkpt lat="24.4791297800838947296142578125" lon="118.15181731246411800384521484375">
        <ele>0</ele>
        <time>2016-10-27T11:59:07.000Z</time>
        <extensions>
          <ns3:TrackPointExtension/>
        </extensions>
      </trkpt>
      <trkpt lat="24.4790992699563503265380859375" lon="118.1519164703786373138427734375">
        <ele>0</ele>
        <time>2016-10-27T11:59:12.000Z</time>
        <extensions>
          <ns3:TrackPointExtension/>
        </extensions>
      </trkpt>
      <trkpt lat="24.47909348644316196441650390625" lon="118.152023255825042724609375">
        <ele>0</ele>
        <time>2016-10-27T11:59:17.000Z</time>
        <extensions>
          <ns3:TrackPointExtension/>
        </extensions>
      </trkpt>
      <trkpt lat="24.47909348644316196441650390625" lon="118.152023255825042724609375">
        <ele>0</ele>
        <time>2016-10-27T11:59:22.000Z</time>
        <extensions>
          <ns3:TrackPointExtension/>
        </extensions>
      </trkpt>
      <trkpt lat="24.47910304181277751922607421875" lon="118.15212249755859375">
        <ele>0</ele>
        <time>2016-10-27T11:59:27.000Z</time>
        <extensions>
          <ns3:TrackPointExtension/>
        </extensions>
      </trkpt>
      <trkpt lat="24.4791106693446636199951171875" lon="118.15223691053688526153564453125">
        <ele>0</ele>
        <time>2016-10-27T11:59:32.000Z</time>
        <extensions>
          <ns3:TrackPointExtension/>
        </extensions>
      </trkpt>
      <trkpt lat="24.47909164242446422576904296875" lon="118.15237420611083507537841796875">
        <ele>0</ele>
        <time>2016-10-27T11:59:37.000Z</time>
        <extensions>
          <ns3:TrackPointExtension/>
        </extensions>
      </trkpt>
      <trkpt lat="24.479064904153347015380859375" lon="118.152496330440044403076171875">
        <ele>0</ele>
        <time>2016-10-27T11:59:42.000Z</time>
        <extensions>
          <ns3:TrackPointExtension/>
        </extensions>
      </trkpt>
      <trkpt lat="24.479064904153347015380859375" lon="118.152496330440044403076171875">
        <ele>0</ele>
        <time>2016-10-27T11:59:47.000Z</time>
        <extensions>
          <ns3:TrackPointExtension/>
        </extensions>
      </trkpt>
      <trkpt lat="24.47904202155768871307373046875" lon="118.1526336260139942169189453125">
        <ele>0</ele>
        <time>2016-10-27T11:59:52.000Z</time>
        <extensions>
          <ns3:TrackPointExtension/>
        </extensions>
      </trkpt>
      <trkpt lat="24.47897144593298435211181640625" lon="118.15274803899228572845458984375">
        <ele>0</ele>
        <time>2016-10-27T11:59:57.000Z</time>
        <extensions>
          <ns3:TrackPointExtension/>
        </extensions>
      </trkpt>
      <trkpt lat="24.47897144593298435211181640625" lon="118.15274803899228572845458984375">
        <ele>0</ele>
        <time>2016-10-27T12:00:02.000Z</time>
        <extensions>
          <ns3:TrackPointExtension/>
        </extensions>
      </trkpt>
      <trkpt lat="24.4790000282227993011474609375" lon="118.15287016332149505615234375">
        <ele>0</ele>
        <time>2016-10-27T12:00:07.000Z</time>
        <extensions>
          <ns3:TrackPointExtension/>
        </extensions>
      </trkpt>
      <trkpt lat="24.4789390079677104949951171875" lon="118.15295406617224216461181640625">
        <ele>0</ele>
        <time>2016-10-27T12:00:12.000Z</time>
        <extensions>
          <ns3:TrackPointExtension/>
        </extensions>
      </trkpt>
      <trkpt lat="24.4788893871009349822998046875" lon="118.15304559655487537384033203125">
        <ele>0</ele>
        <time>2016-10-27T12:00:17.000Z</time>
        <extensions>
          <ns3:TrackPointExtension/>
        </extensions>
      </trkpt>
      <trkpt lat="24.47886080481112003326416015625" lon="118.1531524658203125">
        <ele>0</ele>
        <time>2016-10-27T12:00:22.000Z</time>
        <extensions>
          <ns3:TrackPointExtension/>
        </extensions>
      </trkpt>
      <trkpt lat="24.4788531772792339324951171875" lon="118.153305016458034515380859375">
        <ele>0</ele>
        <time>2016-10-27T12:00:27.000Z</time>
        <extensions>
          <ns3:TrackPointExtension/>
        </extensions>
      </trkpt>
      <trkpt lat="24.47886650450527667999267578125" lon="118.1534423120319843292236328125">
        <ele>0</ele>
        <time>2016-10-27T12:00:32.000Z</time>
        <extensions>
          <ns3:TrackPointExtension/>
        </extensions>
      </trkpt>
      <trkpt lat="24.47880933992564678192138671875" lon="118.15355680882930755615234375">
        <ele>0</ele>
        <time>2016-10-27T12:00:37.000Z</time>
        <extensions>
          <ns3:TrackPointExtension/>
        </extensions>
      </trkpt>
      <trkpt lat="24.47879408486187458038330078125" lon="118.15371698699891567230224609375">
        <ele>0</ele>
        <time>2016-10-27T12:00:42.000Z</time>
        <extensions>
          <ns3:TrackPointExtension/>
        </extensions>
      </trkpt>
      <trkpt lat="24.47879408486187458038330078125" lon="118.15371698699891567230224609375">
        <ele>0</ele>
        <time>2016-10-27T12:00:47.000Z</time>
        <extensions>
          <ns3:TrackPointExtension/>
        </extensions>
      </trkpt>
      <trkpt lat="24.47842209599912166595458984375" lon="118.154769837856292724609375">
        <ele>0</ele>
        <time>2016-10-27T12:00:52.000Z</time>
        <extensions>
          <ns3:TrackPointExtension/>
        </extensions>
      </trkpt>
      <trkpt lat="24.47842209599912166595458984375" lon="118.154769837856292724609375">
        <ele>0</ele>
        <time>2016-10-27T12:00:57.000Z</time>
        <extensions>
          <ns3:TrackPointExtension/>
        </extensions>
      </trkpt>
      <trkpt lat="24.4783992134034633636474609375" lon="118.1548843346536159515380859375">
        <ele>0</ele>
        <time>2016-10-27T12:01:02.000Z</time>
        <extensions>
          <ns3:TrackPointExtension/>
        </extensions>
      </trkpt>
      <trkpt lat="24.4783324934542179107666015625" lon="118.15504451282322406768798828125">
        <ele>0</ele>
        <time>2016-10-27T12:01:07.000Z</time>
        <extensions>
          <ns3:TrackPointExtension/>
        </extensions>
      </trkpt>
      <trkpt lat="24.4783267937600612640380859375" lon="118.15516655333340167999267578125">
        <ele>0</ele>
        <time>2016-10-27T12:01:12.000Z</time>
        <extensions>
          <ns3:TrackPointExtension/>
        </extensions>
      </trkpt>
      <trkpt lat="24.47830005548894405364990234375" lon="118.15528105013072490692138671875">
        <ele>0</ele>
        <time>2016-10-27T12:01:17.000Z</time>
        <extensions>
          <ns3:TrackPointExtension/>
        </extensions>
      </trkpt>
      <trkpt lat="24.47832101024687290191650390625" lon="118.1553802080452442169189453125">
        <ele>0</ele>
        <time>2016-10-27T12:01:22.000Z</time>
        <extensions>
          <ns3:TrackPointExtension/>
        </extensions>
      </trkpt>
      <trkpt lat="24.47832101024687290191650390625" lon="118.1553802080452442169189453125">
        <ele>0</ele>
        <time>2016-10-27T12:01:27.000Z</time>
        <extensions>
          <ns3:TrackPointExtension/>
        </extensions>
      </trkpt>
      <trkpt lat="24.47828672826290130615234375" lon="118.15547936595976352691650390625">
        <ele>0</ele>
        <time>2016-10-27T12:01:32.000Z</time>
        <extensions>
          <ns3:TrackPointExtension/>
        </extensions>
      </trkpt>
      <trkpt lat="24.47829050011932849884033203125" lon="118.15559386275708675384521484375">
        <ele>0</ele>
        <time>2016-10-27T12:01:37.000Z</time>
        <extensions>
          <ns3:TrackPointExtension/>
        </extensions>
      </trkpt>
      <trkpt lat="24.4782523624598979949951171875" lon="118.155708275735378265380859375">
        <ele>0</ele>
        <time>2016-10-27T12:01:42.000Z</time>
        <extensions>
          <ns3:TrackPointExtension/>
        </extensions>
      </trkpt>
      <trkpt lat="24.4782523624598979949951171875" lon="118.155708275735378265380859375">
        <ele>0</ele>
        <time>2016-10-27T12:01:47.000Z</time>
        <extensions>
          <ns3:TrackPointExtension/>
        </extensions>
      </trkpt>
      <trkpt lat="24.47819327004253864288330078125" lon="118.15586082637310028076171875">
        <ele>0</ele>
        <time>2016-10-27T12:01:52.000Z</time>
        <extensions>
          <ns3:TrackPointExtension/>
        </extensions>
      </trkpt>
      <trkpt lat="24.47814364917576313018798828125" lon="118.15596006810665130615234375">
        <ele>0</ele>
        <time>2016-10-27T12:01:57.000Z</time>
        <extensions>
          <ns3:TrackPointExtension/>
        </extensions>
      </trkpt>
      <trkpt lat="24.47810928337275981903076171875" lon="118.15605922602117061614990234375">
        <ele>0</ele>
        <time>2016-10-27T12:02:02.000Z</time>
        <extensions>
          <ns3:TrackPointExtension/>
        </extensions>
      </trkpt>
      <trkpt lat="24.4780693016946315765380859375" lon="118.15616601146757602691650390625">
        <ele>0</ele>
        <time>2016-10-27T12:02:07.000Z</time>
        <extensions>
          <ns3:TrackPointExtension/>
        </extensions>
      </trkpt>
      <trkpt lat="24.4780693016946315765380859375" lon="118.15628050826489925384521484375">
        <ele>0</ele>
        <time>2016-10-27T12:02:12.000Z</time>
        <extensions>
          <ns3:TrackPointExtension/>
        </extensions>
      </trkpt>
      <trkpt lat="24.47806167416274547576904296875" lon="118.15641780383884906768798828125">
        <ele>0</ele>
        <time>2016-10-27T12:02:17.000Z</time>
        <extensions>
          <ns3:TrackPointExtension/>
        </extensions>
      </trkpt>
      <trkpt lat="24.47803300805389881134033203125" lon="118.15652458928525447845458984375">
        <ele>0</ele>
        <time>2016-10-27T12:02:22.000Z</time>
        <extensions>
          <ns3:TrackPointExtension/>
        </extensions>
      </trkpt>
      <trkpt lat="24.47803300805389881134033203125" lon="118.15652458928525447845458984375">
        <ele>0</ele>
        <time>2016-10-27T12:02:27.000Z</time>
        <extensions>
          <ns3:TrackPointExtension/>
        </extensions>
      </trkpt>
      <trkpt lat="24.47801205329596996307373046875" lon="118.15663908608257770538330078125">
        <ele>0</ele>
        <time>2016-10-27T12:02:32.000Z</time>
        <extensions>
          <ns3:TrackPointExtension/>
        </extensions>
      </trkpt>
      <trkpt lat="24.47801775299012660980224609375" lon="118.15674587152898311614990234375">
        <ele>0</ele>
        <time>2016-10-27T12:02:37.000Z</time>
        <extensions>
          <ns3:TrackPointExtension/>
        </extensions>
      </trkpt>
      <trkpt lat="24.47800635360181331634521484375" lon="118.1568755395710468292236328125">
        <ele>0</ele>
        <time>2016-10-27T12:02:42.000Z</time>
        <extensions>
          <ns3:TrackPointExtension/>
        </extensions>
      </trkpt>
      <trkpt lat="24.47801775299012660980224609375" lon="118.15674587152898311614990234375">
        <ele>0</ele>
        <time>2016-10-27T12:02:47.000Z</time>
        <extensions>
          <ns3:TrackPointExtension/>
        </extensions>
      </trkpt>
      <trkpt lat="24.477998726069927215576171875" lon="118.15699003636837005615234375">
        <ele>0</ele>
        <time>2016-10-27T12:02:52.000Z</time>
        <extensions>
          <ns3:TrackPointExtension/>
        </extensions>
      </trkpt>
      <trkpt lat="24.4779586605727672576904296875" lon="118.15711207687854766845703125">
        <ele>0</ele>
        <time>2016-10-27T12:02:57.000Z</time>
        <extensions>
          <ns3:TrackPointExtension/>
        </extensions>
      </trkpt>
      <trkpt lat="24.47791096754372119903564453125" lon="118.157264627516269683837890625">
        <ele>0</ele>
        <time>2016-10-27T12:03:02.000Z</time>
        <extensions>
          <ns3:TrackPointExtension/>
        </extensions>
      </trkpt>
      <trkpt lat="24.47789185680449008941650390625" lon="118.15735624171793460845947265625">
        <ele>0</ele>
        <time>2016-10-27T12:03:07.000Z</time>
        <extensions>
          <ns3:TrackPointExtension/>
        </extensions>
      </trkpt>
      <trkpt lat="24.47778121568262577056884765625" lon="118.15747828222811222076416015625">
        <ele>0</ele>
        <time>2016-10-27T12:03:12.000Z</time>
        <extensions>
          <ns3:TrackPointExtension/>
        </extensions>
      </trkpt>
      <trkpt lat="24.4777373783290386199951171875" lon="118.1575926952064037322998046875">
        <ele>0</ele>
        <time>2016-10-27T12:03:17.000Z</time>
        <extensions>
          <ns3:TrackPointExtension/>
        </extensions>
      </trkpt>
      <trkpt lat="24.47777174413204193115234375" lon="118.1576919369399547576904296875">
        <ele>0</ele>
        <time>2016-10-27T12:03:22.000Z</time>
        <extensions>
          <ns3:TrackPointExtension/>
        </extensions>
      </trkpt>
      <trkpt lat="24.477752633392810821533203125" lon="118.15779872238636016845703125">
        <ele>0</ele>
        <time>2016-10-27T12:03:27.000Z</time>
        <extensions>
          <ns3:TrackPointExtension/>
        </extensions>
      </trkpt>
      <trkpt lat="24.47773930616676807403564453125" lon="118.15789788030087947845458984375">
        <ele>0</ele>
        <time>2016-10-27T12:03:32.000Z</time>
        <extensions>
          <ns3:TrackPointExtension/>
        </extensions>
      </trkpt>
      <trkpt lat="24.47769538499414920806884765625" lon="118.157989494502544403076171875">
        <ele>0</ele>
        <time>2016-10-27T12:03:37.000Z</time>
        <extensions>
          <ns3:TrackPointExtension/>
        </extensions>
      </trkpt>
      <trkpt lat="24.47766303084790706634521484375" lon="118.1580962799489498138427734375">
        <ele>0</ele>
        <time>2016-10-27T12:03:42.000Z</time>
        <extensions>
          <ns3:TrackPointExtension/>
        </extensions>
      </trkpt>
      <trkpt lat="24.47765917517244815826416015625" lon="118.158233575522899627685546875">
        <ele>0</ele>
        <time>2016-10-27T12:03:47.000Z</time>
        <extensions>
          <ns3:TrackPointExtension/>
        </extensions>
      </trkpt>
      <trkpt lat="24.47765917517244815826416015625" lon="118.158332817256450653076171875">
        <ele>0</ele>
        <time>2016-10-27T12:03:52.000Z</time>
        <extensions>
          <ns3:TrackPointExtension/>
        </extensions>
      </trkpt>
      <trkpt lat="24.47765917517244815826416015625" lon="118.158332817256450653076171875">
        <ele>0</ele>
        <time>2016-10-27T12:03:57.000Z</time>
        <extensions>
          <ns3:TrackPointExtension/>
        </extensions>
      </trkpt>
      <trkpt lat="24.4776267372071743011474609375" lon="118.158454857766628265380859375">
        <ele>0</ele>
        <time>2016-10-27T12:04:02.000Z</time>
        <extensions>
          <ns3:TrackPointExtension/>
        </extensions>
      </trkpt>
      <trkpt lat="24.4775657169520854949951171875" lon="118.158576898276805877685546875">
        <ele>0</ele>
        <time>2016-10-27T12:04:07.000Z</time>
        <extensions>
          <ns3:TrackPointExtension/>
        </extensions>
      </trkpt>
      <trkpt lat="24.4775543175637722015380859375" lon="118.1587219052016735076904296875">
        <ele>0</ele>
        <time>2016-10-27T12:04:12.000Z</time>
        <extensions>
          <ns3:TrackPointExtension/>
        </extensions>
      </trkpt>
      <trkpt lat="24.4775543175637722015380859375" lon="118.1587219052016735076904296875">
        <ele>0</ele>
        <time>2016-10-27T12:04:17.000Z</time>
        <extensions>
          <ns3:TrackPointExtension/>
        </extensions>
      </trkpt>
      <trkpt lat="24.477544762194156646728515625" lon="118.15886682830750942230224609375">
        <ele>0</ele>
        <time>2016-10-27T12:04:22.000Z</time>
        <extensions>
          <ns3:TrackPointExtension/>
        </extensions>
      </trkpt>
      <trkpt lat="24.477483741939067840576171875" lon="118.15894310362637042999267578125">
        <ele>0</ele>
        <time>2016-10-27T12:04:27.000Z</time>
        <extensions>
          <ns3:TrackPointExtension/>
        </extensions>
      </trkpt>
      <trkpt lat="24.47746270336210727691650390625" lon="118.15904234535992145538330078125">
        <ele>0</ele>
        <time>2016-10-27T12:04:32.000Z</time>
        <extensions>
          <ns3:TrackPointExtension/>
        </extensions>
      </trkpt>
      <trkpt lat="24.4774855859577655792236328125" lon="118.159141503274440765380859375">
        <ele>0</ele>
        <time>2016-10-27T12:04:37.000Z</time>
        <extensions>
          <ns3:TrackPointExtension/>
        </extensions>
      </trkpt>
      <trkpt lat="24.47741501033306121826171875" lon="118.1592177785933017730712890625">
        <ele>0</ele>
        <time>2016-10-27T12:04:42.000Z</time>
        <extensions>
          <ns3:TrackPointExtension/>
        </extensions>
      </trkpt>
      <trkpt lat="24.47732917964458465576171875" lon="118.15935515798628330230712890625">
        <ele>0</ele>
        <time>2016-10-27T12:04:47.000Z</time>
        <extensions>
          <ns3:TrackPointExtension/>
        </extensions>
      </trkpt>
      <trkpt lat="24.47732917964458465576171875" lon="118.15935515798628330230712890625">
        <ele>0</ele>
        <time>2016-10-27T12:04:52.000Z</time>
        <extensions>
          <ns3:TrackPointExtension/>
        </extensions>
      </trkpt>
      <trkpt lat="24.4773177802562713623046875" lon="118.15949245356023311614990234375">
        <ele>0</ele>
        <time>2016-10-27T12:04:57.000Z</time>
        <extensions>
          <ns3:TrackPointExtension/>
        </extensions>
      </trkpt>
      <trkpt lat="24.477262459695339202880859375" lon="118.1596221216022968292236328125">
        <ele>0</ele>
        <time>2016-10-27T12:05:02.000Z</time>
        <extensions>
          <ns3:TrackPointExtension/>
        </extensions>
      </trkpt>
      <trkpt lat="24.4772586040198802947998046875" lon="118.15973661839962005615234375">
        <ele>0</ele>
        <time>2016-10-27T12:05:07.000Z</time>
        <extensions>
          <ns3:TrackPointExtension/>
        </extensions>
      </trkpt>
      <trkpt lat="24.4772586040198802947998046875" lon="118.15973661839962005615234375">
        <ele>0</ele>
        <time>2016-10-27T12:05:12.000Z</time>
        <extensions>
          <ns3:TrackPointExtension/>
        </extensions>
      </trkpt>
      <trkpt lat="24.4772586040198802947998046875" lon="118.15973661839962005615234375">
        <ele>0</ele>
        <time>2016-10-27T12:05:17.000Z</time>
        <extensions>
          <ns3:TrackPointExtension/>
        </extensions>
      </trkpt>
      <trkpt lat="24.47706221602857112884521484375" lon="118.16020198166370391845703125">
        <ele>0</ele>
        <time>2016-10-27T12:05:22.000Z</time>
        <extensions>
          <ns3:TrackPointExtension/>
        </extensions>
      </trkpt>
      <trkpt lat="24.4769954122602939605712890625" lon="118.160293512046337127685546875">
        <ele>0</ele>
        <time>2016-10-27T12:05:27.000Z</time>
        <extensions>
          <ns3:TrackPointExtension/>
        </extensions>
      </trkpt>
      <trkpt lat="24.47699164040386676788330078125" lon="118.160392753779888153076171875">
        <ele>0</ele>
        <time>2016-10-27T12:05:32.000Z</time>
        <extensions>
          <ns3:TrackPointExtension/>
        </extensions>
      </trkpt>
      <trkpt lat="24.47691150940954685211181640625" lon="118.16055293194949626922607421875">
        <ele>0</ele>
        <time>2016-10-27T12:05:37.000Z</time>
        <extensions>
          <ns3:TrackPointExtension/>
        </extensions>
      </trkpt>
      <trkpt lat="24.4768294505774974822998046875" lon="118.160697855055332183837890625">
        <ele>0</ele>
        <time>2016-10-27T12:05:42.000Z</time>
        <extensions>
          <ns3:TrackPointExtension/>
        </extensions>
      </trkpt>
      <trkpt lat="24.4768294505774974822998046875" lon="118.160697855055332183837890625">
        <ele>0</ele>
        <time>2016-10-27T12:05:47.000Z</time>
        <extensions>
          <ns3:TrackPointExtension/>
        </extensions>
      </trkpt>
      <trkpt lat="24.476839005947113037109375" lon="118.16123957745730876922607421875">
        <ele>0</ele>
        <time>2016-10-27T12:05:52.000Z</time>
        <extensions>
          <ns3:TrackPointExtension/>
        </extensions>
      </trkpt>
      <trkpt lat="24.4767818413674831390380859375" lon="118.16134636290371417999267578125">
        <ele>0</ele>
        <time>2016-10-27T12:05:57.000Z</time>
        <extensions>
          <ns3:TrackPointExtension/>
        </extensions>
      </trkpt>
      <trkpt lat="24.47672459296882152557373046875" lon="118.16145323216915130615234375">
        <ele>0</ele>
        <time>2016-10-27T12:06:02.000Z</time>
        <extensions>
          <ns3:TrackPointExtension/>
        </extensions>
      </trkpt>
      <trkpt lat="24.4767074100673198699951171875" lon="118.1615600176155567169189453125">
        <ele>0</ele>
        <time>2016-10-27T12:06:07.000Z</time>
        <extensions>
          <ns3:TrackPointExtension/>
        </extensions>
      </trkpt>
      <trkpt lat="24.47669022716581821441650390625" lon="118.16168968565762042999267578125">
        <ele>0</ele>
        <time>2016-10-27T12:06:12.000Z</time>
        <extensions>
          <ns3:TrackPointExtension/>
        </extensions>
      </trkpt>
      <trkpt lat="24.47662350721657276153564453125" lon="118.16178892739117145538330078125">
        <ele>0</ele>
        <time>2016-10-27T12:06:17.000Z</time>
        <extensions>
          <ns3:TrackPointExtension/>
        </extensions>
      </trkpt>
      <trkpt lat="24.476575814187526702880859375" lon="118.161888085305690765380859375">
        <ele>0</ele>
        <time>2016-10-27T12:06:22.000Z</time>
        <extensions>
          <ns3:TrackPointExtension/>
        </extensions>
      </trkpt>
      <trkpt lat="24.47659299708902835845947265625" lon="118.1620558910071849822998046875">
        <ele>0</ele>
        <time>2016-10-27T12:06:27.000Z</time>
        <extensions>
          <ns3:TrackPointExtension/>
        </extensions>
      </trkpt>
      <trkpt lat="24.47659299708902835845947265625" lon="118.1620558910071849822998046875">
        <ele>0</ele>
        <time>2016-10-27T12:06:32.000Z</time>
        <extensions>
          <ns3:TrackPointExtension/>
        </extensions>
      </trkpt>
      <trkpt lat="24.4657306373119354248046875" lon="118.17954246886074542999267578125">
        <ele>0</ele>
        <time>2016-10-27T12:06:37.000Z</time>
        <extensions>
          <ns3:TrackPointExtension/>
        </extensions>
      </trkpt>
      <trkpt lat="24.46563717909157276153564453125" lon="118.17952721379697322845458984375">
        <ele>0</ele>
        <time>2016-10-27T12:06:42.000Z</time>
        <extensions>
          <ns3:TrackPointExtension/>
        </extensions>
      </trkpt>
      <trkpt lat="24.46556090377271175384521484375" lon="118.17964933812618255615234375">
        <ele>0</ele>
        <time>2016-10-27T12:06:47.000Z</time>
        <extensions>
          <ns3:TrackPointExtension/>
        </extensions>
      </trkpt>
      <trkpt lat="24.4654731452465057373046875" lon="118.1796951033174991607666015625">
        <ele>0</ele>
        <time>2016-10-27T12:06:52.000Z</time>
        <extensions>
          <ns3:TrackPointExtension/>
        </extensions>
      </trkpt>
      <trkpt lat="24.46537013165652751922607421875" lon="118.17985528148710727691650390625">
        <ele>0</ele>
        <time>2016-10-27T12:06:57.000Z</time>
        <extensions>
          <ns3:TrackPointExtension/>
        </extensions>
      </trkpt>
      <trkpt lat="24.46527667343616485595703125" lon="118.17989341914653778076171875">
        <ele>0</ele>
        <time>2016-10-27T12:07:02.000Z</time>
        <extensions>
          <ns3:TrackPointExtension/>
        </extensions>
      </trkpt>
      <trkpt lat="24.46537013165652751922607421875" lon="118.17985528148710727691650390625">
        <ele>0</ele>
        <time>2016-10-27T12:07:07.000Z</time>
        <extensions>
          <ns3:TrackPointExtension/>
        </extensions>
      </trkpt>
      <trkpt lat="24.46527667343616485595703125" lon="118.17989341914653778076171875">
        <ele>0</ele>
        <time>2016-10-27T12:07:12.000Z</time>
        <extensions>
          <ns3:TrackPointExtension/>
        </extensions>
      </trkpt>
      <trkpt lat="24.4661197252571582794189453125" lon="118.18073269911110401153564453125">
        <ele>0</ele>
        <time>2016-10-27T12:07:17.000Z</time>
        <extensions>
          <ns3:TrackPointExtension/>
        </extensions>
      </trkpt>
    </trkseg>
  </trk>
</gpx>
