<gpx xmlns:ns3="http://www.garmin.com/xmlschemas/TrackPointExtension/v1" xmlns="http://www.topografix.com/GPX/1/1" xmlns:xsi="http://www.w3.org/2001/XMLSchema-instance" xmlns:ns2="http://www.garmin.com/xmlschemas/GpxExtensions/v3" creator="Garmin Connect" version="1.1" xsi:schemaLocation="http://www.topografix.com/GPX/1/1 http://www.topografix.com/GPX/11.xsd">
  <extensions>
<distance>3084.0</distance>
<average_hr></average_hr>
<average_speed>2.7809998989105225</average_speed>
<start_time>2018-10-23T10:06:30+00:00</start_time>
<end_time>2018-10-23T10:24:59+00:00</end_time>
<moving_time>1095.0</moving_time>
<elapsed_time>1109.0</elapsed_time>
</extensions>
<metadata>
    <link href="connect.garmin.com">
      <text>Garmin Connect</text>
    </link>
    <time>2018-10-23T10:06:30.000Z</time>
  </metadata>
  <trk>
    <name>厦门市 街道路跑</name>
    <type>street_running</type>
    <trkseg>
      <trkpt lat="24.530734978616237640380859375" lon="118.18202971480786800384521484375">
        <ele>0</ele>
        <time>2018-10-23T10:06:30.000Z</time>
        <extensions>
          <ns3:TrackPointExtension>
            <ns3:cad>102</ns3:cad>
          </ns3:TrackPointExtension>
        </extensions>
      </trkpt>
      <trkpt lat="24.530734978616237640380859375" lon="118.18202971480786800384521484375">
        <ele>0</ele>
        <time>2018-10-23T10:06:35.000Z</time>
        <extensions>
          <ns3:TrackPointExtension>
            <ns3:cad>84</ns3:cad>
          </ns3:TrackPointExtension>
        </extensions>
      </trkpt>
      <trkpt lat="24.530734978616237640380859375" lon="118.18202971480786800384521484375">
        <ele>0</ele>
        <time>2018-10-23T10:06:40.000Z</time>
        <extensions>
          <ns3:TrackPointExtension>
            <ns3:cad>84</ns3:cad>
          </ns3:TrackPointExtension>
        </extensions>
      </trkpt>
      <trkpt lat="24.53053657896816730499267578125" lon="118.1822814233601093292236328125">
        <ele>0</ele>
        <time>2018-10-23T10:06:45.000Z</time>
        <extensions>
          <ns3:TrackPointExtension>
            <ns3:cad>84</ns3:cad>
          </ns3:TrackPointExtension>
        </extensions>
      </trkpt>
      <trkpt lat="24.5304012112319469451904296875" lon="118.1824721954762935638427734375">
        <ele>0</ele>
        <time>2018-10-23T10:06:50.000Z</time>
        <extensions>
          <ns3:TrackPointExtension>
            <ns3:cad>84</ns3:cad>
          </ns3:TrackPointExtension>
        </extensions>
      </trkpt>
      <trkpt lat="24.530342034995555877685546875" lon="118.1825942359864711761474609375">
        <ele>0</ele>
        <time>2018-10-23T10:06:55.000Z</time>
        <extensions>
          <ns3:TrackPointExtension>
            <ns3:cad>84</ns3:cad>
          </ns3:TrackPointExtension>
        </extensions>
      </trkpt>
      <trkpt lat="24.5302352495491504669189453125" lon="118.182609491050243377685546875">
        <ele>0</ele>
        <time>2018-10-23T10:07:00.000Z</time>
        <extensions>
          <ns3:TrackPointExtension>
            <ns3:cad>84</ns3:cad>
          </ns3:TrackPointExtension>
        </extensions>
      </trkpt>
      <trkpt lat="24.53017800115048885345458984375" lon="118.1825027056038379669189453125">
        <ele>0</ele>
        <time>2018-10-23T10:07:05.000Z</time>
        <extensions>
          <ns3:TrackPointExtension>
            <ns3:cad>90</ns3:cad>
          </ns3:TrackPointExtension>
        </extensions>
      </trkpt>
      <trkpt lat="24.5301856286823749542236328125" lon="118.1823806650936603546142578125">
        <ele>0</ele>
        <time>2018-10-23T10:07:10.000Z</time>
        <extensions>
          <ns3:TrackPointExtension>
            <ns3:cad>90</ns3:cad>
          </ns3:TrackPointExtension>
        </extensions>
      </trkpt>
      <trkpt lat="24.53020281158387660980224609375" lon="118.18231956101953983306884765625">
        <ele>0</ele>
        <time>2018-10-23T10:07:15.000Z</time>
        <extensions>
          <ns3:TrackPointExtension>
            <ns3:cad>90</ns3:cad>
          </ns3:TrackPointExtension>
        </extensions>
      </trkpt>
      <trkpt lat="24.53020281158387660980224609375" lon="118.1822204031050205230712890625">
        <ele>0</ele>
        <time>2018-10-23T10:07:20.000Z</time>
        <extensions>
          <ns3:TrackPointExtension>
            <ns3:cad>90</ns3:cad>
          </ns3:TrackPointExtension>
        </extensions>
      </trkpt>
      <trkpt lat="24.530239105224609375" lon="118.18206022493541240692138671875">
        <ele>0</ele>
        <time>2018-10-23T10:07:25.000Z</time>
        <extensions>
          <ns3:TrackPointExtension>
            <ns3:cad>90</ns3:cad>
          </ns3:TrackPointExtension>
        </extensions>
      </trkpt>
      <trkpt lat="24.5302657596766948699951171875" lon="118.18195335566997528076171875">
        <ele>0</ele>
        <time>2018-10-23T10:07:30.000Z</time>
        <extensions>
          <ns3:TrackPointExtension>
            <ns3:cad>84</ns3:cad>
          </ns3:TrackPointExtension>
        </extensions>
      </trkpt>
      <trkpt lat="24.53032870776951313018798828125" lon="118.181739784777164459228515625">
        <ele>0</ele>
        <time>2018-10-23T10:07:35.000Z</time>
        <extensions>
          <ns3:TrackPointExtension>
            <ns3:cad>90</ns3:cad>
          </ns3:TrackPointExtension>
        </extensions>
      </trkpt>
      <trkpt lat="24.53031915239989757537841796875" lon="118.1815947778522968292236328125">
        <ele>0</ele>
        <time>2018-10-23T10:07:40.000Z</time>
        <extensions>
          <ns3:TrackPointExtension>
            <ns3:cad>84</ns3:cad>
          </ns3:TrackPointExtension>
        </extensions>
      </trkpt>
      <trkpt lat="24.53033826313912868499755859375" lon="118.1814422272145748138427734375">
        <ele>0</ele>
        <time>2018-10-23T10:07:45.000Z</time>
        <extensions>
          <ns3:TrackPointExtension>
            <ns3:cad>90</ns3:cad>
          </ns3:TrackPointExtension>
        </extensions>
      </trkpt>
      <trkpt lat="24.530269615352153778076171875" lon="118.18132781423628330230712890625">
        <ele>0</ele>
        <time>2018-10-23T10:07:50.000Z</time>
        <extensions>
          <ns3:TrackPointExtension>
            <ns3:cad>90</ns3:cad>
          </ns3:TrackPointExtension>
        </extensions>
      </trkpt>
      <trkpt lat="24.53002922236919403076171875" lon="118.1812514550983905792236328125">
        <ele>0</ele>
        <time>2018-10-23T10:07:55.000Z</time>
        <extensions>
          <ns3:TrackPointExtension>
            <ns3:cad>90</ns3:cad>
          </ns3:TrackPointExtension>
        </extensions>
      </trkpt>
      <trkpt lat="24.5298862271010875701904296875" lon="118.1813201867043972015380859375">
        <ele>0</ele>
        <time>2018-10-23T10:08:00.000Z</time>
        <extensions>
          <ns3:TrackPointExtension>
            <ns3:cad>84</ns3:cad>
          </ns3:TrackPointExtension>
        </extensions>
      </trkpt>
      <trkpt lat="24.5296745002269744873046875" lon="118.1813812069594860076904296875">
        <ele>0</ele>
        <time>2018-10-23T10:08:05.000Z</time>
        <extensions>
          <ns3:TrackPointExtension>
            <ns3:cad>90</ns3:cad>
          </ns3:TrackPointExtension>
        </extensions>
      </trkpt>
      <trkpt lat="24.52951616607606410980224609375" lon="118.18135832436382770538330078125">
        <ele>0</ele>
        <time>2018-10-23T10:08:10.000Z</time>
        <extensions>
          <ns3:TrackPointExtension>
            <ns3:cad>90</ns3:cad>
          </ns3:TrackPointExtension>
        </extensions>
      </trkpt>
      <trkpt lat="24.52930829487740993499755859375" lon="118.18134306930005550384521484375">
        <ele>0</ele>
        <time>2018-10-23T10:08:15.000Z</time>
        <extensions>
          <ns3:TrackPointExtension>
            <ns3:cad>90</ns3:cad>
          </ns3:TrackPointExtension>
        </extensions>
      </trkpt>
      <trkpt lat="24.5291861705482006072998046875" lon="118.1813506968319416046142578125">
        <ele>0</ele>
        <time>2018-10-23T10:08:20.000Z</time>
        <extensions>
          <ns3:TrackPointExtension>
            <ns3:cad>90</ns3:cad>
          </ns3:TrackPointExtension>
        </extensions>
      </trkpt>
      <trkpt lat="24.529024064540863037109375" lon="118.18132781423628330230712890625">
        <ele>0</ele>
        <time>2018-10-23T10:08:25.000Z</time>
        <extensions>
          <ns3:TrackPointExtension>
            <ns3:cad>84</ns3:cad>
          </ns3:TrackPointExtension>
        </extensions>
      </trkpt>
      <trkpt lat="24.52892490662634372711181640625" lon="118.1813812069594860076904296875">
        <ele>0</ele>
        <time>2018-10-23T10:08:30.000Z</time>
        <extensions>
          <ns3:TrackPointExtension>
            <ns3:cad>90</ns3:cad>
          </ns3:TrackPointExtension>
        </extensions>
      </trkpt>
      <trkpt lat="24.528760872781276702880859375" lon="118.18136595189571380615234375">
        <ele>0</ele>
        <time>2018-10-23T10:08:35.000Z</time>
        <extensions>
          <ns3:TrackPointExtension>
            <ns3:cad>90</ns3:cad>
          </ns3:TrackPointExtension>
        </extensions>
      </trkpt>
      <trkpt lat="24.52866171486675739288330078125" lon="118.18135832436382770538330078125">
        <ele>0</ele>
        <time>2018-10-23T10:08:40.000Z</time>
        <extensions>
          <ns3:TrackPointExtension>
            <ns3:cad>90</ns3:cad>
          </ns3:TrackPointExtension>
        </extensions>
      </trkpt>
      <trkpt lat="24.528522491455078125" lon="118.18136595189571380615234375">
        <ele>0</ele>
        <time>2018-10-23T10:08:45.000Z</time>
        <extensions>
          <ns3:TrackPointExtension>
            <ns3:cad>90</ns3:cad>
          </ns3:TrackPointExtension>
        </extensions>
      </trkpt>
      <trkpt lat="24.52842132188379764556884765625" lon="118.18138883449137210845947265625">
        <ele>0</ele>
        <time>2018-10-23T10:08:50.000Z</time>
        <extensions>
          <ns3:TrackPointExtension>
            <ns3:cad>84</ns3:cad>
          </ns3:TrackPointExtension>
        </extensions>
      </trkpt>
      <trkpt lat="24.5282916538417339324951171875" lon="118.181335441768169403076171875">
        <ele>0</ele>
        <time>2018-10-23T10:08:55.000Z</time>
        <extensions>
          <ns3:TrackPointExtension>
            <ns3:cad>90</ns3:cad>
          </ns3:TrackPointExtension>
        </extensions>
      </trkpt>
      <trkpt lat="24.52822870574891567230224609375" lon="118.18128959275782108306884765625">
        <ele>0</ele>
        <time>2018-10-23T10:09:00.000Z</time>
        <extensions>
          <ns3:TrackPointExtension>
            <ns3:cad>90</ns3:cad>
          </ns3:TrackPointExtension>
        </extensions>
      </trkpt>
      <trkpt lat="24.52821730636060237884521484375" lon="118.18114466965198516845703125">
        <ele>0</ele>
        <time>2018-10-23T10:09:05.000Z</time>
        <extensions>
          <ns3:TrackPointExtension>
            <ns3:cad>90</ns3:cad>
          </ns3:TrackPointExtension>
        </extensions>
      </trkpt>
      <trkpt lat="24.52821915037930011749267578125" lon="118.1810378842055797576904296875">
        <ele>0</ele>
        <time>2018-10-23T10:09:10.000Z</time>
        <extensions>
          <ns3:TrackPointExtension>
            <ns3:cad>90</ns3:cad>
          </ns3:TrackPointExtension>
        </extensions>
      </trkpt>
      <trkpt lat="24.52820205129683017730712890625" lon="118.1809081323444843292236328125">
        <ele>0</ele>
        <time>2018-10-23T10:09:15.000Z</time>
        <extensions>
          <ns3:TrackPointExtension>
            <ns3:cad>90</ns3:cad>
          </ns3:TrackPointExtension>
        </extensions>
      </trkpt>
      <trkpt lat="24.5282802544534206390380859375" lon="118.180831857025623321533203125">
        <ele>0</ele>
        <time>2018-10-23T10:09:20.000Z</time>
        <extensions>
          <ns3:TrackPointExtension>
            <ns3:cad>90</ns3:cad>
          </ns3:TrackPointExtension>
        </extensions>
      </trkpt>
      <trkpt lat="24.5284022949635982513427734375" lon="118.180709816515445709228515625">
        <ele>0</ele>
        <time>2018-10-23T10:09:25.000Z</time>
        <extensions>
          <ns3:TrackPointExtension>
            <ns3:cad>90</ns3:cad>
          </ns3:TrackPointExtension>
        </extensions>
      </trkpt>
      <trkpt lat="24.52847094275057315826416015625" lon="118.1806182861328125">
        <ele>0</ele>
        <time>2018-10-23T10:09:30.000Z</time>
        <extensions>
          <ns3:TrackPointExtension>
            <ns3:cad>90</ns3:cad>
          </ns3:TrackPointExtension>
        </extensions>
      </trkpt>
      <trkpt lat="24.52851670794188976287841796875" lon="118.18045802414417266845703125">
        <ele>0</ele>
        <time>2018-10-23T10:09:35.000Z</time>
        <extensions>
          <ns3:TrackPointExtension>
            <ns3:cad>90</ns3:cad>
          </ns3:TrackPointExtension>
        </extensions>
      </trkpt>
      <trkpt lat="24.52850715257227420806884765625" lon="118.18034361116588115692138671875">
        <ele>0</ele>
        <time>2018-10-23T10:09:40.000Z</time>
        <extensions>
          <ns3:TrackPointExtension>
            <ns3:cad>90</ns3:cad>
          </ns3:TrackPointExtension>
        </extensions>
      </trkpt>
      <trkpt lat="24.52853389084339141845703125" lon="118.180206231772899627685546875">
        <ele>0</ele>
        <time>2018-10-23T10:09:45.000Z</time>
        <extensions>
          <ns3:TrackPointExtension>
            <ns3:cad>90</ns3:cad>
          </ns3:TrackPointExtension>
        </extensions>
      </trkpt>
      <trkpt lat="24.52855107374489307403564453125" lon="118.1801299564540386199951171875">
        <ele>0</ele>
        <time>2018-10-23T10:09:50.000Z</time>
        <extensions>
          <ns3:TrackPointExtension>
            <ns3:cad>90</ns3:cad>
          </ns3:TrackPointExtension>
        </extensions>
      </trkpt>
      <trkpt lat="24.5284728705883026123046875" lon="118.17995452322065830230712890625">
        <ele>0</ele>
        <time>2018-10-23T10:09:55.000Z</time>
        <extensions>
          <ns3:TrackPointExtension>
            <ns3:cad>84</ns3:cad>
          </ns3:TrackPointExtension>
        </extensions>
      </trkpt>
      <trkpt lat="24.52836985699832439422607421875" lon="118.179862909018993377685546875">
        <ele>0</ele>
        <time>2018-10-23T10:10:00.000Z</time>
        <extensions>
          <ns3:TrackPointExtension>
            <ns3:cad>90</ns3:cad>
          </ns3:TrackPointExtension>
        </extensions>
      </trkpt>
      <trkpt lat="24.5283164642751216888427734375" lon="118.17970273084938526153564453125">
        <ele>0</ele>
        <time>2018-10-23T10:10:05.000Z</time>
        <extensions>
          <ns3:TrackPointExtension>
            <ns3:cad>90</ns3:cad>
          </ns3:TrackPointExtension>
        </extensions>
      </trkpt>
      <trkpt lat="24.52830883674323558807373046875" lon="118.179580606520175933837890625">
        <ele>0</ele>
        <time>2018-10-23T10:10:10.000Z</time>
        <extensions>
          <ns3:TrackPointExtension>
            <ns3:cad>84</ns3:cad>
          </ns3:TrackPointExtension>
        </extensions>
      </trkpt>
      <trkpt lat="24.5283526740968227386474609375" lon="118.1794128008186817169189453125">
        <ele>0</ele>
        <time>2018-10-23T10:10:15.000Z</time>
        <extensions>
          <ns3:TrackPointExtension>
            <ns3:cad>90</ns3:cad>
          </ns3:TrackPointExtension>
        </extensions>
      </trkpt>
      <trkpt lat="24.52839466743171215057373046875" lon="118.17930601537227630615234375">
        <ele>0</ele>
        <time>2018-10-23T10:10:20.000Z</time>
        <extensions>
          <ns3:TrackPointExtension>
            <ns3:cad>84</ns3:cad>
          </ns3:TrackPointExtension>
        </extensions>
      </trkpt>
      <trkpt lat="24.52853196300566196441650390625" lon="118.17922965623438358306884765625">
        <ele>0</ele>
        <time>2018-10-23T10:10:25.000Z</time>
        <extensions>
          <ns3:TrackPointExtension>
            <ns3:cad>78</ns3:cad>
          </ns3:TrackPointExtension>
        </extensions>
      </trkpt>
      <trkpt lat="24.52859298326075077056884765625" lon="118.17916863597929477691650390625">
        <ele>0</ele>
        <time>2018-10-23T10:10:30.000Z</time>
        <extensions>
          <ns3:TrackPointExtension>
            <ns3:cad>90</ns3:cad>
          </ns3:TrackPointExtension>
        </extensions>
      </trkpt>
      <trkpt lat="24.5284728705883026123046875" lon="118.1790694780647754669189453125">
        <ele>0</ele>
        <time>2018-10-23T10:10:35.000Z</time>
        <extensions>
          <ns3:TrackPointExtension>
            <ns3:cad>90</ns3:cad>
          </ns3:TrackPointExtension>
        </extensions>
      </trkpt>
      <trkpt lat="24.52839081175625324249267578125" lon="118.17901608534157276153564453125">
        <ele>0</ele>
        <time>2018-10-23T10:10:40.000Z</time>
        <extensions>
          <ns3:TrackPointExtension>
            <ns3:cad>90</ns3:cad>
          </ns3:TrackPointExtension>
        </extensions>
      </trkpt>
      <trkpt lat="24.5283774845302104949951171875" lon="118.17884056828916072845458984375">
        <ele>0</ele>
        <time>2018-10-23T10:10:45.000Z</time>
        <extensions>
          <ns3:TrackPointExtension>
            <ns3:cad>90</ns3:cad>
          </ns3:TrackPointExtension>
        </extensions>
      </trkpt>
      <trkpt lat="24.52840422280132770538330078125" lon="118.17871852777898311614990234375">
        <ele>0</ele>
        <time>2018-10-23T10:10:50.000Z</time>
        <extensions>
          <ns3:TrackPointExtension>
            <ns3:cad>90</ns3:cad>
          </ns3:TrackPointExtension>
        </extensions>
      </trkpt>
      <trkpt lat="24.52845954336225986480712890625" lon="118.17856597714126110076904296875">
        <ele>0</ele>
        <time>2018-10-23T10:10:55.000Z</time>
        <extensions>
          <ns3:TrackPointExtension>
            <ns3:cad>90</ns3:cad>
          </ns3:TrackPointExtension>
        </extensions>
      </trkpt>
      <trkpt lat="24.5284824259579181671142578125" lon="118.178459107875823974609375">
        <ele>0</ele>
        <time>2018-10-23T10:11:00.000Z</time>
        <extensions>
          <ns3:TrackPointExtension>
            <ns3:cad>90</ns3:cad>
          </ns3:TrackPointExtension>
        </extensions>
      </trkpt>
      <trkpt lat="24.5285186357796192169189453125" lon="118.178306557238101959228515625">
        <ele>0</ele>
        <time>2018-10-23T10:11:05.000Z</time>
        <extensions>
          <ns3:TrackPointExtension>
            <ns3:cad>90</ns3:cad>
          </ns3:TrackPointExtension>
        </extensions>
      </trkpt>
      <trkpt lat="24.528522491455078125" lon="118.178207315504550933837890625">
        <ele>0</ele>
        <time>2018-10-23T10:11:10.000Z</time>
        <extensions>
          <ns3:TrackPointExtension>
            <ns3:cad>90</ns3:cad>
          </ns3:TrackPointExtension>
        </extensions>
      </trkpt>
      <trkpt lat="24.52847479842603206634521484375" lon="118.17803188227117061614990234375">
        <ele>0</ele>
        <time>2018-10-23T10:11:15.000Z</time>
        <extensions>
          <ns3:TrackPointExtension>
            <ns3:cad>90</ns3:cad>
          </ns3:TrackPointExtension>
        </extensions>
      </trkpt>
      <trkpt lat="24.52842132188379764556884765625" lon="118.17790984176099300384521484375">
        <ele>0</ele>
        <time>2018-10-23T10:11:20.000Z</time>
        <extensions>
          <ns3:TrackPointExtension>
            <ns3:cad>90</ns3:cad>
          </ns3:TrackPointExtension>
        </extensions>
      </trkpt>
      <trkpt lat="24.52832023613154888153076171875" lon="118.1777572073042392730712890625">
        <ele>0</ele>
        <time>2018-10-23T10:11:25.000Z</time>
        <extensions>
          <ns3:TrackPointExtension>
            <ns3:cad>90</ns3:cad>
          </ns3:TrackPointExtension>
        </extensions>
      </trkpt>
      <trkpt lat="24.5282249338924884796142578125" lon="118.1776961870491504669189453125">
        <ele>0</ele>
        <time>2018-10-23T10:11:30.000Z</time>
        <extensions>
          <ns3:TrackPointExtension>
            <ns3:cad>90</ns3:cad>
          </ns3:TrackPointExtension>
        </extensions>
      </trkpt>
      <trkpt lat="24.52807799912989139556884765625" lon="118.17768855951726436614990234375">
        <ele>0</ele>
        <time>2018-10-23T10:11:35.000Z</time>
        <extensions>
          <ns3:TrackPointExtension>
            <ns3:cad>90</ns3:cad>
          </ns3:TrackPointExtension>
        </extensions>
      </trkpt>
      <trkpt lat="24.5279845409095287322998046875" lon="118.17767330445349216461181640625">
        <ele>0</ele>
        <time>2018-10-23T10:11:40.000Z</time>
        <extensions>
          <ns3:TrackPointExtension>
            <ns3:cad>90</ns3:cad>
          </ns3:TrackPointExtension>
        </extensions>
      </trkpt>
      <trkpt lat="24.527835845947265625" lon="118.17765804938971996307373046875">
        <ele>0</ele>
        <time>2018-10-23T10:11:45.000Z</time>
        <extensions>
          <ns3:TrackPointExtension>
            <ns3:cad>90</ns3:cad>
          </ns3:TrackPointExtension>
        </extensions>
      </trkpt>
      <trkpt lat="24.5277404598891735076904296875" lon="118.17761228419840335845947265625">
        <ele>0</ele>
        <time>2018-10-23T10:11:50.000Z</time>
        <extensions>
          <ns3:TrackPointExtension>
            <ns3:cad>90</ns3:cad>
          </ns3:TrackPointExtension>
        </extensions>
      </trkpt>
      <trkpt lat="24.527620263397693634033203125" lon="118.17751304246485233306884765625">
        <ele>0</ele>
        <time>2018-10-23T10:11:55.000Z</time>
        <extensions>
          <ns3:TrackPointExtension>
            <ns3:cad>96</ns3:cad>
          </ns3:TrackPointExtension>
        </extensions>
      </trkpt>
      <trkpt lat="24.527559243142604827880859375" lon="118.17742151208221912384033203125">
        <ele>0</ele>
        <time>2018-10-23T10:12:00.000Z</time>
        <extensions>
          <ns3:TrackPointExtension>
            <ns3:cad>90</ns3:cad>
          </ns3:TrackPointExtension>
        </extensions>
      </trkpt>
      <trkpt lat="24.52747148461639881134033203125" lon="118.17734523676335811614990234375">
        <ele>0</ele>
        <time>2018-10-23T10:12:05.000Z</time>
        <extensions>
          <ns3:TrackPointExtension>
            <ns3:cad>108</ns3:cad>
          </ns3:TrackPointExtension>
        </extensions>
      </trkpt>
      <trkpt lat="24.527362771332263946533203125" lon="118.177276588976383209228515625">
        <ele>0</ele>
        <time>2018-10-23T10:12:10.000Z</time>
        <extensions>
          <ns3:TrackPointExtension>
            <ns3:cad>84</ns3:cad>
          </ns3:TrackPointExtension>
        </extensions>
      </trkpt>
      <trkpt lat="24.52728842385113239288330078125" lon="118.1772003136575222015380859375">
        <ele>0</ele>
        <time>2018-10-23T10:12:15.000Z</time>
        <extensions>
          <ns3:TrackPointExtension>
            <ns3:cad>90</ns3:cad>
          </ns3:TrackPointExtension>
        </extensions>
      </trkpt>
      <trkpt lat="24.5271701551973819732666015625" lon="118.177116326987743377685546875">
        <ele>0</ele>
        <time>2018-10-23T10:12:20.000Z</time>
        <extensions>
          <ns3:TrackPointExtension>
            <ns3:cad>114</ns3:cad>
          </ns3:TrackPointExtension>
        </extensions>
      </trkpt>
      <trkpt lat="24.52710150741040706634521484375" lon="118.17704767920076847076416015625">
        <ele>0</ele>
        <time>2018-10-23T10:12:25.000Z</time>
        <extensions>
          <ns3:TrackPointExtension>
            <ns3:cad>90</ns3:cad>
          </ns3:TrackPointExtension>
        </extensions>
      </trkpt>
      <trkpt lat="24.52700042165815830230712890625" lon="118.1769180111587047576904296875">
        <ele>0</ele>
        <time>2018-10-23T10:12:30.000Z</time>
        <extensions>
          <ns3:TrackPointExtension>
            <ns3:cad>90</ns3:cad>
          </ns3:TrackPointExtension>
        </extensions>
      </trkpt>
      <trkpt lat="24.52694510109722614288330078125" lon="118.1768187694251537322998046875">
        <ele>0</ele>
        <time>2018-10-23T10:12:35.000Z</time>
        <extensions>
          <ns3:TrackPointExtension>
            <ns3:cad>84</ns3:cad>
          </ns3:TrackPointExtension>
        </extensions>
      </trkpt>
      <trkpt lat="24.526836387813091278076171875" lon="118.176711983978748321533203125">
        <ele>0</ele>
        <time>2018-10-23T10:12:40.000Z</time>
        <extensions>
          <ns3:TrackPointExtension>
            <ns3:cad>90</ns3:cad>
          </ns3:TrackPointExtension>
        </extensions>
      </trkpt>
      <trkpt lat="24.5267524011433124542236328125" lon="118.17665859125554561614990234375">
        <ele>0</ele>
        <time>2018-10-23T10:12:45.000Z</time>
        <extensions>
          <ns3:TrackPointExtension>
            <ns3:cad>90</ns3:cad>
          </ns3:TrackPointExtension>
        </extensions>
      </trkpt>
      <trkpt lat="24.52666849829256534576416015625" lon="118.17652129568159580230712890625">
        <ele>0</ele>
        <time>2018-10-23T10:12:50.000Z</time>
        <extensions>
          <ns3:TrackPointExtension>
            <ns3:cad>90</ns3:cad>
          </ns3:TrackPointExtension>
        </extensions>
      </trkpt>
      <trkpt lat="24.52663421630859375" lon="118.17640679888427257537841796875">
        <ele>0</ele>
        <time>2018-10-23T10:12:55.000Z</time>
        <extensions>
          <ns3:TrackPointExtension>
            <ns3:cad>90</ns3:cad>
          </ns3:TrackPointExtension>
        </extensions>
      </trkpt>
      <trkpt lat="24.52660177834331989288330078125" lon="118.1762313656508922576904296875">
        <ele>0</ele>
        <time>2018-10-23T10:13:00.000Z</time>
        <extensions>
          <ns3:TrackPointExtension>
            <ns3:cad>90</ns3:cad>
          </ns3:TrackPointExtension>
        </extensions>
      </trkpt>
      <trkpt lat="24.52658266760408878326416015625" lon="118.17610924132168292999267578125">
        <ele>0</ele>
        <time>2018-10-23T10:13:05.000Z</time>
        <extensions>
          <ns3:TrackPointExtension>
            <ns3:cad>90</ns3:cad>
          </ns3:TrackPointExtension>
        </extensions>
      </trkpt>
      <trkpt lat="24.52657311223447322845458984375" lon="118.175964318215847015380859375">
        <ele>0</ele>
        <time>2018-10-23T10:13:10.000Z</time>
        <extensions>
          <ns3:TrackPointExtension>
            <ns3:cad>90</ns3:cad>
          </ns3:TrackPointExtension>
        </extensions>
      </trkpt>
      <trkpt lat="24.52657126821577548980712890625" lon="118.1758575327694416046142578125">
        <ele>0</ele>
        <time>2018-10-23T10:13:15.000Z</time>
        <extensions>
          <ns3:TrackPointExtension>
            <ns3:cad>90</ns3:cad>
          </ns3:TrackPointExtension>
        </extensions>
      </trkpt>
      <trkpt lat="24.52656741254031658172607421875" lon="118.1756972707808017730712890625">
        <ele>0</ele>
        <time>2018-10-23T10:13:20.000Z</time>
        <extensions>
          <ns3:TrackPointExtension>
            <ns3:cad>90</ns3:cad>
          </ns3:TrackPointExtension>
        </extensions>
      </trkpt>
      <trkpt lat="24.5265693403780460357666015625" lon="118.17559811286628246307373046875">
        <ele>0</ele>
        <time>2018-10-23T10:13:25.000Z</time>
        <extensions>
          <ns3:TrackPointExtension>
            <ns3:cad>90</ns3:cad>
          </ns3:TrackPointExtension>
        </extensions>
      </trkpt>
      <trkpt lat="24.52657311223447322845458984375" lon="118.17543785087764263153076171875">
        <ele>0</ele>
        <time>2018-10-23T10:13:30.000Z</time>
        <extensions>
          <ns3:TrackPointExtension>
            <ns3:cad>90</ns3:cad>
          </ns3:TrackPointExtension>
        </extensions>
      </trkpt>
      <trkpt lat="24.5265636406838893890380859375" lon="118.175338692963123321533203125">
        <ele>0</ele>
        <time>2018-10-23T10:13:35.000Z</time>
        <extensions>
          <ns3:TrackPointExtension>
            <ns3:cad>90</ns3:cad>
          </ns3:TrackPointExtension>
        </extensions>
      </trkpt>
      <trkpt lat="24.52653120271861553192138671875" lon="118.17519376985728740692138671875">
        <ele>0</ele>
        <time>2018-10-23T10:13:40.000Z</time>
        <extensions>
          <ns3:TrackPointExtension>
            <ns3:cad>90</ns3:cad>
          </ns3:TrackPointExtension>
        </extensions>
      </trkpt>
      <trkpt lat="24.52649683691561222076416015625" lon="118.1751021556556224822998046875">
        <ele>0</ele>
        <time>2018-10-23T10:13:45.000Z</time>
        <extensions>
          <ns3:TrackPointExtension>
            <ns3:cad>90</ns3:cad>
          </ns3:TrackPointExtension>
        </extensions>
      </trkpt>
      <trkpt lat="24.5264129340648651123046875" lon="118.17497248761355876922607421875">
        <ele>0</ele>
        <time>2018-10-23T10:13:50.000Z</time>
        <extensions>
          <ns3:TrackPointExtension>
            <ns3:cad>90</ns3:cad>
          </ns3:TrackPointExtension>
        </extensions>
      </trkpt>
      <trkpt lat="24.52634043060243129730224609375" lon="118.17489621229469776153564453125">
        <ele>0</ele>
        <time>2018-10-23T10:13:55.000Z</time>
        <extensions>
          <ns3:TrackPointExtension>
            <ns3:cad>90</ns3:cad>
          </ns3:TrackPointExtension>
        </extensions>
      </trkpt>
      <trkpt lat="24.52622408978641033172607421875" lon="118.17478942684829235076904296875">
        <ele>0</ele>
        <time>2018-10-23T10:14:00.000Z</time>
        <extensions>
          <ns3:TrackPointExtension>
            <ns3:cad>90</ns3:cad>
          </ns3:TrackPointExtension>
        </extensions>
      </trkpt>
      <trkpt lat="24.526136331260204315185546875" lon="118.1747283227741718292236328125">
        <ele>0</ele>
        <time>2018-10-23T10:14:05.000Z</time>
        <extensions>
          <ns3:TrackPointExtension>
            <ns3:cad>90</ns3:cad>
          </ns3:TrackPointExtension>
        </extensions>
      </trkpt>
      <trkpt lat="24.52601236291229724884033203125" lon="118.1746367923915386199951171875">
        <ele>0</ele>
        <time>2018-10-23T10:14:10.000Z</time>
        <extensions>
          <ns3:TrackPointExtension>
            <ns3:cad>90</ns3:cad>
          </ns3:TrackPointExtension>
        </extensions>
      </trkpt>
      <trkpt lat="24.5259246043860912322998046875" lon="118.17456814460456371307373046875">
        <ele>0</ele>
        <time>2018-10-23T10:14:15.000Z</time>
        <extensions>
          <ns3:TrackPointExtension>
            <ns3:cad>96</ns3:cad>
          </ns3:TrackPointExtension>
        </extensions>
      </trkpt>
      <trkpt lat="24.5257911644876003265380859375" lon="118.17450712434947490692138671875">
        <ele>0</ele>
        <time>2018-10-23T10:14:20.000Z</time>
        <extensions>
          <ns3:TrackPointExtension>
            <ns3:cad>96</ns3:cad>
          </ns3:TrackPointExtension>
        </extensions>
      </trkpt>
      <trkpt lat="24.52570340596139430999755859375" lon="118.17446135915815830230712890625">
        <ele>0</ele>
        <time>2018-10-23T10:14:25.000Z</time>
        <extensions>
          <ns3:TrackPointExtension>
            <ns3:cad>90</ns3:cad>
          </ns3:TrackPointExtension>
        </extensions>
      </trkpt>
      <trkpt lat="24.52560801990330219268798828125" lon="118.17439262755215167999267578125">
        <ele>0</ele>
        <time>2018-10-23T10:14:30.000Z</time>
        <extensions>
          <ns3:TrackPointExtension>
            <ns3:cad>90</ns3:cad>
          </ns3:TrackPointExtension>
        </extensions>
      </trkpt>
      <trkpt lat="24.52547642402350902557373046875" lon="118.17430109716951847076416015625">
        <ele>0</ele>
        <time>2018-10-23T10:14:35.000Z</time>
        <extensions>
          <ns3:TrackPointExtension>
            <ns3:cad>90</ns3:cad>
          </ns3:TrackPointExtension>
        </extensions>
      </trkpt>
      <trkpt lat="24.5253925211727619171142578125" lon="118.1742324493825435638427734375">
        <ele>0</ele>
        <time>2018-10-23T10:14:40.000Z</time>
        <extensions>
          <ns3:TrackPointExtension>
            <ns3:cad>96</ns3:cad>
          </ns3:TrackPointExtension>
        </extensions>
      </trkpt>
      <trkpt lat="24.5252761803567409515380859375" lon="118.174125663936138153076171875">
        <ele>0</ele>
        <time>2018-10-23T10:14:45.000Z</time>
        <extensions>
          <ns3:TrackPointExtension>
            <ns3:cad>90</ns3:cad>
          </ns3:TrackPointExtension>
        </extensions>
      </trkpt>
      <trkpt lat="24.5251407288014888763427734375" lon="118.17405693233013153076171875">
        <ele>0</ele>
        <time>2018-10-23T10:14:50.000Z</time>
        <extensions>
          <ns3:TrackPointExtension>
            <ns3:cad>90</ns3:cad>
          </ns3:TrackPointExtension>
        </extensions>
      </trkpt>
      <trkpt lat="24.52504727058112621307373046875" lon="118.174026422202587127685546875">
        <ele>0</ele>
        <time>2018-10-23T10:14:55.000Z</time>
        <extensions>
          <ns3:TrackPointExtension>
            <ns3:cad>96</ns3:cad>
          </ns3:TrackPointExtension>
        </extensions>
      </trkpt>
      <trkpt lat="24.52490226365625858306884765625" lon="118.17397302947938442230224609375">
        <ele>0</ele>
        <time>2018-10-23T10:15:00.000Z</time>
        <extensions>
          <ns3:TrackPointExtension>
            <ns3:cad>90</ns3:cad>
          </ns3:TrackPointExtension>
        </extensions>
      </trkpt>
      <trkpt lat="24.52480503357946872711181640625" lon="118.1739501468837261199951171875">
        <ele>0</ele>
        <time>2018-10-23T10:15:05.000Z</time>
        <extensions>
          <ns3:TrackPointExtension>
            <ns3:cad>90</ns3:cad>
          </ns3:TrackPointExtension>
        </extensions>
      </trkpt>
      <trkpt lat="24.5246810652315616607666015625" lon="118.173904381692409515380859375">
        <ele>0</ele>
        <time>2018-10-23T10:15:10.000Z</time>
        <extensions>
          <ns3:TrackPointExtension>
            <ns3:cad>90</ns3:cad>
          </ns3:TrackPointExtension>
        </extensions>
      </trkpt>
      <trkpt lat="24.5245952345430850982666015625" lon="118.173904381692409515380859375">
        <ele>0</ele>
        <time>2018-10-23T10:15:15.000Z</time>
        <extensions>
          <ns3:TrackPointExtension>
            <ns3:cad>90</ns3:cad>
          </ns3:TrackPointExtension>
        </extensions>
      </trkpt>
      <trkpt lat="24.52445215545594692230224609375" lon="118.17389675416052341461181640625">
        <ele>0</ele>
        <time>2018-10-23T10:15:20.000Z</time>
        <extensions>
          <ns3:TrackPointExtension>
            <ns3:cad>90</ns3:cad>
          </ns3:TrackPointExtension>
        </extensions>
      </trkpt>
      <trkpt lat="24.52436062507331371307373046875" lon="118.17389675416052341461181640625">
        <ele>0</ele>
        <time>2018-10-23T10:15:25.000Z</time>
        <extensions>
          <ns3:TrackPointExtension>
            <ns3:cad>90</ns3:cad>
          </ns3:TrackPointExtension>
        </extensions>
      </trkpt>
      <trkpt lat="24.524223245680332183837890625" lon="118.17389675416052341461181640625">
        <ele>0</ele>
        <time>2018-10-23T10:15:30.000Z</time>
        <extensions>
          <ns3:TrackPointExtension>
            <ns3:cad>90</ns3:cad>
          </ns3:TrackPointExtension>
        </extensions>
      </trkpt>
      <trkpt lat="24.524131715297698974609375" lon="118.17389675416052341461181640625">
        <ele>0</ele>
        <time>2018-10-23T10:15:35.000Z</time>
        <extensions>
          <ns3:TrackPointExtension>
            <ns3:cad>90</ns3:cad>
          </ns3:TrackPointExtension>
        </extensions>
      </trkpt>
      <trkpt lat="24.52399634756147861480712890625" lon="118.17388149909675121307373046875">
        <ele>0</ele>
        <time>2018-10-23T10:15:40.000Z</time>
        <extensions>
          <ns3:TrackPointExtension>
            <ns3:cad>90</ns3:cad>
          </ns3:TrackPointExtension>
        </extensions>
      </trkpt>
      <trkpt lat="24.52390666119754314422607421875" lon="118.17388149909675121307373046875">
        <ele>0</ele>
        <time>2018-10-23T10:15:45.000Z</time>
        <extensions>
          <ns3:TrackPointExtension>
            <ns3:cad>96</ns3:cad>
          </ns3:TrackPointExtension>
        </extensions>
      </trkpt>
      <trkpt lat="24.52377506531774997711181640625" lon="118.1738738715648651123046875">
        <ele>0</ele>
        <time>2018-10-23T10:15:50.000Z</time>
        <extensions>
          <ns3:TrackPointExtension>
            <ns3:cad>90</ns3:cad>
          </ns3:TrackPointExtension>
        </extensions>
      </trkpt>
      <trkpt lat="24.52367775142192840576171875" lon="118.17388149909675121307373046875">
        <ele>0</ele>
        <time>2018-10-23T10:15:55.000Z</time>
        <extensions>
          <ns3:TrackPointExtension>
            <ns3:cad>90</ns3:cad>
          </ns3:TrackPointExtension>
        </extensions>
      </trkpt>
      <trkpt lat="24.5235404558479785919189453125" lon="118.17388149909675121307373046875">
        <ele>0</ele>
        <time>2018-10-23T10:16:00.000Z</time>
        <extensions>
          <ns3:TrackPointExtension>
            <ns3:cad>90</ns3:cad>
          </ns3:TrackPointExtension>
        </extensions>
      </trkpt>
      <trkpt lat="24.5234489254653453826904296875" lon="118.1738738715648651123046875">
        <ele>0</ele>
        <time>2018-10-23T10:16:05.000Z</time>
        <extensions>
          <ns3:TrackPointExtension>
            <ns3:cad>90</ns3:cad>
          </ns3:TrackPointExtension>
        </extensions>
      </trkpt>
      <trkpt lat="24.52331154607236385345458984375" lon="118.17385098896920680999755859375">
        <ele>0</ele>
        <time>2018-10-23T10:16:10.000Z</time>
        <extensions>
          <ns3:TrackPointExtension>
            <ns3:cad>90</ns3:cad>
          </ns3:TrackPointExtension>
        </extensions>
      </trkpt>
      <trkpt lat="24.5232162438333034515380859375" lon="118.17385098896920680999755859375">
        <ele>0</ele>
        <time>2018-10-23T10:16:15.000Z</time>
        <extensions>
          <ns3:TrackPointExtension>
            <ns3:cad>90</ns3:cad>
          </ns3:TrackPointExtension>
        </extensions>
      </trkpt>
      <trkpt lat="24.5230655372142791748046875" lon="118.17385098896920680999755859375">
        <ele>0</ele>
        <time>2018-10-23T10:16:20.000Z</time>
        <extensions>
          <ns3:TrackPointExtension>
            <ns3:cad>90</ns3:cad>
          </ns3:TrackPointExtension>
        </extensions>
      </trkpt>
      <trkpt lat="24.52297207899391651153564453125" lon="118.173843361437320709228515625">
        <ele>0</ele>
        <time>2018-10-23T10:16:25.000Z</time>
        <extensions>
          <ns3:TrackPointExtension>
            <ns3:cad>96</ns3:cad>
          </ns3:TrackPointExtension>
        </extensions>
      </trkpt>
      <trkpt lat="24.522838555276393890380859375" lon="118.173843361437320709228515625">
        <ele>0</ele>
        <time>2018-10-23T10:16:30.000Z</time>
        <extensions>
          <ns3:TrackPointExtension>
            <ns3:cad>90</ns3:cad>
          </ns3:TrackPointExtension>
        </extensions>
      </trkpt>
      <trkpt lat="24.52274509705603122711181640625" lon="118.173843361437320709228515625">
        <ele>0</ele>
        <time>2018-10-23T10:16:35.000Z</time>
        <extensions>
          <ns3:TrackPointExtension>
            <ns3:cad>90</ns3:cad>
          </ns3:TrackPointExtension>
        </extensions>
      </trkpt>
      <trkpt lat="24.5226020179688930511474609375" lon="118.17383573390543460845947265625">
        <ele>0</ele>
        <time>2018-10-23T10:16:40.000Z</time>
        <extensions>
          <ns3:TrackPointExtension>
            <ns3:cad>90</ns3:cad>
          </ns3:TrackPointExtension>
        </extensions>
      </trkpt>
      <trkpt lat="24.52249716036021709442138671875" lon="118.1738281063735485076904296875">
        <ele>0</ele>
        <time>2018-10-23T10:16:45.000Z</time>
        <extensions>
          <ns3:TrackPointExtension>
            <ns3:cad>90</ns3:cad>
          </ns3:TrackPointExtension>
        </extensions>
      </trkpt>
      <trkpt lat="24.522342681884765625" lon="118.17381285130977630615234375">
        <ele>0</ele>
        <time>2018-10-23T10:16:50.000Z</time>
        <extensions>
          <ns3:TrackPointExtension>
            <ns3:cad>96</ns3:cad>
          </ns3:TrackPointExtension>
        </extensions>
      </trkpt>
      <trkpt lat="24.52224151231348514556884765625" lon="118.1737975962460041046142578125">
        <ele>0</ele>
        <time>2018-10-23T10:16:55.000Z</time>
        <extensions>
          <ns3:TrackPointExtension>
            <ns3:cad>90</ns3:cad>
          </ns3:TrackPointExtension>
        </extensions>
      </trkpt>
      <trkpt lat="24.52210421673953533172607421875" lon="118.17373649217188358306884765625">
        <ele>0</ele>
        <time>2018-10-23T10:17:00.000Z</time>
        <extensions>
          <ns3:TrackPointExtension>
            <ns3:cad>90</ns3:cad>
          </ns3:TrackPointExtension>
        </extensions>
      </trkpt>
      <trkpt lat="24.5220355689525604248046875" lon="118.1736678443849086761474609375">
        <ele>0</ele>
        <time>2018-10-23T10:17:05.000Z</time>
        <extensions>
          <ns3:TrackPointExtension>
            <ns3:cad>90</ns3:cad>
          </ns3:TrackPointExtension>
        </extensions>
      </trkpt>
      <trkpt lat="24.52194211073219776153564453125" lon="118.1735763140022754669189453125">
        <ele>0</ele>
        <time>2018-10-23T10:17:10.000Z</time>
        <extensions>
          <ns3:TrackPointExtension>
            <ns3:cad>96</ns3:cad>
          </ns3:TrackPointExtension>
        </extensions>
      </trkpt>
      <trkpt lat="24.521900117397308349609375" lon="118.17347715608775615692138671875">
        <ele>0</ele>
        <time>2018-10-23T10:17:15.000Z</time>
        <extensions>
          <ns3:TrackPointExtension>
            <ns3:cad>90</ns3:cad>
          </ns3:TrackPointExtension>
        </extensions>
      </trkpt>
      <trkpt lat="24.52186767943203449249267578125" lon="118.1733245216310024261474609375">
        <ele>0</ele>
        <time>2018-10-23T10:17:20.000Z</time>
        <extensions>
          <ns3:TrackPointExtension>
            <ns3:cad>90</ns3:cad>
          </ns3:TrackPointExtension>
        </extensions>
      </trkpt>
      <trkpt lat="24.52182191424071788787841796875" lon="118.17327112890779972076416015625">
        <ele>0</ele>
        <time>2018-10-23T10:17:25.000Z</time>
        <extensions>
          <ns3:TrackPointExtension>
            <ns3:cad>90</ns3:cad>
          </ns3:TrackPointExtension>
        </extensions>
      </trkpt>
      <trkpt lat="24.52178570441901683807373046875" lon="118.1731414608657360076904296875">
        <ele>0</ele>
        <time>2018-10-23T10:17:30.000Z</time>
        <extensions>
          <ns3:TrackPointExtension>
            <ns3:cad>90</ns3:cad>
          </ns3:TrackPointExtension>
        </extensions>
      </trkpt>
      <trkpt lat="24.521758966147899627685546875" lon="118.1730117090046405792236328125">
        <ele>0</ele>
        <time>2018-10-23T10:17:35.000Z</time>
        <extensions>
          <ns3:TrackPointExtension>
            <ns3:cad>90</ns3:cad>
          </ns3:TrackPointExtension>
        </extensions>
      </trkpt>
      <trkpt lat="24.5217075012624263763427734375" lon="118.17283627577126026153564453125">
        <ele>0</ele>
        <time>2018-10-23T10:17:40.000Z</time>
        <extensions>
          <ns3:TrackPointExtension>
            <ns3:cad>90</ns3:cad>
          </ns3:TrackPointExtension>
        </extensions>
      </trkpt>
      <trkpt lat="24.52167891897261142730712890625" lon="118.172714151442050933837890625">
        <ele>0</ele>
        <time>2018-10-23T10:17:45.000Z</time>
        <extensions>
          <ns3:TrackPointExtension>
            <ns3:cad>90</ns3:cad>
          </ns3:TrackPointExtension>
        </extensions>
      </trkpt>
      <trkpt lat="24.5216330699622631072998046875" lon="118.1725463457405567169189453125">
        <ele>0</ele>
        <time>2018-10-23T10:17:50.000Z</time>
        <extensions>
          <ns3:TrackPointExtension>
            <ns3:cad>90</ns3:cad>
          </ns3:TrackPointExtension>
        </extensions>
      </trkpt>
      <trkpt lat="24.521600715816020965576171875" lon="118.17243956029415130615234375">
        <ele>0</ele>
        <time>2018-10-23T10:17:55.000Z</time>
        <extensions>
          <ns3:TrackPointExtension>
            <ns3:cad>90</ns3:cad>
          </ns3:TrackPointExtension>
        </extensions>
      </trkpt>
      <trkpt lat="24.52155872248113155364990234375" lon="118.17227167077362537384033203125">
        <ele>0</ele>
        <time>2018-10-23T10:18:00.000Z</time>
        <extensions>
          <ns3:TrackPointExtension>
            <ns3:cad>90</ns3:cad>
          </ns3:TrackPointExtension>
        </extensions>
      </trkpt>
      <trkpt lat="24.521526284515857696533203125" lon="118.1721572577953338623046875">
        <ele>0</ele>
        <time>2018-10-23T10:18:05.000Z</time>
        <extensions>
          <ns3:TrackPointExtension>
            <ns3:cad>90</ns3:cad>
          </ns3:TrackPointExtension>
        </extensions>
      </trkpt>
      <trkpt lat="24.521484375" lon="118.17198936827480792999267578125">
        <ele>0</ele>
        <time>2018-10-23T10:18:10.000Z</time>
        <extensions>
          <ns3:TrackPointExtension>
            <ns3:cad>90</ns3:cad>
          </ns3:TrackPointExtension>
        </extensions>
      </trkpt>
      <trkpt lat="24.5214443095028400421142578125" lon="118.17188258282840251922607421875">
        <ele>0</ele>
        <time>2018-10-23T10:18:15.000Z</time>
        <extensions>
          <ns3:TrackPointExtension>
            <ns3:cad>90</ns3:cad>
          </ns3:TrackPointExtension>
        </extensions>
      </trkpt>
      <trkpt lat="24.521343223750591278076171875" lon="118.17176054231822490692138671875">
        <ele>0</ele>
        <time>2018-10-23T10:18:20.000Z</time>
        <extensions>
          <ns3:TrackPointExtension>
            <ns3:cad>96</ns3:cad>
          </ns3:TrackPointExtension>
        </extensions>
      </trkpt>
      <trkpt lat="24.52128790318965911865234375" lon="118.17169189453125">
        <ele>0</ele>
        <time>2018-10-23T10:18:25.000Z</time>
        <extensions>
          <ns3:TrackPointExtension>
            <ns3:cad>90</ns3:cad>
          </ns3:TrackPointExtension>
        </extensions>
      </trkpt>
      <trkpt lat="24.52118103392422199249267578125" lon="118.17160028032958507537841796875">
        <ele>0</ele>
        <time>2018-10-23T10:18:30.000Z</time>
        <extensions>
          <ns3:TrackPointExtension>
            <ns3:cad>90</ns3:cad>
          </ns3:TrackPointExtension>
        </extensions>
      </trkpt>
      <trkpt lat="24.52110283076763153076171875" lon="118.17152400501072406768798828125">
        <ele>0</ele>
        <time>2018-10-23T10:18:35.000Z</time>
        <extensions>
          <ns3:TrackPointExtension>
            <ns3:cad>90</ns3:cad>
          </ns3:TrackPointExtension>
        </extensions>
      </trkpt>
      <trkpt lat="24.52096360735595226287841796875" lon="118.17143247462809085845947265625">
        <ele>0</ele>
        <time>2018-10-23T10:18:40.000Z</time>
        <extensions>
          <ns3:TrackPointExtension>
            <ns3:cad>90</ns3:cad>
          </ns3:TrackPointExtension>
        </extensions>
      </trkpt>
      <trkpt lat="24.52088163234293460845947265625" lon="118.171379081904888153076171875">
        <ele>0</ele>
        <time>2018-10-23T10:18:45.000Z</time>
        <extensions>
          <ns3:TrackPointExtension>
            <ns3:cad>90</ns3:cad>
          </ns3:TrackPointExtension>
        </extensions>
      </trkpt>
      <trkpt lat="24.5207442529499530792236328125" lon="118.1713256053626537322998046875">
        <ele>0</ele>
        <time>2018-10-23T10:18:50.000Z</time>
        <extensions>
          <ns3:TrackPointExtension>
            <ns3:cad>96</ns3:cad>
          </ns3:TrackPointExtension>
        </extensions>
      </trkpt>
      <trkpt lat="24.52066604979336261749267578125" lon="118.171279840171337127685546875">
        <ele>0</ele>
        <time>2018-10-23T10:18:55.000Z</time>
        <extensions>
          <ns3:TrackPointExtension>
            <ns3:cad>90</ns3:cad>
          </ns3:TrackPointExtension>
        </extensions>
      </trkpt>
      <trkpt lat="24.5205363817512989044189453125" lon="118.171218819916248321533203125">
        <ele>0</ele>
        <time>2018-10-23T10:19:00.000Z</time>
        <extensions>
          <ns3:TrackPointExtension>
            <ns3:cad>96</ns3:cad>
          </ns3:TrackPointExtension>
        </extensions>
      </trkpt>
      <trkpt lat="24.52044862322509288787841796875" lon="118.17118068225681781768798828125">
        <ele>0</ele>
        <time>2018-10-23T10:19:05.000Z</time>
        <extensions>
          <ns3:TrackPointExtension>
            <ns3:cad>90</ns3:cad>
          </ns3:TrackPointExtension>
        </extensions>
      </trkpt>
      <trkpt lat="24.52032088302075862884521484375" lon="118.1711120344698429107666015625">
        <ele>0</ele>
        <time>2018-10-23T10:19:10.000Z</time>
        <extensions>
          <ns3:TrackPointExtension>
            <ns3:cad>96</ns3:cad>
          </ns3:TrackPointExtension>
        </extensions>
      </trkpt>
      <trkpt lat="24.5202292688190937042236328125" lon="118.17108915187418460845947265625">
        <ele>0</ele>
        <time>2018-10-23T10:19:15.000Z</time>
        <extensions>
          <ns3:TrackPointExtension>
            <ns3:cad>90</ns3:cad>
          </ns3:TrackPointExtension>
        </extensions>
      </trkpt>
      <trkpt lat="24.520097672939300537109375" lon="118.1710510142147541046142578125">
        <ele>0</ele>
        <time>2018-10-23T10:19:20.000Z</time>
        <extensions>
          <ns3:TrackPointExtension>
            <ns3:cad>96</ns3:cad>
          </ns3:TrackPointExtension>
        </extensions>
      </trkpt>
      <trkpt lat="24.520011842250823974609375" lon="118.170997537672519683837890625">
        <ele>0</ele>
        <time>2018-10-23T10:19:25.000Z</time>
        <extensions>
          <ns3:TrackPointExtension>
            <ns3:cad>90</ns3:cad>
          </ns3:TrackPointExtension>
        </extensions>
      </trkpt>
      <trkpt lat="24.51988217420876026153564453125" lon="118.1709212623536586761474609375">
        <ele>0</ele>
        <time>2018-10-23T10:19:30.000Z</time>
        <extensions>
          <ns3:TrackPointExtension>
            <ns3:cad>90</ns3:cad>
          </ns3:TrackPointExtension>
        </extensions>
      </trkpt>
      <trkpt lat="24.51981159858405590057373046875" lon="118.1708602420985698699951171875">
        <ele>0</ele>
        <time>2018-10-23T10:19:35.000Z</time>
        <extensions>
          <ns3:TrackPointExtension>
            <ns3:cad>90</ns3:cad>
          </ns3:TrackPointExtension>
        </extensions>
      </trkpt>
      <trkpt lat="24.51968000270426273345947265625" lon="118.17080684937536716461181640625">
        <ele>0</ele>
        <time>2018-10-23T10:19:40.000Z</time>
        <extensions>
          <ns3:TrackPointExtension>
            <ns3:cad>120</ns3:cad>
          </ns3:TrackPointExtension>
        </extensions>
      </trkpt>
      <trkpt lat="24.5195865444839000701904296875" lon="118.1707687117159366607666015625">
        <ele>0</ele>
        <time>2018-10-23T10:19:45.000Z</time>
        <extensions>
          <ns3:TrackPointExtension>
            <ns3:cad>90</ns3:cad>
          </ns3:TrackPointExtension>
        </extensions>
      </trkpt>
      <trkpt lat="24.5194453932344913482666015625" lon="118.1707076914608478546142578125">
        <ele>0</ele>
        <time>2018-10-23T10:19:50.000Z</time>
        <extensions>
          <ns3:TrackPointExtension>
            <ns3:cad>90</ns3:cad>
          </ns3:TrackPointExtension>
        </extensions>
      </trkpt>
      <trkpt lat="24.519369117915630340576171875" lon="118.17066192626953125">
        <ele>0</ele>
        <time>2018-10-23T10:19:55.000Z</time>
        <extensions>
          <ns3:TrackPointExtension>
            <ns3:cad>60</ns3:cad>
          </ns3:TrackPointExtension>
        </extensions>
      </trkpt>
      <trkpt lat="24.5193042419850826263427734375" lon="118.17063133232295513153076171875">
        <ele>0</ele>
        <time>2018-10-23T10:20:00.000Z</time>
        <extensions>
          <ns3:TrackPointExtension>
            <ns3:cad>72</ns3:cad>
          </ns3:TrackPointExtension>
        </extensions>
      </trkpt>
      <trkpt lat="24.5192546211183071136474609375" lon="118.1705779395997524261474609375">
        <ele>0</ele>
        <time>2018-10-23T10:20:05.000Z</time>
        <extensions>
          <ns3:TrackPointExtension>
            <ns3:cad>60</ns3:cad>
          </ns3:TrackPointExtension>
        </extensions>
      </trkpt>
      <trkpt lat="24.5192298106849193572998046875" lon="118.17053980194032192230224609375">
        <ele>0</ele>
        <time>2018-10-23T10:20:10.000Z</time>
        <extensions>
          <ns3:TrackPointExtension>
            <ns3:cad>66</ns3:cad>
          </ns3:TrackPointExtension>
        </extensions>
      </trkpt>
      <trkpt lat="24.5191936008632183074951171875" lon="118.1704558990895748138427734375">
        <ele>0</ele>
        <time>2018-10-23T10:20:15.000Z</time>
        <extensions>
          <ns3:TrackPointExtension>
            <ns3:cad>60</ns3:cad>
          </ns3:TrackPointExtension>
        </extensions>
      </trkpt>
      <trkpt lat="24.51916501857340335845947265625" lon="118.17037962377071380615234375">
        <ele>0</ele>
        <time>2018-10-23T10:20:20.000Z</time>
        <extensions>
          <ns3:TrackPointExtension>
            <ns3:cad>66</ns3:cad>
          </ns3:TrackPointExtension>
        </extensions>
      </trkpt>
      <trkpt lat="24.51915160752832889556884765625" lon="118.17030326463282108306884765625">
        <ele>0</ele>
        <time>2018-10-23T10:20:25.000Z</time>
        <extensions>
          <ns3:TrackPointExtension>
            <ns3:cad>90</ns3:cad>
          </ns3:TrackPointExtension>
        </extensions>
      </trkpt>
      <trkpt lat="24.51914976350963115692138671875" lon="118.1702041067183017730712890625">
        <ele>0</ele>
        <time>2018-10-23T10:20:30.000Z</time>
        <extensions>
          <ns3:TrackPointExtension>
            <ns3:cad>84</ns3:cad>
          </ns3:TrackPointExtension>
        </extensions>
      </trkpt>
      <trkpt lat="24.5191382803022861480712890625" lon="118.170066811144351959228515625">
        <ele>0</ele>
        <time>2018-10-23T10:20:35.000Z</time>
        <extensions>
          <ns3:TrackPointExtension>
            <ns3:cad>78</ns3:cad>
          </ns3:TrackPointExtension>
        </extensions>
      </trkpt>
      <trkpt lat="24.51913635246455669403076171875" lon="118.16998290829360485076904296875">
        <ele>0</ele>
        <time>2018-10-23T10:20:40.000Z</time>
        <extensions>
          <ns3:TrackPointExtension>
            <ns3:cad>54</ns3:cad>
          </ns3:TrackPointExtension>
        </extensions>
      </trkpt>
      <trkpt lat="24.519147835671901702880859375" lon="118.16994468681514263153076171875">
        <ele>0</ele>
        <time>2018-10-23T10:20:45.000Z</time>
        <extensions>
          <ns3:TrackPointExtension>
            <ns3:cad>66</ns3:cad>
          </ns3:TrackPointExtension>
        </extensions>
      </trkpt>
      <trkpt lat="24.519233666360378265380859375" lon="118.1699218042194843292236328125">
        <ele>0</ele>
        <time>2018-10-23T10:20:50.000Z</time>
        <extensions>
          <ns3:TrackPointExtension>
            <ns3:cad>60</ns3:cad>
          </ns3:TrackPointExtension>
        </extensions>
      </trkpt>
      <trkpt lat="24.51928705908358097076416015625" lon="118.16991417668759822845458984375">
        <ele>0</ele>
        <time>2018-10-23T10:20:55.000Z</time>
        <extensions>
          <ns3:TrackPointExtension>
            <ns3:cad>60</ns3:cad>
          </ns3:TrackPointExtension>
        </extensions>
      </trkpt>
      <trkpt lat="24.51937288977205753326416015625" lon="118.1698912940919399261474609375">
        <ele>0</ele>
        <time>2018-10-23T10:21:00.000Z</time>
        <extensions>
          <ns3:TrackPointExtension>
            <ns3:cad>78</ns3:cad>
          </ns3:TrackPointExtension>
        </extensions>
      </trkpt>
      <trkpt lat="24.51945872046053409576416015625" lon="118.1698607839643955230712890625">
        <ele>0</ele>
        <time>2018-10-23T10:21:05.000Z</time>
        <extensions>
          <ns3:TrackPointExtension>
            <ns3:cad>84</ns3:cad>
          </ns3:TrackPointExtension>
        </extensions>
      </trkpt>
      <trkpt lat="24.51950834132730960845947265625" lon="118.16971586085855960845947265625">
        <ele>0</ele>
        <time>2018-10-23T10:21:10.000Z</time>
        <extensions>
          <ns3:TrackPointExtension>
            <ns3:cad>90</ns3:cad>
          </ns3:TrackPointExtension>
        </extensions>
      </trkpt>
      <trkpt lat="24.5194816030561923980712890625" lon="118.16961661912500858306884765625">
        <ele>0</ele>
        <time>2018-10-23T10:21:15.000Z</time>
        <extensions>
          <ns3:TrackPointExtension>
            <ns3:cad>90</ns3:cad>
          </ns3:TrackPointExtension>
        </extensions>
      </trkpt>
      <trkpt lat="24.5194453932344913482666015625" lon="118.16947169601917266845703125">
        <ele>0</ele>
        <time>2018-10-23T10:21:20.000Z</time>
        <extensions>
          <ns3:TrackPointExtension>
            <ns3:cad>90</ns3:cad>
          </ns3:TrackPointExtension>
        </extensions>
      </trkpt>
      <trkpt lat="24.51943583786487579345703125" lon="118.16937253810465335845947265625">
        <ele>0</ele>
        <time>2018-10-23T10:21:25.000Z</time>
        <extensions>
          <ns3:TrackPointExtension>
            <ns3:cad>90</ns3:cad>
          </ns3:TrackPointExtension>
        </extensions>
      </trkpt>
      <trkpt lat="24.5194262824952602386474609375" lon="118.169219903647899627685546875">
        <ele>0</ele>
        <time>2018-10-23T10:21:30.000Z</time>
        <extensions>
          <ns3:TrackPointExtension>
            <ns3:cad>90</ns3:cad>
          </ns3:TrackPointExtension>
        </extensions>
      </trkpt>
      <trkpt lat="24.51941295526921749114990234375" lon="118.16912074573338031768798828125">
        <ele>0</ele>
        <time>2018-10-23T10:21:35.000Z</time>
        <extensions>
          <ns3:TrackPointExtension>
            <ns3:cad>84</ns3:cad>
          </ns3:TrackPointExtension>
        </extensions>
      </trkpt>
      <trkpt lat="24.51939962804317474365234375" lon="118.16898345015943050384521484375">
        <ele>0</ele>
        <time>2018-10-23T10:21:40.000Z</time>
        <extensions>
          <ns3:TrackPointExtension>
            <ns3:cad>90</ns3:cad>
          </ns3:TrackPointExtension>
        </extensions>
      </trkpt>
      <trkpt lat="24.5193843729794025421142578125" lon="118.16886895336210727691650390625">
        <ele>0</ele>
        <time>2018-10-23T10:21:45.000Z</time>
        <extensions>
          <ns3:TrackPointExtension>
            <ns3:cad>90</ns3:cad>
          </ns3:TrackPointExtension>
        </extensions>
      </trkpt>
      <trkpt lat="24.5193347521126270294189453125" lon="118.16871640272438526153564453125">
        <ele>0</ele>
        <time>2018-10-23T10:21:50.000Z</time>
        <extensions>
          <ns3:TrackPointExtension>
            <ns3:cad>90</ns3:cad>
          </ns3:TrackPointExtension>
        </extensions>
      </trkpt>
      <trkpt lat="24.51931186951696872711181640625" lon="118.16860961727797985076904296875">
        <ele>0</ele>
        <time>2018-10-23T10:21:55.000Z</time>
        <extensions>
          <ns3:TrackPointExtension>
            <ns3:cad>90</ns3:cad>
          </ns3:TrackPointExtension>
        </extensions>
      </trkpt>
      <trkpt lat="24.51925084926187992095947265625" lon="118.16843410022556781768798828125">
        <ele>0</ele>
        <time>2018-10-23T10:22:00.000Z</time>
        <extensions>
          <ns3:TrackPointExtension>
            <ns3:cad>90</ns3:cad>
          </ns3:TrackPointExtension>
        </extensions>
      </trkpt>
      <trkpt lat="24.51920122839510440826416015625" lon="118.1683044321835041046142578125">
        <ele>0</ele>
        <time>2018-10-23T10:22:05.000Z</time>
        <extensions>
          <ns3:TrackPointExtension>
            <ns3:cad>90</ns3:cad>
          </ns3:TrackPointExtension>
        </extensions>
      </trkpt>
      <trkpt lat="24.51910969801247119903564453125" lon="118.16815179772675037384033203125">
        <ele>0</ele>
        <time>2018-10-23T10:22:10.000Z</time>
        <extensions>
          <ns3:TrackPointExtension>
            <ns3:cad>84</ns3:cad>
          </ns3:TrackPointExtension>
        </extensions>
      </trkpt>
      <trkpt lat="24.51906393282115459442138671875" lon="118.16807552240788936614990234375">
        <ele>0</ele>
        <time>2018-10-23T10:22:15.000Z</time>
        <extensions>
          <ns3:TrackPointExtension>
            <ns3:cad>66</ns3:cad>
          </ns3:TrackPointExtension>
        </extensions>
      </trkpt>
      <trkpt lat="24.5190314948558807373046875" lon="118.168006874620914459228515625">
        <ele>0</ele>
        <time>2018-10-23T10:22:20.000Z</time>
        <extensions>
          <ns3:TrackPointExtension>
            <ns3:cad>72</ns3:cad>
          </ns3:TrackPointExtension>
        </extensions>
      </trkpt>
      <trkpt lat="24.5189857296645641326904296875" lon="118.1679305993020534515380859375">
        <ele>0</ele>
        <time>2018-10-23T10:22:25.000Z</time>
        <extensions>
          <ns3:TrackPointExtension>
            <ns3:cad>90</ns3:cad>
          </ns3:TrackPointExtension>
        </extensions>
      </trkpt>
      <trkpt lat="24.51892085373401641845703125" lon="118.16783898510038852691650390625">
        <ele>0</ele>
        <time>2018-10-23T10:22:30.000Z</time>
        <extensions>
          <ns3:TrackPointExtension>
            <ns3:cad>84</ns3:cad>
          </ns3:TrackPointExtension>
        </extensions>
      </trkpt>
      <trkpt lat="24.51883695088326930999755859375" lon="118.16771694459021091461181640625">
        <ele>0</ele>
        <time>2018-10-23T10:22:35.000Z</time>
        <extensions>
          <ns3:TrackPointExtension>
            <ns3:cad>90</ns3:cad>
          </ns3:TrackPointExtension>
        </extensions>
      </trkpt>
      <trkpt lat="24.51878540217876434326171875" lon="118.16763304173946380615234375">
        <ele>0</ele>
        <time>2018-10-23T10:22:40.000Z</time>
        <extensions>
          <ns3:TrackPointExtension>
            <ns3:cad>84</ns3:cad>
          </ns3:TrackPointExtension>
        </extensions>
      </trkpt>
      <trkpt lat="24.51864617876708507537841796875" lon="118.16759490408003330230712890625">
        <ele>0</ele>
        <time>2018-10-23T10:22:45.000Z</time>
        <extensions>
          <ns3:TrackPointExtension>
            <ns3:cad>90</ns3:cad>
          </ns3:TrackPointExtension>
        </extensions>
      </trkpt>
      <trkpt lat="24.51855464838445186614990234375" lon="118.1675490550696849822998046875">
        <ele>0</ele>
        <time>2018-10-23T10:22:50.000Z</time>
        <extensions>
          <ns3:TrackPointExtension>
            <ns3:cad>108</ns3:cad>
          </ns3:TrackPointExtension>
        </extensions>
      </trkpt>
      <trkpt lat="24.5184154249727725982666015625" lon="118.1674880348145961761474609375">
        <ele>0</ele>
        <time>2018-10-23T10:22:55.000Z</time>
        <extensions>
          <ns3:TrackPointExtension>
            <ns3:cad>90</ns3:cad>
          </ns3:TrackPointExtension>
        </extensions>
      </trkpt>
      <trkpt lat="24.51831811107695102691650390625" lon="118.16746515221893787384033203125">
        <ele>0</ele>
        <time>2018-10-23T10:23:00.000Z</time>
        <extensions>
          <ns3:TrackPointExtension>
            <ns3:cad>90</ns3:cad>
          </ns3:TrackPointExtension>
        </extensions>
      </trkpt>
      <trkpt lat="24.51818458735942840576171875" lon="118.1674270145595073699951171875">
        <ele>0</ele>
        <time>2018-10-23T10:23:05.000Z</time>
        <extensions>
          <ns3:TrackPointExtension>
            <ns3:cad>96</ns3:cad>
          </ns3:TrackPointExtension>
        </extensions>
      </trkpt>
      <trkpt lat="24.51807972975075244903564453125" lon="118.16737362183630466461181640625">
        <ele>0</ele>
        <time>2018-10-23T10:23:10.000Z</time>
        <extensions>
          <ns3:TrackPointExtension>
            <ns3:cad>90</ns3:cad>
          </ns3:TrackPointExtension>
        </extensions>
      </trkpt>
      <trkpt lat="24.51790806837379932403564453125" lon="118.16725158132612705230712890625">
        <ele>0</ele>
        <time>2018-10-23T10:23:15.000Z</time>
        <extensions>
          <ns3:TrackPointExtension>
            <ns3:cad>90</ns3:cad>
          </ns3:TrackPointExtension>
        </extensions>
      </trkpt>
      <trkpt lat="24.51778787188231945037841796875" lon="118.16716759465634822845458984375">
        <ele>0</ele>
        <time>2018-10-23T10:23:20.000Z</time>
        <extensions>
          <ns3:TrackPointExtension>
            <ns3:cad>96</ns3:cad>
          </ns3:TrackPointExtension>
        </extensions>
      </trkpt>
      <trkpt lat="24.517627693712711334228515625" lon="118.16701504401862621307373046875">
        <ele>0</ele>
        <time>2018-10-23T10:23:25.000Z</time>
        <extensions>
          <ns3:TrackPointExtension>
            <ns3:cad>96</ns3:cad>
          </ns3:TrackPointExtension>
        </extensions>
      </trkpt>
      <trkpt lat="24.51752468012273311614990234375" lon="118.166915886104106903076171875">
        <ele>0</ele>
        <time>2018-10-23T10:23:30.000Z</time>
        <extensions>
          <ns3:TrackPointExtension>
            <ns3:cad>102</ns3:cad>
          </ns3:TrackPointExtension>
        </extensions>
      </trkpt>
      <trkpt lat="24.517364501953125" lon="118.16676325164735317230224609375">
        <ele>0</ele>
        <time>2018-10-23T10:23:35.000Z</time>
        <extensions>
          <ns3:TrackPointExtension>
            <ns3:cad>96</ns3:cad>
          </ns3:TrackPointExtension>
        </extensions>
      </trkpt>
      <trkpt lat="24.517259560525417327880859375" lon="118.16667172126471996307373046875">
        <ele>0</ele>
        <time>2018-10-23T10:23:40.000Z</time>
        <extensions>
          <ns3:TrackPointExtension>
            <ns3:cad>96</ns3:cad>
          </ns3:TrackPointExtension>
        </extensions>
      </trkpt>
      <trkpt lat="24.51716610230505466461181640625" lon="118.16646569408476352691650390625">
        <ele>0</ele>
        <time>2018-10-23T10:23:45.000Z</time>
        <extensions>
          <ns3:TrackPointExtension>
            <ns3:cad>114</ns3:cad>
          </ns3:TrackPointExtension>
        </extensions>
      </trkpt>
      <trkpt lat="24.51711840927600860595703125" lon="118.1663207709789276123046875">
        <ele>0</ele>
        <time>2018-10-23T10:23:50.000Z</time>
        <extensions>
          <ns3:TrackPointExtension>
            <ns3:cad>90</ns3:cad>
          </ns3:TrackPointExtension>
        </extensions>
      </trkpt>
      <trkpt lat="24.51703257858753204345703125" lon="118.1661147437989711761474609375">
        <ele>0</ele>
        <time>2018-10-23T10:23:55.000Z</time>
        <extensions>
          <ns3:TrackPointExtension>
            <ns3:cad>96</ns3:cad>
          </ns3:TrackPointExtension>
        </extensions>
      </trkpt>
      <trkpt lat="24.51698295772075653076171875" lon="118.16596982069313526153564453125">
        <ele>0</ele>
        <time>2018-10-23T10:24:00.000Z</time>
        <extensions>
          <ns3:TrackPointExtension>
            <ns3:cad>102</ns3:cad>
          </ns3:TrackPointExtension>
        </extensions>
      </trkpt>
      <trkpt lat="24.51694674789905548095703125" lon="118.1657409109175205230712890625">
        <ele>0</ele>
        <time>2018-10-23T10:24:05.000Z</time>
        <extensions>
          <ns3:TrackPointExtension>
            <ns3:cad>114</ns3:cad>
          </ns3:TrackPointExtension>
        </extensions>
      </trkpt>
      <trkpt lat="24.5169314928352832794189453125" lon="118.1655883602797985076904296875">
        <ele>0</ele>
        <time>2018-10-23T10:24:10.000Z</time>
        <extensions>
          <ns3:TrackPointExtension>
            <ns3:cad>96</ns3:cad>
          </ns3:TrackPointExtension>
        </extensions>
      </trkpt>
      <trkpt lat="24.51688765548169612884521484375" lon="118.16535945050418376922607421875">
        <ele>0</ele>
        <time>2018-10-23T10:24:15.000Z</time>
        <extensions>
          <ns3:TrackPointExtension>
            <ns3:cad>96</ns3:cad>
          </ns3:TrackPointExtension>
        </extensions>
      </trkpt>
      <trkpt lat="24.516836106777191162109375" lon="118.16522215493023395538330078125">
        <ele>0</ele>
        <time>2018-10-23T10:24:20.000Z</time>
        <extensions>
          <ns3:TrackPointExtension>
            <ns3:cad>96</ns3:cad>
          </ns3:TrackPointExtension>
        </extensions>
      </trkpt>
      <trkpt lat="24.516744576394557952880859375" lon="118.1650237552821636199951171875">
        <ele>0</ele>
        <time>2018-10-23T10:24:25.000Z</time>
        <extensions>
          <ns3:TrackPointExtension>
            <ns3:cad>114</ns3:cad>
          </ns3:TrackPointExtension>
        </extensions>
      </trkpt>
      <trkpt lat="24.5166434906423091888427734375" lon="118.16490934230387210845947265625">
        <ele>0</ele>
        <time>2018-10-23T10:24:30.000Z</time>
        <extensions>
          <ns3:TrackPointExtension>
            <ns3:cad>84</ns3:cad>
          </ns3:TrackPointExtension>
        </extensions>
      </trkpt>
      <trkpt lat="24.51652522198855876922607421875" lon="118.164756707847118377685546875">
        <ele>0</ele>
        <time>2018-10-23T10:24:35.000Z</time>
        <extensions>
          <ns3:TrackPointExtension>
            <ns3:cad>90</ns3:cad>
          </ns3:TrackPointExtension>
        </extensions>
      </trkpt>
      <trkpt lat="24.51647560112178325653076171875" lon="118.16466517746448516845703125">
        <ele>0</ele>
        <time>2018-10-23T10:24:40.000Z</time>
        <extensions>
          <ns3:TrackPointExtension>
            <ns3:cad>66</ns3:cad>
          </ns3:TrackPointExtension>
        </extensions>
      </trkpt>
      <trkpt lat="24.51642983593046665191650390625" lon="118.1646041572093963623046875">
        <ele>0</ele>
        <time>2018-10-23T10:24:45.000Z</time>
        <extensions>
          <ns3:TrackPointExtension>
            <ns3:cad>54</ns3:cad>
          </ns3:TrackPointExtension>
        </extensions>
      </trkpt>
      <trkpt lat="24.5163973979651927947998046875" lon="118.16454313695430755615234375">
        <ele>0</ele>
        <time>2018-10-23T10:24:50.000Z</time>
        <extensions>
          <ns3:TrackPointExtension>
            <ns3:cad>66</ns3:cad>
          </ns3:TrackPointExtension>
        </extensions>
      </trkpt>
      <trkpt lat="24.51637837104499340057373046875" lon="118.164512626826763153076171875">
        <ele>0</ele>
        <time>2018-10-23T10:24:55.000Z</time>
        <extensions>
          <ns3:TrackPointExtension>
            <ns3:cad>54</ns3:cad>
          </ns3:TrackPointExtension>
        </extensions>
      </trkpt>
    </trkseg>
  </trk>
</gpx>
