<gpx xmlns:ns3="http://www.garmin.com/xmlschemas/TrackPointExtension/v1" xmlns="http://www.topografix.com/GPX/1/1" xmlns:xsi="http://www.w3.org/2001/XMLSchema-instance" xmlns:ns2="http://www.garmin.com/xmlschemas/GpxExtensions/v3" creator="Garmin Connect" version="1.1" xsi:schemaLocation="http://www.topografix.com/GPX/1/1 http://www.topografix.com/GPX/11.xsd">
  <extensions>
<distance>2015.0</distance>
<average_hr></average_hr>
<average_speed>2.3540000915527344</average_speed>
<start_time>2018-11-21T14:31:36+00:00</start_time>
<end_time>2018-11-21T14:45:52+00:00</end_time>
<moving_time>825.0</moving_time>
<elapsed_time>856.0</elapsed_time>
</extensions>
<metadata>
    <link href="connect.garmin.com">
      <text>Garmin Connect</text>
    </link>
    <time>2018-11-21T14:31:36.000Z</time>
  </metadata>
  <trk>
    <name>厦门市 街道路跑</name>
    <type>street_running</type>
    <trkseg>
      <trkpt lat="24.49468416161835193634033203125" lon="118.130241371691226959228515625">
        <ele>0</ele>
        <time>2018-11-21T14:31:36.000Z</time>
        <extensions>
          <ns3:TrackPointExtension/>
        </extensions>
      </trkpt>
      <trkpt lat="24.49468416161835193634033203125" lon="118.130241371691226959228515625">
        <ele>0</ele>
        <time>2018-11-21T14:31:41.000Z</time>
        <extensions>
          <ns3:TrackPointExtension>
            <ns3:cad>84</ns3:cad>
          </ns3:TrackPointExtension>
        </extensions>
      </trkpt>
      <trkpt lat="24.49468416161835193634033203125" lon="118.130241371691226959228515625">
        <ele>0</ele>
        <time>2018-11-21T14:31:46.000Z</time>
        <extensions>
          <ns3:TrackPointExtension>
            <ns3:cad>120</ns3:cad>
          </ns3:TrackPointExtension>
        </extensions>
      </trkpt>
      <trkpt lat="24.49468416161835193634033203125" lon="118.130241371691226959228515625">
        <ele>0</ele>
        <time>2018-11-21T14:31:51.000Z</time>
        <extensions>
          <ns3:TrackPointExtension>
            <ns3:cad>90</ns3:cad>
          </ns3:TrackPointExtension>
        </extensions>
      </trkpt>
      <trkpt lat="24.49467460624873638153076171875" lon="118.1303481571376323699951171875">
        <ele>0</ele>
        <time>2018-11-21T14:31:56.000Z</time>
        <extensions>
          <ns3:TrackPointExtension>
            <ns3:cad>90</ns3:cad>
          </ns3:TrackPointExtension>
        </extensions>
      </trkpt>
      <trkpt lat="24.494783319532871246337890625" lon="118.13050079159438610076904296875">
        <ele>0</ele>
        <time>2018-11-21T14:32:01.000Z</time>
        <extensions>
          <ns3:TrackPointExtension>
            <ns3:cad>90</ns3:cad>
          </ns3:TrackPointExtension>
        </extensions>
      </trkpt>
      <trkpt lat="24.49483486823737621307373046875" lon="118.1305694393813610076904296875">
        <ele>0</ele>
        <time>2018-11-21T14:32:06.000Z</time>
        <extensions>
          <ns3:TrackPointExtension>
            <ns3:cad>90</ns3:cad>
          </ns3:TrackPointExtension>
        </extensions>
      </trkpt>
      <trkpt lat="24.49483101256191730499267578125" lon="118.130767755210399627685546875">
        <ele>0</ele>
        <time>2018-11-21T14:32:11.000Z</time>
        <extensions>
          <ns3:TrackPointExtension>
            <ns3:cad>78</ns3:cad>
          </ns3:TrackPointExtension>
        </extensions>
      </trkpt>
      <trkpt lat="24.4948233850300312042236328125" lon="118.1308822520077228546142578125">
        <ele>0</ele>
        <time>2018-11-21T14:32:16.000Z</time>
        <extensions>
          <ns3:TrackPointExtension>
            <ns3:cad>60</ns3:cad>
          </ns3:TrackPointExtension>
        </extensions>
      </trkpt>
      <trkpt lat="24.49480435810983180999755859375" lon="118.13101192004978656768798828125">
        <ele>0</ele>
        <time>2018-11-21T14:32:21.000Z</time>
        <extensions>
          <ns3:TrackPointExtension>
            <ns3:cad>54</ns3:cad>
          </ns3:TrackPointExtension>
        </extensions>
      </trkpt>
      <trkpt lat="24.49478524737060070037841796875" lon="118.13107294030487537384033203125">
        <ele>0</ele>
        <time>2018-11-21T14:32:26.000Z</time>
        <extensions>
          <ns3:TrackPointExtension>
            <ns3:cad>60</ns3:cad>
          </ns3:TrackPointExtension>
        </extensions>
      </trkpt>
      <trkpt lat="24.49478524737060070037841796875" lon="118.13114158809185028076171875">
        <ele>0</ele>
        <time>2018-11-21T14:32:31.000Z</time>
        <extensions>
          <ns3:TrackPointExtension>
            <ns3:cad>54</ns3:cad>
          </ns3:TrackPointExtension>
        </extensions>
      </trkpt>
      <trkpt lat="24.4947928749024868011474609375" lon="118.131172098219394683837890625">
        <ele>0</ele>
        <time>2018-11-21T14:32:36.000Z</time>
        <extensions>
          <ns3:TrackPointExtension>
            <ns3:cad>60</ns3:cad>
          </ns3:TrackPointExtension>
        </extensions>
      </trkpt>
      <trkpt lat="24.49479865841567516326904296875" lon="118.1312560848891735076904296875">
        <ele>0</ele>
        <time>2018-11-21T14:32:41.000Z</time>
        <extensions>
          <ns3:TrackPointExtension>
            <ns3:cad>90</ns3:cad>
          </ns3:TrackPointExtension>
        </extensions>
      </trkpt>
      <trkpt lat="24.49481575749814510345458984375" lon="118.13133998773992061614990234375">
        <ele>0</ele>
        <time>2018-11-21T14:32:46.000Z</time>
        <extensions>
          <ns3:TrackPointExtension>
            <ns3:cad>108</ns3:cad>
          </ns3:TrackPointExtension>
        </extensions>
      </trkpt>
      <trkpt lat="24.49482531286776065826416015625" lon="118.13149253837764263153076171875">
        <ele>0</ele>
        <time>2018-11-21T14:32:51.000Z</time>
        <extensions>
          <ns3:TrackPointExtension>
            <ns3:cad>90</ns3:cad>
          </ns3:TrackPointExtension>
        </extensions>
      </trkpt>
      <trkpt lat="24.49483486823737621307373046875" lon="118.13159178011119365692138671875">
        <ele>0</ele>
        <time>2018-11-21T14:32:56.000Z</time>
        <extensions>
          <ns3:TrackPointExtension>
            <ns3:cad>90</ns3:cad>
          </ns3:TrackPointExtension>
        </extensions>
      </trkpt>
      <trkpt lat="24.4948481954634189605712890625" lon="118.1317519582808017730712890625">
        <ele>0</ele>
        <time>2018-11-21T14:33:01.000Z</time>
        <extensions>
          <ns3:TrackPointExtension>
            <ns3:cad>90</ns3:cad>
          </ns3:TrackPointExtension>
        </extensions>
      </trkpt>
      <trkpt lat="24.49483101256191730499267578125" lon="118.131858743727207183837890625">
        <ele>0</ele>
        <time>2018-11-21T14:33:06.000Z</time>
        <extensions>
          <ns3:TrackPointExtension>
            <ns3:cad>84</ns3:cad>
          </ns3:TrackPointExtension>
        </extensions>
      </trkpt>
      <trkpt lat="24.49470327235758304595947265625" lon="118.1319122202694416046142578125">
        <ele>0</ele>
        <time>2018-11-21T14:33:11.000Z</time>
        <extensions>
          <ns3:TrackPointExtension>
            <ns3:cad>84</ns3:cad>
          </ns3:TrackPointExtension>
        </extensions>
      </trkpt>
      <trkpt lat="24.4946555793285369873046875" lon="118.1319732405245304107666015625">
        <ele>0</ele>
        <time>2018-11-21T14:33:16.000Z</time>
        <extensions>
          <ns3:TrackPointExtension>
            <ns3:cad>90</ns3:cad>
          </ns3:TrackPointExtension>
        </extensions>
      </trkpt>
      <trkpt lat="24.4947204552590847015380859375" lon="118.13211816363036632537841796875">
        <ele>0</ele>
        <time>2018-11-21T14:33:21.000Z</time>
        <extensions>
          <ns3:TrackPointExtension>
            <ns3:cad>90</ns3:cad>
          </ns3:TrackPointExtension>
        </extensions>
      </trkpt>
      <trkpt lat="24.49472422711551189422607421875" lon="118.132240287959575653076171875">
        <ele>0</ele>
        <time>2018-11-21T14:33:26.000Z</time>
        <extensions>
          <ns3:TrackPointExtension>
            <ns3:cad>90</ns3:cad>
          </ns3:TrackPointExtension>
        </extensions>
      </trkpt>
      <trkpt lat="24.4945964030921459197998046875" lon="118.132362328469753265380859375">
        <ele>0</ele>
        <time>2018-11-21T14:33:31.000Z</time>
        <extensions>
          <ns3:TrackPointExtension>
            <ns3:cad>84</ns3:cad>
          </ns3:TrackPointExtension>
        </extensions>
      </trkpt>
      <trkpt lat="24.49445717968046665191650390625" lon="118.132545389235019683837890625">
        <ele>0</ele>
        <time>2018-11-21T14:33:36.000Z</time>
        <extensions>
          <ns3:TrackPointExtension>
            <ns3:cad>84</ns3:cad>
          </ns3:TrackPointExtension>
        </extensions>
      </trkpt>
      <trkpt lat="24.49434469453990459442138671875" lon="118.1327209062874317169189453125">
        <ele>0</ele>
        <time>2018-11-21T14:33:41.000Z</time>
        <extensions>
          <ns3:TrackPointExtension>
            <ns3:cad>90</ns3:cad>
          </ns3:TrackPointExtension>
        </extensions>
      </trkpt>
      <trkpt lat="24.49430462904274463653564453125" lon="118.132827691733837127685546875">
        <ele>0</ele>
        <time>2018-11-21T14:33:46.000Z</time>
        <extensions>
          <ns3:TrackPointExtension>
            <ns3:cad>84</ns3:cad>
          </ns3:TrackPointExtension>
        </extensions>
      </trkpt>
      <trkpt lat="24.49424360878765583038330078125" lon="118.1329726986587047576904296875">
        <ele>0</ele>
        <time>2018-11-21T14:33:51.000Z</time>
        <extensions>
          <ns3:TrackPointExtension>
            <ns3:cad>90</ns3:cad>
          </ns3:TrackPointExtension>
        </extensions>
      </trkpt>
      <trkpt lat="24.49415199458599090576171875" lon="118.13304134644567966461181640625">
        <ele>0</ele>
        <time>2018-11-21T14:33:56.000Z</time>
        <extensions>
          <ns3:TrackPointExtension>
            <ns3:cad>90</ns3:cad>
          </ns3:TrackPointExtension>
        </extensions>
      </trkpt>
      <trkpt lat="24.494134895503520965576171875" lon="118.13324737362563610076904296875">
        <ele>0</ele>
        <time>2018-11-21T14:34:01.000Z</time>
        <extensions>
          <ns3:TrackPointExtension>
            <ns3:cad>84</ns3:cad>
          </ns3:TrackPointExtension>
        </extensions>
      </trkpt>
      <trkpt lat="24.494146294891834259033203125" lon="118.1333617866039276123046875">
        <ele>0</ele>
        <time>2018-11-21T14:34:06.000Z</time>
        <extensions>
          <ns3:TrackPointExtension>
            <ns3:cad>90</ns3:cad>
          </ns3:TrackPointExtension>
        </extensions>
      </trkpt>
      <trkpt lat="24.49417303316295146942138671875" lon="118.1335295923054218292236328125">
        <ele>0</ele>
        <time>2018-11-21T14:34:11.000Z</time>
        <extensions>
          <ns3:TrackPointExtension>
            <ns3:cad>90</ns3:cad>
          </ns3:TrackPointExtension>
        </extensions>
      </trkpt>
      <trkpt lat="24.494190216064453125" lon="118.13365171663463115692138671875">
        <ele>0</ele>
        <time>2018-11-21T14:34:16.000Z</time>
        <extensions>
          <ns3:TrackPointExtension>
            <ns3:cad>90</ns3:cad>
          </ns3:TrackPointExtension>
        </extensions>
      </trkpt>
      <trkpt lat="24.4942111708223819732666015625" lon="118.133857659995555877685546875">
        <ele>0</ele>
        <time>2018-11-21T14:34:21.000Z</time>
        <extensions>
          <ns3:TrackPointExtension>
            <ns3:cad>90</ns3:cad>
          </ns3:TrackPointExtension>
        </extensions>
      </trkpt>
      <trkpt lat="24.494195915758609771728515625" lon="118.13398741185665130615234375">
        <ele>0</ele>
        <time>2018-11-21T14:34:26.000Z</time>
        <extensions>
          <ns3:TrackPointExtension>
            <ns3:cad>90</ns3:cad>
          </ns3:TrackPointExtension>
        </extensions>
      </trkpt>
      <trkpt lat="24.4942264258861541748046875" lon="118.1341857276856899261474609375">
        <ele>0</ele>
        <time>2018-11-21T14:34:31.000Z</time>
        <extensions>
          <ns3:TrackPointExtension>
            <ns3:cad>90</ns3:cad>
          </ns3:TrackPointExtension>
        </extensions>
      </trkpt>
      <trkpt lat="24.4942054711282253265380859375" lon="118.13432310707867145538330078125">
        <ele>0</ele>
        <time>2018-11-21T14:34:36.000Z</time>
        <extensions>
          <ns3:TrackPointExtension>
            <ns3:cad>78</ns3:cad>
          </ns3:TrackPointExtension>
        </extensions>
      </trkpt>
      <trkpt lat="24.494110085070133209228515625" lon="118.13447565771639347076416015625">
        <ele>0</ele>
        <time>2018-11-21T14:34:41.000Z</time>
        <extensions>
          <ns3:TrackPointExtension>
            <ns3:cad>78</ns3:cad>
          </ns3:TrackPointExtension>
        </extensions>
      </trkpt>
      <trkpt lat="24.49406239204108715057373046875" lon="118.1345290504395961761474609375">
        <ele>0</ele>
        <time>2018-11-21T14:34:46.000Z</time>
        <extensions>
          <ns3:TrackPointExtension>
            <ns3:cad>60</ns3:cad>
          </ns3:TrackPointExtension>
        </extensions>
      </trkpt>
      <trkpt lat="24.494005143642425537109375" lon="118.13459769822657108306884765625">
        <ele>0</ele>
        <time>2018-11-21T14:34:51.000Z</time>
        <extensions>
          <ns3:TrackPointExtension>
            <ns3:cad>66</ns3:cad>
          </ns3:TrackPointExtension>
        </extensions>
      </trkpt>
      <trkpt lat="24.493963234126567840576171875" lon="118.134643547236919403076171875">
        <ele>0</ele>
        <time>2018-11-21T14:34:56.000Z</time>
        <extensions>
          <ns3:TrackPointExtension>
            <ns3:cad>90</ns3:cad>
          </ns3:TrackPointExtension>
        </extensions>
      </trkpt>
      <trkpt lat="24.49389450252056121826171875" lon="118.13478847034275531768798828125">
        <ele>0</ele>
        <time>2018-11-21T14:35:01.000Z</time>
        <extensions>
          <ns3:TrackPointExtension>
            <ns3:cad>84</ns3:cad>
          </ns3:TrackPointExtension>
        </extensions>
      </trkpt>
      <trkpt lat="24.493846893310546875" lon="118.13489525578916072845458984375">
        <ele>0</ele>
        <time>2018-11-21T14:35:06.000Z</time>
        <extensions>
          <ns3:TrackPointExtension>
            <ns3:cad>90</ns3:cad>
          </ns3:TrackPointExtension>
        </extensions>
      </trkpt>
      <trkpt lat="24.4937572069466114044189453125" lon="118.135047890245914459228515625">
        <ele>0</ele>
        <time>2018-11-21T14:35:11.000Z</time>
        <extensions>
          <ns3:TrackPointExtension>
            <ns3:cad>90</ns3:cad>
          </ns3:TrackPointExtension>
        </extensions>
      </trkpt>
      <trkpt lat="24.49367900379002094268798828125" lon="118.13513179309666156768798828125">
        <ele>0</ele>
        <time>2018-11-21T14:35:16.000Z</time>
        <extensions>
          <ns3:TrackPointExtension>
            <ns3:cad>84</ns3:cad>
          </ns3:TrackPointExtension>
        </extensions>
      </trkpt>
      <trkpt lat="24.4935798458755016326904296875" lon="118.135291971266269683837890625">
        <ele>0</ele>
        <time>2018-11-21T14:35:21.000Z</time>
        <extensions>
          <ns3:TrackPointExtension>
            <ns3:cad>96</ns3:cad>
          </ns3:TrackPointExtension>
        </extensions>
      </trkpt>
      <trkpt lat="24.4936046563088893890380859375" lon="118.13549037091434001922607421875">
        <ele>0</ele>
        <time>2018-11-21T14:35:26.000Z</time>
        <extensions>
          <ns3:TrackPointExtension>
            <ns3:cad>84</ns3:cad>
          </ns3:TrackPointExtension>
        </extensions>
      </trkpt>
      <trkpt lat="24.49371336959302425384521484375" lon="118.1355895288288593292236328125">
        <ele>0</ele>
        <time>2018-11-21T14:35:31.000Z</time>
        <extensions>
          <ns3:TrackPointExtension>
            <ns3:cad>72</ns3:cad>
          </ns3:TrackPointExtension>
        </extensions>
      </trkpt>
      <trkpt lat="24.49371336959302425384521484375" lon="118.1355895288288593292236328125">
        <ele>0</ele>
        <time>2018-11-21T14:35:36.000Z</time>
        <extensions>
          <ns3:TrackPointExtension>
            <ns3:cad>18</ns3:cad>
          </ns3:TrackPointExtension>
        </extensions>
      </trkpt>
      <trkpt lat="24.4936713762581348419189453125" lon="118.13565063290297985076904296875">
        <ele>0</ele>
        <time>2018-11-21T14:35:41.000Z</time>
        <extensions>
          <ns3:TrackPointExtension>
            <ns3:cad>120</ns3:cad>
          </ns3:TrackPointExtension>
        </extensions>
      </trkpt>
      <trkpt lat="24.49378578923642635345458984375" lon="118.1358108110725879669189453125">
        <ele>0</ele>
        <time>2018-11-21T14:35:46.000Z</time>
        <extensions>
          <ns3:TrackPointExtension>
            <ns3:cad>90</ns3:cad>
          </ns3:TrackPointExtension>
        </extensions>
      </trkpt>
      <trkpt lat="24.49388117529451847076416015625" lon="118.1358413212001323699951171875">
        <ele>0</ele>
        <time>2018-11-21T14:35:51.000Z</time>
        <extensions>
          <ns3:TrackPointExtension>
            <ns3:cad>90</ns3:cad>
          </ns3:TrackPointExtension>
        </extensions>
      </trkpt>
      <trkpt lat="24.49398611672222614288330078125" lon="118.1359328515827655792236328125">
        <ele>0</ele>
        <time>2018-11-21T14:35:56.000Z</time>
        <extensions>
          <ns3:TrackPointExtension>
            <ns3:cad>84</ns3:cad>
          </ns3:TrackPointExtension>
        </extensions>
      </trkpt>
      <trkpt lat="24.493974633514881134033203125" lon="118.1360320933163166046142578125">
        <ele>0</ele>
        <time>2018-11-21T14:36:01.000Z</time>
        <extensions>
          <ns3:TrackPointExtension>
            <ns3:cad>90</ns3:cad>
          </ns3:TrackPointExtension>
        </extensions>
      </trkpt>
      <trkpt lat="24.493877403438091278076171875" lon="118.13622278161346912384033203125">
        <ele>0</ele>
        <time>2018-11-21T14:36:06.000Z</time>
        <extensions>
          <ns3:TrackPointExtension>
            <ns3:cad>84</ns3:cad>
          </ns3:TrackPointExtension>
        </extensions>
      </trkpt>
      <trkpt lat="24.49380489997565746307373046875" lon="118.136321939527988433837890625">
        <ele>0</ele>
        <time>2018-11-21T14:36:11.000Z</time>
        <extensions>
          <ns3:TrackPointExtension>
            <ns3:cad>84</ns3:cad>
          </ns3:TrackPointExtension>
        </extensions>
      </trkpt>
      <trkpt lat="24.49374387972056865692138671875" lon="118.13648982904851436614990234375">
        <ele>0</ele>
        <time>2018-11-21T14:36:16.000Z</time>
        <extensions>
          <ns3:TrackPointExtension>
            <ns3:cad>102</ns3:cad>
          </ns3:TrackPointExtension>
        </extensions>
      </trkpt>
      <trkpt lat="24.49374002404510974884033203125" lon="118.13658135943114757537841796875">
        <ele>0</ele>
        <time>2018-11-21T14:36:21.000Z</time>
        <extensions>
          <ns3:TrackPointExtension>
            <ns3:cad>90</ns3:cad>
          </ns3:TrackPointExtension>
        </extensions>
      </trkpt>
      <trkpt lat="24.4937266968190670013427734375" lon="118.1367797590792179107666015625">
        <ele>0</ele>
        <time>2018-11-21T14:36:26.000Z</time>
        <extensions>
          <ns3:TrackPointExtension>
            <ns3:cad>84</ns3:cad>
          </ns3:TrackPointExtension>
        </extensions>
      </trkpt>
      <trkpt lat="24.4936713762581348419189453125" lon="118.136886544525623321533203125">
        <ele>0</ele>
        <time>2018-11-21T14:36:31.000Z</time>
        <extensions>
          <ns3:TrackPointExtension>
            <ns3:cad>90</ns3:cad>
          </ns3:TrackPointExtension>
        </extensions>
      </trkpt>
      <trkpt lat="24.49355310760438442230224609375" lon="118.137008585035800933837890625">
        <ele>0</ele>
        <time>2018-11-21T14:36:36.000Z</time>
        <extensions>
          <ns3:TrackPointExtension>
            <ns3:cad>90</ns3:cad>
          </ns3:TrackPointExtension>
        </extensions>
      </trkpt>
      <trkpt lat="24.4934692047536373138427734375" lon="118.13711545430123805999755859375">
        <ele>0</ele>
        <time>2018-11-21T14:36:41.000Z</time>
        <extensions>
          <ns3:TrackPointExtension>
            <ns3:cad>90</ns3:cad>
          </ns3:TrackPointExtension>
        </extensions>
      </trkpt>
      <trkpt lat="24.4933776743710041046142578125" lon="118.13731377013027667999267578125">
        <ele>0</ele>
        <time>2018-11-21T14:36:46.000Z</time>
        <extensions>
          <ns3:TrackPointExtension>
            <ns3:cad>90</ns3:cad>
          </ns3:TrackPointExtension>
        </extensions>
      </trkpt>
      <trkpt lat="24.4933280535042285919189453125" lon="118.1374053843319416046142578125">
        <ele>0</ele>
        <time>2018-11-21T14:36:51.000Z</time>
        <extensions>
          <ns3:TrackPointExtension>
            <ns3:cad>90</ns3:cad>
          </ns3:TrackPointExtension>
        </extensions>
      </trkpt>
      <trkpt lat="24.493226967751979827880859375" lon="118.13756556250154972076416015625">
        <ele>0</ele>
        <time>2018-11-21T14:36:56.000Z</time>
        <extensions>
          <ns3:TrackPointExtension>
            <ns3:cad>90</ns3:cad>
          </ns3:TrackPointExtension>
        </extensions>
      </trkpt>
      <trkpt lat="24.49317357502877712249755859375" lon="118.137695230543613433837890625">
        <ele>0</ele>
        <time>2018-11-21T14:37:01.000Z</time>
        <extensions>
          <ns3:TrackPointExtension>
            <ns3:cad>84</ns3:cad>
          </ns3:TrackPointExtension>
        </extensions>
      </trkpt>
      <trkpt lat="24.49308774434030055999755859375" lon="118.13787837512791156768798828125">
        <ele>0</ele>
        <time>2018-11-21T14:37:06.000Z</time>
        <extensions>
          <ns3:TrackPointExtension>
            <ns3:cad>90</ns3:cad>
          </ns3:TrackPointExtension>
        </extensions>
      </trkpt>
      <trkpt lat="24.4930152408778667449951171875" lon="118.1379927881062030792236328125">
        <ele>0</ele>
        <time>2018-11-21T14:37:11.000Z</time>
        <extensions>
          <ns3:TrackPointExtension>
            <ns3:cad>90</ns3:cad>
          </ns3:TrackPointExtension>
        </extensions>
      </trkpt>
      <trkpt lat="24.492933265864849090576171875" lon="118.13816067762672901153564453125">
        <ele>0</ele>
        <time>2018-11-21T14:37:16.000Z</time>
        <extensions>
          <ns3:TrackPointExtension>
            <ns3:cad>84</ns3:cad>
          </ns3:TrackPointExtension>
        </extensions>
      </trkpt>
      <trkpt lat="24.49288557283580303192138671875" lon="118.1382750906050205230712890625">
        <ele>0</ele>
        <time>2018-11-21T14:37:21.000Z</time>
        <extensions>
          <ns3:TrackPointExtension>
            <ns3:cad>90</ns3:cad>
          </ns3:TrackPointExtension>
        </extensions>
      </trkpt>
      <trkpt lat="24.49284165166318416595458984375" lon="118.13848874531686305999755859375">
        <ele>0</ele>
        <time>2018-11-21T14:37:26.000Z</time>
        <extensions>
          <ns3:TrackPointExtension>
            <ns3:cad>90</ns3:cad>
          </ns3:TrackPointExtension>
        </extensions>
      </trkpt>
      <trkpt lat="24.49281114153563976287841796875" lon="118.138633668422698974609375">
        <ele>0</ele>
        <time>2018-11-21T14:37:31.000Z</time>
        <extensions>
          <ns3:TrackPointExtension>
            <ns3:cad>90</ns3:cad>
          </ns3:TrackPointExtension>
        </extensions>
      </trkpt>
      <trkpt lat="24.492773003876209259033203125" lon="118.13878630287945270538330078125">
        <ele>0</ele>
        <time>2018-11-21T14:37:36.000Z</time>
        <extensions>
          <ns3:TrackPointExtension>
            <ns3:cad>78</ns3:cad>
          </ns3:TrackPointExtension>
        </extensions>
      </trkpt>
      <trkpt lat="24.49278063140809535980224609375" lon="118.1388702057301998138427734375">
        <ele>0</ele>
        <time>2018-11-21T14:37:41.000Z</time>
        <extensions>
          <ns3:TrackPointExtension>
            <ns3:cad>24</ns3:cad>
          </ns3:TrackPointExtension>
        </extensions>
      </trkpt>
      <trkpt lat="24.49269480071961879730224609375" lon="118.139007501304149627685546875">
        <ele>0</ele>
        <time>2018-11-21T14:37:46.000Z</time>
        <extensions>
          <ns3:TrackPointExtension>
            <ns3:cad>120</ns3:cad>
          </ns3:TrackPointExtension>
        </extensions>
      </trkpt>
      <trkpt lat="24.4927081279456615447998046875" lon="118.13907623291015625">
        <ele>0</ele>
        <time>2018-11-21T14:37:51.000Z</time>
        <extensions>
          <ns3:TrackPointExtension>
            <ns3:cad>54</ns3:cad>
          </ns3:TrackPointExtension>
        </extensions>
      </trkpt>
      <trkpt lat="24.4927024282515048980712890625" lon="118.1391525082290172576904296875">
        <ele>0</ele>
        <time>2018-11-21T14:37:56.000Z</time>
        <extensions>
          <ns3:TrackPointExtension>
            <ns3:cad>54</ns3:cad>
          </ns3:TrackPointExtension>
        </extensions>
      </trkpt>
      <trkpt lat="24.4926719181239604949951171875" lon="118.1392440386116504669189453125">
        <ele>0</ele>
        <time>2018-11-21T14:38:01.000Z</time>
        <extensions>
          <ns3:TrackPointExtension>
            <ns3:cad>66</ns3:cad>
          </ns3:TrackPointExtension>
        </extensions>
      </trkpt>
      <trkpt lat="24.49263378046452999114990234375" lon="118.1393050588667392730712890625">
        <ele>0</ele>
        <time>2018-11-21T14:38:06.000Z</time>
        <extensions>
          <ns3:TrackPointExtension>
            <ns3:cad>54</ns3:cad>
          </ns3:TrackPointExtension>
        </extensions>
      </trkpt>
      <trkpt lat="24.49258231557905673980712890625" lon="118.1393355689942836761474609375">
        <ele>0</ele>
        <time>2018-11-21T14:38:11.000Z</time>
        <extensions>
          <ns3:TrackPointExtension>
            <ns3:cad>72</ns3:cad>
          </ns3:TrackPointExtension>
        </extensions>
      </trkpt>
      <trkpt lat="24.49253269471228122711181640625" lon="118.1393965892493724822998046875">
        <ele>0</ele>
        <time>2018-11-21T14:38:16.000Z</time>
        <extensions>
          <ns3:TrackPointExtension>
            <ns3:cad>54</ns3:cad>
          </ns3:TrackPointExtension>
        </extensions>
      </trkpt>
      <trkpt lat="24.4925193674862384796142578125" lon="118.1394653208553791046142578125">
        <ele>0</ele>
        <time>2018-11-21T14:38:21.000Z</time>
        <extensions>
          <ns3:TrackPointExtension>
            <ns3:cad>72</ns3:cad>
          </ns3:TrackPointExtension>
        </extensions>
      </trkpt>
      <trkpt lat="24.49252699501812458038330078125" lon="118.13953396864235401153564453125">
        <ele>0</ele>
        <time>2018-11-21T14:38:26.000Z</time>
        <extensions>
          <ns3:TrackPointExtension>
            <ns3:cad>60</ns3:cad>
          </ns3:TrackPointExtension>
        </extensions>
      </trkpt>
      <trkpt lat="24.492504112422466278076171875" lon="118.13964075408875942230224609375">
        <ele>0</ele>
        <time>2018-11-21T14:38:31.000Z</time>
        <extensions>
          <ns3:TrackPointExtension>
            <ns3:cad>90</ns3:cad>
          </ns3:TrackPointExtension>
        </extensions>
      </trkpt>
      <trkpt lat="24.4924697466194629669189453125" lon="118.13971702940762042999267578125">
        <ele>0</ele>
        <time>2018-11-21T14:38:36.000Z</time>
        <extensions>
          <ns3:TrackPointExtension>
            <ns3:cad>84</ns3:cad>
          </ns3:TrackPointExtension>
        </extensions>
      </trkpt>
      <trkpt lat="24.49244879186153411865234375" lon="118.139854408800601959228515625">
        <ele>0</ele>
        <time>2018-11-21T14:38:41.000Z</time>
        <extensions>
          <ns3:TrackPointExtension>
            <ns3:cad>78</ns3:cad>
          </ns3:TrackPointExtension>
        </extensions>
      </trkpt>
      <trkpt lat="24.49244686402380466461181640625" lon="118.13989254646003246307373046875">
        <ele>0</ele>
        <time>2018-11-21T14:38:46.000Z</time>
        <extensions>
          <ns3:TrackPointExtension>
            <ns3:cad>60</ns3:cad>
          </ns3:TrackPointExtension>
        </extensions>
      </trkpt>
      <trkpt lat="24.49243538081645965576171875" lon="118.13992305658757686614990234375">
        <ele>0</ele>
        <time>2018-11-21T14:38:51.000Z</time>
        <extensions>
          <ns3:TrackPointExtension>
            <ns3:cad>60</ns3:cad>
          </ns3:TrackPointExtension>
        </extensions>
      </trkpt>
      <trkpt lat="24.49244116432964801788330078125" lon="118.14001458697021007537841796875">
        <ele>0</ele>
        <time>2018-11-21T14:38:56.000Z</time>
        <extensions>
          <ns3:TrackPointExtension>
            <ns3:cad>60</ns3:cad>
          </ns3:TrackPointExtension>
        </extensions>
      </trkpt>
      <trkpt lat="24.4924087263643741607666015625" lon="118.14006797969341278076171875">
        <ele>0</ele>
        <time>2018-11-21T14:39:01.000Z</time>
        <extensions>
          <ns3:TrackPointExtension>
            <ns3:cad>54</ns3:cad>
          </ns3:TrackPointExtension>
        </extensions>
      </trkpt>
      <trkpt lat="24.49237628839910030364990234375" lon="118.14012908376753330230712890625">
        <ele>0</ele>
        <time>2018-11-21T14:39:06.000Z</time>
        <extensions>
          <ns3:TrackPointExtension>
            <ns3:cad>66</ns3:cad>
          </ns3:TrackPointExtension>
        </extensions>
      </trkpt>
      <trkpt lat="24.4923534058034420013427734375" lon="118.1402129866182804107666015625">
        <ele>0</ele>
        <time>2018-11-21T14:39:11.000Z</time>
        <extensions>
          <ns3:TrackPointExtension>
            <ns3:cad>54</ns3:cad>
          </ns3:TrackPointExtension>
        </extensions>
      </trkpt>
      <trkpt lat="24.4923285953700542449951171875" lon="118.1402740068733692169189453125">
        <ele>0</ele>
        <time>2018-11-21T14:39:16.000Z</time>
        <extensions>
          <ns3:TrackPointExtension>
            <ns3:cad>60</ns3:cad>
          </ns3:TrackPointExtension>
        </extensions>
      </trkpt>
      <trkpt lat="24.4922980852425098419189453125" lon="118.14037316478788852691650390625">
        <ele>0</ele>
        <time>2018-11-21T14:39:21.000Z</time>
        <extensions>
          <ns3:TrackPointExtension>
            <ns3:cad>60</ns3:cad>
          </ns3:TrackPointExtension>
        </extensions>
      </trkpt>
      <trkpt lat="24.492294229567050933837890625" lon="118.14041892997920513153076171875">
        <ele>0</ele>
        <time>2018-11-21T14:39:26.000Z</time>
        <extensions>
          <ns3:TrackPointExtension>
            <ns3:cad>60</ns3:cad>
          </ns3:TrackPointExtension>
        </extensions>
      </trkpt>
      <trkpt lat="24.4922732748091220855712890625" lon="118.140480034053325653076171875">
        <ele>0</ele>
        <time>2018-11-21T14:39:31.000Z</time>
        <extensions>
          <ns3:TrackPointExtension>
            <ns3:cad>42</ns3:cad>
          </ns3:TrackPointExtension>
        </extensions>
      </trkpt>
      <trkpt lat="24.4922732748091220855712890625" lon="118.140480034053325653076171875">
        <ele>0</ele>
        <time>2018-11-21T14:39:36.000Z</time>
        <extensions>
          <ns3:TrackPointExtension>
            <ns3:cad>18</ns3:cad>
          </ns3:TrackPointExtension>
        </extensions>
      </trkpt>
      <trkpt lat="24.4922732748091220855712890625" lon="118.140480034053325653076171875">
        <ele>0</ele>
        <time>2018-11-21T14:39:41.000Z</time>
        <extensions>
          <ns3:TrackPointExtension>
            <ns3:cad>18</ns3:cad>
          </ns3:TrackPointExtension>
        </extensions>
      </trkpt>
      <trkpt lat="24.492343850433826446533203125" lon="118.1405563093721866607666015625">
        <ele>0</ele>
        <time>2018-11-21T14:39:46.000Z</time>
        <extensions>
          <ns3:TrackPointExtension>
            <ns3:cad>120</ns3:cad>
          </ns3:TrackPointExtension>
        </extensions>
      </trkpt>
      <trkpt lat="24.4924449361860752105712890625" lon="118.1405715644359588623046875">
        <ele>0</ele>
        <time>2018-11-21T14:39:51.000Z</time>
        <extensions>
          <ns3:TrackPointExtension>
            <ns3:cad>60</ns3:cad>
          </ns3:TrackPointExtension>
        </extensions>
      </trkpt>
      <trkpt lat="24.492515511810779571533203125" lon="118.14059444703161716461181640625">
        <ele>0</ele>
        <time>2018-11-21T14:39:56.000Z</time>
        <extensions>
          <ns3:TrackPointExtension>
            <ns3:cad>60</ns3:cad>
          </ns3:TrackPointExtension>
        </extensions>
      </trkpt>
      <trkpt lat="24.49255364947021007537841796875" lon="118.14060970209538936614990234375">
        <ele>0</ele>
        <time>2018-11-21T14:40:01.000Z</time>
        <extensions>
          <ns3:TrackPointExtension>
            <ns3:cad>60</ns3:cad>
          </ns3:TrackPointExtension>
        </extensions>
      </trkpt>
      <trkpt lat="24.49262808077037334442138671875" lon="118.14064021222293376922607421875">
        <ele>0</ele>
        <time>2018-11-21T14:40:06.000Z</time>
        <extensions>
          <ns3:TrackPointExtension>
            <ns3:cad>78</ns3:cad>
          </ns3:TrackPointExtension>
        </extensions>
      </trkpt>
      <trkpt lat="24.4927081279456615447998046875" lon="118.1406478397548198699951171875">
        <ele>0</ele>
        <time>2018-11-21T14:40:11.000Z</time>
        <extensions>
          <ns3:TrackPointExtension>
            <ns3:cad>54</ns3:cad>
          </ns3:TrackPointExtension>
        </extensions>
      </trkpt>
      <trkpt lat="24.49277107603847980499267578125" lon="118.14067072235047817230224609375">
        <ele>0</ele>
        <time>2018-11-21T14:40:16.000Z</time>
        <extensions>
          <ns3:TrackPointExtension>
            <ns3:cad>54</ns3:cad>
          </ns3:TrackPointExtension>
        </extensions>
      </trkpt>
      <trkpt lat="24.49279588647186756134033203125" lon="118.140693604946136474609375">
        <ele>0</ele>
        <time>2018-11-21T14:40:21.000Z</time>
        <extensions>
          <ns3:TrackPointExtension>
            <ns3:cad>60</ns3:cad>
          </ns3:TrackPointExtension>
        </extensions>
      </trkpt>
      <trkpt lat="24.4928531348705291748046875" lon="118.140724115073680877685546875">
        <ele>0</ele>
        <time>2018-11-21T14:40:26.000Z</time>
        <extensions>
          <ns3:TrackPointExtension>
            <ns3:cad>60</ns3:cad>
          </ns3:TrackPointExtension>
        </extensions>
      </trkpt>
      <trkpt lat="24.49288741685450077056884765625" lon="118.14074699766933917999267578125">
        <ele>0</ele>
        <time>2018-11-21T14:40:31.000Z</time>
        <extensions>
          <ns3:TrackPointExtension>
            <ns3:cad>60</ns3:cad>
          </ns3:TrackPointExtension>
        </extensions>
      </trkpt>
      <trkpt lat="24.4929599203169345855712890625" lon="118.1407928466796875">
        <ele>0</ele>
        <time>2018-11-21T14:40:36.000Z</time>
        <extensions>
          <ns3:TrackPointExtension>
            <ns3:cad>60</ns3:cad>
          </ns3:TrackPointExtension>
        </extensions>
      </trkpt>
      <trkpt lat="24.49303242377936840057373046875" lon="118.140823356807231903076171875">
        <ele>0</ele>
        <time>2018-11-21T14:40:41.000Z</time>
        <extensions>
          <ns3:TrackPointExtension>
            <ns3:cad>60</ns3:cad>
          </ns3:TrackPointExtension>
        </extensions>
      </trkpt>
      <trkpt lat="24.49306863360106945037841796875" lon="118.14084623940289020538330078125">
        <ele>0</ele>
        <time>2018-11-21T14:40:46.000Z</time>
        <extensions>
          <ns3:TrackPointExtension>
            <ns3:cad>60</ns3:cad>
          </ns3:TrackPointExtension>
        </extensions>
      </trkpt>
      <trkpt lat="24.49312780983746051788330078125" lon="118.1408691219985485076904296875">
        <ele>0</ele>
        <time>2018-11-21T14:40:51.000Z</time>
        <extensions>
          <ns3:TrackPointExtension>
            <ns3:cad>60</ns3:cad>
          </ns3:TrackPointExtension>
        </extensions>
      </trkpt>
      <trkpt lat="24.49318497441709041595458984375" lon="118.1408996321260929107666015625">
        <ele>0</ele>
        <time>2018-11-21T14:40:56.000Z</time>
        <extensions>
          <ns3:TrackPointExtension>
            <ns3:cad>66</ns3:cad>
          </ns3:TrackPointExtension>
        </extensions>
      </trkpt>
      <trkpt lat="24.49322503991425037384033203125" lon="118.1409148871898651123046875">
        <ele>0</ele>
        <time>2018-11-21T14:41:01.000Z</time>
        <extensions>
          <ns3:TrackPointExtension>
            <ns3:cad>84</ns3:cad>
          </ns3:TrackPointExtension>
        </extensions>
      </trkpt>
      <trkpt lat="24.49334138073027133941650390625" lon="118.14097590744495391845703125">
        <ele>0</ele>
        <time>2018-11-21T14:41:06.000Z</time>
        <extensions>
          <ns3:TrackPointExtension>
            <ns3:cad>84</ns3:cad>
          </ns3:TrackPointExtension>
        </extensions>
      </trkpt>
      <trkpt lat="24.4934195838868618011474609375" lon="118.14098353497684001922607421875">
        <ele>0</ele>
        <time>2018-11-21T14:41:11.000Z</time>
        <extensions>
          <ns3:TrackPointExtension>
            <ns3:cad>84</ns3:cad>
          </ns3:TrackPointExtension>
        </extensions>
      </trkpt>
      <trkpt lat="24.49355310760438442230224609375" lon="118.14102930016815662384033203125">
        <ele>0</ele>
        <time>2018-11-21T14:41:16.000Z</time>
        <extensions>
          <ns3:TrackPointExtension>
            <ns3:cad>84</ns3:cad>
          </ns3:TrackPointExtension>
        </extensions>
      </trkpt>
      <trkpt lat="24.49362938292324542999267578125" lon="118.14104455523192882537841796875">
        <ele>0</ele>
        <time>2018-11-21T14:41:21.000Z</time>
        <extensions>
          <ns3:TrackPointExtension>
            <ns3:cad>90</ns3:cad>
          </ns3:TrackPointExtension>
        </extensions>
      </trkpt>
      <trkpt lat="24.4937380962073802947998046875" lon="118.1410826928913593292236328125">
        <ele>0</ele>
        <time>2018-11-21T14:41:26.000Z</time>
        <extensions>
          <ns3:TrackPointExtension>
            <ns3:cad>84</ns3:cad>
          </ns3:TrackPointExtension>
        </extensions>
      </trkpt>
      <trkpt lat="24.493827782571315765380859375" lon="118.1411132030189037322998046875">
        <ele>0</ele>
        <time>2018-11-21T14:41:31.000Z</time>
        <extensions>
          <ns3:TrackPointExtension>
            <ns3:cad>84</ns3:cad>
          </ns3:TrackPointExtension>
        </extensions>
      </trkpt>
      <trkpt lat="24.4939479790627956390380859375" lon="118.14117430709302425384521484375">
        <ele>0</ele>
        <time>2018-11-21T14:41:36.000Z</time>
        <extensions>
          <ns3:TrackPointExtension>
            <ns3:cad>90</ns3:cad>
          </ns3:TrackPointExtension>
        </extensions>
      </trkpt>
      <trkpt lat="24.49402802623808383941650390625" lon="118.1412124447524547576904296875">
        <ele>0</ele>
        <time>2018-11-21T14:41:41.000Z</time>
        <extensions>
          <ns3:TrackPointExtension>
            <ns3:cad>84</ns3:cad>
          </ns3:TrackPointExtension>
        </extensions>
      </trkpt>
      <trkpt lat="24.49413866735994815826416015625" lon="118.1412582099437713623046875">
        <ele>0</ele>
        <time>2018-11-21T14:41:46.000Z</time>
        <extensions>
          <ns3:TrackPointExtension>
            <ns3:cad>90</ns3:cad>
          </ns3:TrackPointExtension>
        </extensions>
      </trkpt>
      <trkpt lat="24.49422449804842472076416015625" lon="118.14129634760320186614990234375">
        <ele>0</ele>
        <time>2018-11-21T14:41:51.000Z</time>
        <extensions>
          <ns3:TrackPointExtension>
            <ns3:cad>90</ns3:cad>
          </ns3:TrackPointExtension>
        </extensions>
      </trkpt>
      <trkpt lat="24.49435039423406124114990234375" lon="118.141349740326404571533203125">
        <ele>0</ele>
        <time>2018-11-21T14:41:56.000Z</time>
        <extensions>
          <ns3:TrackPointExtension>
            <ns3:cad>90</ns3:cad>
          </ns3:TrackPointExtension>
        </extensions>
      </trkpt>
      <trkpt lat="24.4944381527602672576904296875" lon="118.14138787798583507537841796875">
        <ele>0</ele>
        <time>2018-11-21T14:42:01.000Z</time>
        <extensions>
          <ns3:TrackPointExtension>
            <ns3:cad>90</ns3:cad>
          </ns3:TrackPointExtension>
        </extensions>
      </trkpt>
      <trkpt lat="24.49458114802837371826171875" lon="118.141410760581493377685546875">
        <ele>0</ele>
        <time>2018-11-21T14:42:06.000Z</time>
        <extensions>
          <ns3:TrackPointExtension>
            <ns3:cad>84</ns3:cad>
          </ns3:TrackPointExtension>
        </extensions>
      </trkpt>
      <trkpt lat="24.49465750716626644134521484375" lon="118.1414260156452655792236328125">
        <ele>0</ele>
        <time>2018-11-21T14:42:11.000Z</time>
        <extensions>
          <ns3:TrackPointExtension>
            <ns3:cad>90</ns3:cad>
          </ns3:TrackPointExtension>
        </extensions>
      </trkpt>
      <trkpt lat="24.4947814755141735076904296875" lon="118.14146415330469608306884765625">
        <ele>0</ele>
        <time>2018-11-21T14:42:16.000Z</time>
        <extensions>
          <ns3:TrackPointExtension>
            <ns3:cad>84</ns3:cad>
          </ns3:TrackPointExtension>
        </extensions>
      </trkpt>
      <trkpt lat="24.4948730058968067169189453125" lon="118.1414947472512722015380859375">
        <ele>0</ele>
        <time>2018-11-21T14:42:21.000Z</time>
        <extensions>
          <ns3:TrackPointExtension>
            <ns3:cad>90</ns3:cad>
          </ns3:TrackPointExtension>
        </extensions>
      </trkpt>
      <trkpt lat="24.4950084574520587921142578125" lon="118.14154051244258880615234375">
        <ele>0</ele>
        <time>2018-11-21T14:42:26.000Z</time>
        <extensions>
          <ns3:TrackPointExtension>
            <ns3:cad>114</ns3:cad>
          </ns3:TrackPointExtension>
        </extensions>
      </trkpt>
      <trkpt lat="24.49509613215923309326171875" lon="118.14157865010201930999755859375">
        <ele>0</ele>
        <time>2018-11-21T14:42:31.000Z</time>
        <extensions>
          <ns3:TrackPointExtension>
            <ns3:cad>90</ns3:cad>
          </ns3:TrackPointExtension>
        </extensions>
      </trkpt>
      <trkpt lat="24.4952354393899440765380859375" lon="118.1416167877614498138427734375">
        <ele>0</ele>
        <time>2018-11-21T14:42:36.000Z</time>
        <extensions>
          <ns3:TrackPointExtension>
            <ns3:cad>90</ns3:cad>
          </ns3:TrackPointExtension>
        </extensions>
      </trkpt>
      <trkpt lat="24.49533074162900447845458984375" lon="118.14163967035710811614990234375">
        <ele>0</ele>
        <time>2018-11-21T14:42:41.000Z</time>
        <extensions>
          <ns3:TrackPointExtension>
            <ns3:cad>90</ns3:cad>
          </ns3:TrackPointExtension>
        </extensions>
      </trkpt>
      <trkpt lat="24.4954547099769115447998046875" lon="118.141693063080310821533203125">
        <ele>0</ele>
        <time>2018-11-21T14:42:46.000Z</time>
        <extensions>
          <ns3:TrackPointExtension>
            <ns3:cad>72</ns3:cad>
          </ns3:TrackPointExtension>
        </extensions>
      </trkpt>
      <trkpt lat="24.49552151374518871307373046875" lon="118.14170069061219692230224609375">
        <ele>0</ele>
        <time>2018-11-21T14:42:51.000Z</time>
        <extensions>
          <ns3:TrackPointExtension>
            <ns3:cad>54</ns3:cad>
          </ns3:TrackPointExtension>
        </extensions>
      </trkpt>
      <trkpt lat="24.49555202387273311614990234375" lon="118.141693063080310821533203125">
        <ele>0</ele>
        <time>2018-11-21T14:42:56.000Z</time>
        <extensions>
          <ns3:TrackPointExtension>
            <ns3:cad>72</ns3:cad>
          </ns3:TrackPointExtension>
        </extensions>
      </trkpt>
      <trkpt lat="24.4956206716597080230712890625" lon="118.14170069061219692230224609375">
        <ele>0</ele>
        <time>2018-11-21T14:43:01.000Z</time>
        <extensions>
          <ns3:TrackPointExtension>
            <ns3:cad>60</ns3:cad>
          </ns3:TrackPointExtension>
        </extensions>
      </trkpt>
      <trkpt lat="24.4956759922206401824951171875" lon="118.141693063080310821533203125">
        <ele>0</ele>
        <time>2018-11-21T14:43:06.000Z</time>
        <extensions>
          <ns3:TrackPointExtension>
            <ns3:cad>72</ns3:cad>
          </ns3:TrackPointExtension>
        </extensions>
      </trkpt>
      <trkpt lat="24.49575805105268955230712890625" lon="118.14171594567596912384033203125">
        <ele>0</ele>
        <time>2018-11-21T14:43:11.000Z</time>
        <extensions>
          <ns3:TrackPointExtension>
            <ns3:cad>90</ns3:cad>
          </ns3:TrackPointExtension>
        </extensions>
      </trkpt>
      <trkpt lat="24.4959086738526821136474609375" lon="118.14177696593105792999267578125">
        <ele>0</ele>
        <time>2018-11-21T14:43:16.000Z</time>
        <extensions>
          <ns3:TrackPointExtension>
            <ns3:cad>84</ns3:cad>
          </ns3:TrackPointExtension>
        </extensions>
      </trkpt>
      <trkpt lat="24.49601554311811923980712890625" lon="118.14180747605860233306884765625">
        <ele>0</ele>
        <time>2018-11-21T14:43:21.000Z</time>
        <extensions>
          <ns3:TrackPointExtension>
            <ns3:cad>84</ns3:cad>
          </ns3:TrackPointExtension>
        </extensions>
      </trkpt>
      <trkpt lat="24.49615283869206905364990234375" lon="118.141853325068950653076171875">
        <ele>0</ele>
        <time>2018-11-21T14:43:26.000Z</time>
        <extensions>
          <ns3:TrackPointExtension>
            <ns3:cad>90</ns3:cad>
          </ns3:TrackPointExtension>
        </extensions>
      </trkpt>
      <trkpt lat="24.4962462969124317169189453125" lon="118.1418685801327228546142578125">
        <ele>0</ele>
        <time>2018-11-21T14:43:31.000Z</time>
        <extensions>
          <ns3:TrackPointExtension>
            <ns3:cad>84</ns3:cad>
          </ns3:TrackPointExtension>
        </extensions>
      </trkpt>
      <trkpt lat="24.4962462969124317169189453125" lon="118.14198299311101436614990234375">
        <ele>0</ele>
        <time>2018-11-21T14:43:36.000Z</time>
        <extensions>
          <ns3:TrackPointExtension>
            <ns3:cad>84</ns3:cad>
          </ns3:TrackPointExtension>
        </extensions>
      </trkpt>
      <trkpt lat="24.49618904851377010345458984375" lon="118.14208977855741977691650390625">
        <ele>0</ele>
        <time>2018-11-21T14:43:41.000Z</time>
        <extensions>
          <ns3:TrackPointExtension>
            <ns3:cad>90</ns3:cad>
          </ns3:TrackPointExtension>
        </extensions>
      </trkpt>
      <trkpt lat="24.49612610042095184326171875" lon="118.14225004054605960845947265625">
        <ele>0</ele>
        <time>2018-11-21T14:43:46.000Z</time>
        <extensions>
          <ns3:TrackPointExtension>
            <ns3:cad>90</ns3:cad>
          </ns3:TrackPointExtension>
        </extensions>
      </trkpt>
      <trkpt lat="24.49614328332245349884033203125" lon="118.14232631586492061614990234375">
        <ele>0</ele>
        <time>2018-11-21T14:43:51.000Z</time>
        <extensions>
          <ns3:TrackPointExtension>
            <ns3:cad>114</ns3:cad>
          </ns3:TrackPointExtension>
        </extensions>
      </trkpt>
      <trkpt lat="24.49621385894715785980224609375" lon="118.1423339433968067169189453125">
        <ele>0</ele>
        <time>2018-11-21T14:43:56.000Z</time>
        <extensions>
          <ns3:TrackPointExtension>
            <ns3:cad>102</ns3:cad>
          </ns3:TrackPointExtension>
        </extensions>
      </trkpt>
      <trkpt lat="24.4962959177792072296142578125" lon="118.14235682599246501922607421875">
        <ele>0</ele>
        <time>2018-11-21T14:44:01.000Z</time>
        <extensions>
          <ns3:TrackPointExtension>
            <ns3:cad>84</ns3:cad>
          </ns3:TrackPointExtension>
        </extensions>
      </trkpt>
      <trkpt lat="24.4964580237865447998046875" lon="118.1424254737794399261474609375">
        <ele>0</ele>
        <time>2018-11-21T14:44:06.000Z</time>
        <extensions>
          <ns3:TrackPointExtension>
            <ns3:cad>90</ns3:cad>
          </ns3:TrackPointExtension>
        </extensions>
      </trkpt>
      <trkpt lat="24.496538154780864715576171875" lon="118.14250946044921875">
        <ele>0</ele>
        <time>2018-11-21T14:44:11.000Z</time>
        <extensions>
          <ns3:TrackPointExtension>
            <ns3:cad>84</ns3:cad>
          </ns3:TrackPointExtension>
        </extensions>
      </trkpt>
      <trkpt lat="24.4965438544750213623046875" lon="118.1426315009593963623046875">
        <ele>0</ele>
        <time>2018-11-21T14:44:16.000Z</time>
        <extensions>
          <ns3:TrackPointExtension>
            <ns3:cad>90</ns3:cad>
          </ns3:TrackPointExtension>
        </extensions>
      </trkpt>
      <trkpt lat="24.49649616144597530364990234375" lon="118.14273065887391567230224609375">
        <ele>0</ele>
        <time>2018-11-21T14:44:21.000Z</time>
        <extensions>
          <ns3:TrackPointExtension>
            <ns3:cad>90</ns3:cad>
          </ns3:TrackPointExtension>
        </extensions>
      </trkpt>
      <trkpt lat="24.49644654057919979095458984375" lon="118.14287566579878330230712890625">
        <ele>0</ele>
        <time>2018-11-21T14:44:26.000Z</time>
        <extensions>
          <ns3:TrackPointExtension>
            <ns3:cad>90</ns3:cad>
          </ns3:TrackPointExtension>
        </extensions>
      </trkpt>
      <trkpt lat="24.49640077538788318634033203125" lon="118.14299770630896091461181640625">
        <ele>0</ele>
        <time>2018-11-21T14:44:31.000Z</time>
        <extensions>
          <ns3:TrackPointExtension>
            <ns3:cad>90</ns3:cad>
          </ns3:TrackPointExtension>
        </extensions>
      </trkpt>
      <trkpt lat="24.49634545482695102691650390625" lon="118.14313500188291072845458984375">
        <ele>0</ele>
        <time>2018-11-21T14:44:36.000Z</time>
        <extensions>
          <ns3:TrackPointExtension>
            <ns3:cad>90</ns3:cad>
          </ns3:TrackPointExtension>
        </extensions>
      </trkpt>
      <trkpt lat="24.49632064439356327056884765625" lon="118.143226616084575653076171875">
        <ele>0</ele>
        <time>2018-11-21T14:44:41.000Z</time>
        <extensions>
          <ns3:TrackPointExtension>
            <ns3:cad>90</ns3:cad>
          </ns3:TrackPointExtension>
        </extensions>
      </trkpt>
      <trkpt lat="24.49625962413847446441650390625" lon="118.14335628412663936614990234375">
        <ele>0</ele>
        <time>2018-11-21T14:44:46.000Z</time>
        <extensions>
          <ns3:TrackPointExtension>
            <ns3:cad>90</ns3:cad>
          </ns3:TrackPointExtension>
        </extensions>
      </trkpt>
      <trkpt lat="24.496236741542816162109375" lon="118.14346306957304477691650390625">
        <ele>0</ele>
        <time>2018-11-21T14:44:51.000Z</time>
        <extensions>
          <ns3:TrackPointExtension>
            <ns3:cad>90</ns3:cad>
          </ns3:TrackPointExtension>
        </extensions>
      </trkpt>
      <trkpt lat="24.4962100870907306671142578125" lon="118.14362333156168460845947265625">
        <ele>0</ele>
        <time>2018-11-21T14:44:56.000Z</time>
        <extensions>
          <ns3:TrackPointExtension>
            <ns3:cad>66</ns3:cad>
          </ns3:TrackPointExtension>
        </extensions>
      </trkpt>
      <trkpt lat="24.49618720449507236480712890625" lon="118.14372248947620391845703125">
        <ele>0</ele>
        <time>2018-11-21T14:45:01.000Z</time>
        <extensions>
          <ns3:TrackPointExtension>
            <ns3:cad>108</ns3:cad>
          </ns3:TrackPointExtension>
        </extensions>
      </trkpt>
      <trkpt lat="24.496206231415271759033203125" lon="118.14379113726317882537841796875">
        <ele>0</ele>
        <time>2018-11-21T14:45:06.000Z</time>
        <extensions>
          <ns3:TrackPointExtension>
            <ns3:cad>90</ns3:cad>
          </ns3:TrackPointExtension>
        </extensions>
      </trkpt>
      <trkpt lat="24.496156610548496246337890625" lon="118.1439285166561603546142578125">
        <ele>0</ele>
        <time>2018-11-21T14:45:11.000Z</time>
        <extensions>
          <ns3:TrackPointExtension>
            <ns3:cad>72</ns3:cad>
          </ns3:TrackPointExtension>
        </extensions>
      </trkpt>
      <trkpt lat="24.496145211160182952880859375" lon="118.1440200470387935638427734375">
        <ele>0</ele>
        <time>2018-11-21T14:45:16.000Z</time>
        <extensions>
          <ns3:TrackPointExtension>
            <ns3:cad>84</ns3:cad>
          </ns3:TrackPointExtension>
        </extensions>
      </trkpt>
      <trkpt lat="24.49608226306736469268798828125" lon="118.14416497014462947845458984375">
        <ele>0</ele>
        <time>2018-11-21T14:45:21.000Z</time>
        <extensions>
          <ns3:TrackPointExtension>
            <ns3:cad>90</ns3:cad>
          </ns3:TrackPointExtension>
        </extensions>
      </trkpt>
      <trkpt lat="24.4960803352296352386474609375" lon="118.14426421187818050384521484375">
        <ele>0</ele>
        <time>2018-11-21T14:45:26.000Z</time>
        <extensions>
          <ns3:TrackPointExtension>
            <ns3:cad>84</ns3:cad>
          </ns3:TrackPointExtension>
        </extensions>
      </trkpt>
      <trkpt lat="24.49624822475016117095947265625" lon="118.1443633697926998138427734375">
        <ele>0</ele>
        <time>2018-11-21T14:45:31.000Z</time>
        <extensions>
          <ns3:TrackPointExtension>
            <ns3:cad>90</ns3:cad>
          </ns3:TrackPointExtension>
        </extensions>
      </trkpt>
      <trkpt lat="24.49636070989072322845458984375" lon="118.14440150745213031768798828125">
        <ele>0</ele>
        <time>2018-11-21T14:45:36.000Z</time>
        <extensions>
          <ns3:TrackPointExtension>
            <ns3:cad>90</ns3:cad>
          </ns3:TrackPointExtension>
        </extensions>
      </trkpt>
      <trkpt lat="24.4965342991054058074951171875" lon="118.14447778277099132537841796875">
        <ele>0</ele>
        <time>2018-11-21T14:45:41.000Z</time>
        <extensions>
          <ns3:TrackPointExtension>
            <ns3:cad>84</ns3:cad>
          </ns3:TrackPointExtension>
        </extensions>
      </trkpt>
      <trkpt lat="24.49664301238954067230224609375" lon="118.1445159204304218292236328125">
        <ele>0</ele>
        <time>2018-11-21T14:45:46.000Z</time>
        <extensions>
          <ns3:TrackPointExtension>
            <ns3:cad>90</ns3:cad>
          </ns3:TrackPointExtension>
        </extensions>
      </trkpt>
      <trkpt lat="24.496831856667995452880859375" lon="118.14456939697265625">
        <ele>0</ele>
        <time>2018-11-21T14:45:51.000Z</time>
        <extensions>
          <ns3:TrackPointExtension>
            <ns3:cad>84</ns3:cad>
          </ns3:TrackPointExtension>
        </extensions>
      </trkpt>
    </trkseg>
  </trk>
</gpx>
