<gpx xmlns:ns3="http://www.garmin.com/xmlschemas/TrackPointExtension/v1" xmlns="http://www.topografix.com/GPX/1/1" xmlns:xsi="http://www.w3.org/2001/XMLSchema-instance" xmlns:ns2="http://www.garmin.com/xmlschemas/GpxExtensions/v3" creator="Garmin Connect" version="1.1" xsi:schemaLocation="http://www.topografix.com/GPX/1/1 http://www.topografix.com/GPX/11.xsd">
  <extensions>
<distance>4007.0</distance>
<average_hr>0.0</average_hr>
<average_speed>3.8050000667572026</average_speed>
<start_time>2016-07-18T13:16:25+00:00</start_time>
<end_time>2016-07-18T13:33:58+00:00</end_time>
<moving_time>0.0</moving_time>
<elapsed_time>1053.0</elapsed_time>
</extensions>
<metadata>
    <link href="connect.garmin.com">
      <text>Garmin Connect</text>
    </link>
    <time>2016-07-18T13:16:25.000Z</time>
  </metadata>
  <trk>
    <name>厦门市 街道路跑</name>
    <type>street_running</type>
    <trkseg/>
  </trk>
</gpx>
