<gpx xmlns:ns3="http://www.garmin.com/xmlschemas/TrackPointExtension/v1" xmlns="http://www.topografix.com/GPX/1/1" xmlns:xsi="http://www.w3.org/2001/XMLSchema-instance" xmlns:ns2="http://www.garmin.com/xmlschemas/GpxExtensions/v3" creator="Garmin Connect" version="1.1" xsi:schemaLocation="http://www.topografix.com/GPX/1/1 http://www.topografix.com/GPX/11.xsd">
  <extensions>
<distance>8018.0</distance>
<average_hr>0.0</average_hr>
<average_speed>3.1489999294281006</average_speed>
<start_time>2016-11-09T08:35:25+00:00</start_time>
<end_time>2016-11-09T09:17:51+00:00</end_time>
<moving_time>1635.0</moving_time>
<elapsed_time>2546.0</elapsed_time>
</extensions>
<metadata>
    <link href="connect.garmin.com">
      <text>Garmin Connect</text>
    </link>
    <time>2016-11-09T08:35:25.000Z</time>
  </metadata>
  <trk>
    <name>厦门市 街道路跑</name>
    <type>street_running</type>
    <trkseg>
      <trkpt lat="24.4938735477626323699951171875" lon="118.10627742670476436614990234375">
        <ele>6.599999904632568359375</ele>
        <time>2016-11-09T08:35:25.000Z</time>
        <extensions>
          <ns3:TrackPointExtension/>
        </extensions>
      </trkpt>
      <trkpt lat="24.49397086165845394134521484375" lon="118.10626217164099216461181640625">
        <ele>6.599999904632568359375</ele>
        <time>2016-11-09T08:35:30.000Z</time>
        <extensions>
          <ns3:TrackPointExtension/>
        </extensions>
      </trkpt>
      <trkpt lat="24.49413296766579151153564453125" lon="118.1062850542366504669189453125">
        <ele>7.400000095367431640625</ele>
        <time>2016-11-09T08:35:35.000Z</time>
        <extensions>
          <ns3:TrackPointExtension/>
        </extensions>
      </trkpt>
      <trkpt lat="24.494220726191997528076171875" lon="118.10632319189608097076416015625">
        <ele>8</ele>
        <time>2016-11-09T08:35:40.000Z</time>
        <extensions>
          <ns3:TrackPointExtension/>
        </extensions>
      </trkpt>
      <trkpt lat="24.494220726191997528076171875" lon="118.10632319189608097076416015625">
        <ele>8</ele>
        <time>2016-11-09T08:35:45.000Z</time>
        <extensions>
          <ns3:TrackPointExtension/>
        </extensions>
      </trkpt>
      <trkpt lat="24.4946098141372203826904296875" lon="118.10605614446103572845458984375">
        <ele>9.6000003814697265625</ele>
        <time>2016-11-09T08:35:50.000Z</time>
        <extensions>
          <ns3:TrackPointExtension/>
        </extensions>
      </trkpt>
      <trkpt lat="24.4947052001953125" lon="118.10611724853515625">
        <ele>9.80000019073486328125</ele>
        <time>2016-11-09T08:35:55.000Z</time>
        <extensions>
          <ns3:TrackPointExtension/>
        </extensions>
      </trkpt>
      <trkpt lat="24.494783319532871246337890625" lon="118.10620115138590335845947265625">
        <ele>10.19999980926513671875</ele>
        <time>2016-11-09T08:36:00.000Z</time>
        <extensions>
          <ns3:TrackPointExtension/>
        </extensions>
      </trkpt>
      <trkpt lat="24.4948367960751056671142578125" lon="118.1063155643641948699951171875">
        <ele>10.6000003814697265625</ele>
        <time>2016-11-09T08:36:05.000Z</time>
        <extensions>
          <ns3:TrackPointExtension/>
        </extensions>
      </trkpt>
      <trkpt lat="24.4948787055909633636474609375" lon="118.10642997734248638153076171875">
        <ele>10.80000019073486328125</ele>
        <time>2016-11-09T08:36:10.000Z</time>
        <extensions>
          <ns3:TrackPointExtension/>
        </extensions>
      </trkpt>
      <trkpt lat="24.49498741887509822845458984375" lon="118.106452859938144683837890625">
        <ele>10.3999996185302734375</ele>
        <time>2016-11-09T08:36:15.000Z</time>
        <extensions>
          <ns3:TrackPointExtension/>
        </extensions>
      </trkpt>
      <trkpt lat="24.49507710523903369903564453125" lon="118.1064376048743724822998046875">
        <ele>10.19999980926513671875</ele>
        <time>2016-11-09T08:36:20.000Z</time>
        <extensions>
          <ns3:TrackPointExtension/>
        </extensions>
      </trkpt>
      <trkpt lat="24.49511717073619365692138671875" lon="118.10652921907603740692138671875">
        <ele>9.3999996185302734375</ele>
        <time>2016-11-09T08:36:25.000Z</time>
        <extensions>
          <ns3:TrackPointExtension/>
        </extensions>
      </trkpt>
      <trkpt lat="24.49511901475489139556884765625" lon="118.1066283769905567169189453125">
        <ele>8.6000003814697265625</ele>
        <time>2016-11-09T08:36:30.000Z</time>
        <extensions>
          <ns3:TrackPointExtension/>
        </extensions>
      </trkpt>
      <trkpt lat="24.49511901475489139556884765625" lon="118.1066283769905567169189453125">
        <ele>8.6000003814697265625</ele>
        <time>2016-11-09T08:36:35.000Z</time>
        <extensions>
          <ns3:TrackPointExtension/>
        </extensions>
      </trkpt>
      <trkpt lat="24.4952659495174884796142578125" lon="118.10710899531841278076171875">
        <ele>8.6000003814697265625</ele>
        <time>2016-11-09T08:36:40.000Z</time>
        <extensions>
          <ns3:TrackPointExtension/>
        </extensions>
      </trkpt>
      <trkpt lat="24.49524306692183017730712890625" lon="118.10699458234012126922607421875">
        <ele>8.3999996185302734375</ele>
        <time>2016-11-09T08:36:45.000Z</time>
        <extensions>
          <ns3:TrackPointExtension/>
        </extensions>
      </trkpt>
      <trkpt lat="24.49519344605505466461181640625" lon="118.10688779689371585845947265625">
        <ele>8.19999980926513671875</ele>
        <time>2016-11-09T08:36:50.000Z</time>
        <extensions>
          <ns3:TrackPointExtension/>
        </extensions>
      </trkpt>
      <trkpt lat="24.495201073586940765380859375" lon="118.10678855516016483306884765625">
        <ele>8.3999996185302734375</ele>
        <time>2016-11-09T08:36:55.000Z</time>
        <extensions>
          <ns3:TrackPointExtension/>
        </extensions>
      </trkpt>
      <trkpt lat="24.49519344605505466461181640625" lon="118.10688779689371585845947265625">
        <ele>8.19999980926513671875</ele>
        <time>2016-11-09T08:37:00.000Z</time>
        <extensions>
          <ns3:TrackPointExtension/>
        </extensions>
      </trkpt>
      <trkpt lat="24.495201073586940765380859375" lon="118.10678855516016483306884765625">
        <ele>8.3999996185302734375</ele>
        <time>2016-11-09T08:37:05.000Z</time>
        <extensions>
          <ns3:TrackPointExtension/>
        </extensions>
      </trkpt>
      <trkpt lat="24.495201073586940765380859375" lon="118.10678855516016483306884765625">
        <ele>8.3999996185302734375</ele>
        <time>2016-11-09T08:37:10.000Z</time>
        <extensions>
          <ns3:TrackPointExtension/>
        </extensions>
      </trkpt>
      <trkpt lat="24.495594017207622528076171875" lon="118.10668176971375942230224609375">
        <ele>10.80000019073486328125</ele>
        <time>2016-11-09T08:37:15.000Z</time>
        <extensions>
          <ns3:TrackPointExtension/>
        </extensions>
      </trkpt>
      <trkpt lat="24.4956511817872524261474609375" lon="118.1067809276282787322998046875">
        <ele>12.6000003814697265625</ele>
        <time>2016-11-09T08:37:20.000Z</time>
        <extensions>
          <ns3:TrackPointExtension/>
        </extensions>
      </trkpt>
      <trkpt lat="24.4956511817872524261474609375" lon="118.1067809276282787322998046875">
        <ele>12.6000003814697265625</ele>
        <time>2016-11-09T08:37:25.000Z</time>
        <extensions>
          <ns3:TrackPointExtension/>
        </extensions>
      </trkpt>
      <trkpt lat="24.4957065023481845855712890625" lon="118.10687254182994365692138671875">
        <ele>15</ele>
        <time>2016-11-09T08:37:30.000Z</time>
        <extensions>
          <ns3:TrackPointExtension/>
        </extensions>
      </trkpt>
      <trkpt lat="24.4956816919147968292236328125" lon="118.10676567256450653076171875">
        <ele>13</ele>
        <time>2016-11-09T08:37:35.000Z</time>
        <extensions>
          <ns3:TrackPointExtension/>
        </extensions>
      </trkpt>
      <trkpt lat="24.4956816919147968292236328125" lon="118.10676567256450653076171875">
        <ele>13</ele>
        <time>2016-11-09T08:37:40.000Z</time>
        <extensions>
          <ns3:TrackPointExtension/>
        </extensions>
      </trkpt>
      <trkpt lat="24.496156610548496246337890625" lon="118.10694881714880466461181640625">
        <ele>17.6000003814697265625</ele>
        <time>2016-11-09T08:37:45.000Z</time>
        <extensions>
          <ns3:TrackPointExtension/>
        </extensions>
      </trkpt>
      <trkpt lat="24.49626155197620391845703125" lon="118.1069411896169185638427734375">
        <ele>16.799999237060546875</ele>
        <time>2016-11-09T08:37:50.000Z</time>
        <extensions>
          <ns3:TrackPointExtension/>
        </extensions>
      </trkpt>
      <trkpt lat="24.49637596495449542999267578125" lon="118.10699458234012126922607421875">
        <ele>16.3999996185302734375</ele>
        <time>2016-11-09T08:37:55.000Z</time>
        <extensions>
          <ns3:TrackPointExtension/>
        </extensions>
      </trkpt>
      <trkpt lat="24.49649616144597530364990234375" lon="118.10700983740389347076416015625">
        <ele>16</ele>
        <time>2016-11-09T08:38:00.000Z</time>
        <extensions>
          <ns3:TrackPointExtension/>
        </extensions>
      </trkpt>
      <trkpt lat="24.49660487473011016845703125" lon="118.10702509246766567230224609375">
        <ele>16</ele>
        <time>2016-11-09T08:38:05.000Z</time>
        <extensions>
          <ns3:TrackPointExtension/>
        </extensions>
      </trkpt>
      <trkpt lat="24.4966811500489711761474609375" lon="118.10696407221257686614990234375">
        <ele>16.6000003814697265625</ele>
        <time>2016-11-09T08:38:10.000Z</time>
        <extensions>
          <ns3:TrackPointExtension/>
        </extensions>
      </trkpt>
      <trkpt lat="24.49679371900856494903564453125" lon="118.1069411896169185638427734375">
        <ele>17.200000762939453125</ele>
        <time>2016-11-09T08:38:15.000Z</time>
        <extensions>
          <ns3:TrackPointExtension/>
        </extensions>
      </trkpt>
      <trkpt lat="24.49690050445497035980224609375" lon="118.1069259345531463623046875">
        <ele>16.799999237060546875</ele>
        <time>2016-11-09T08:38:20.000Z</time>
        <extensions>
          <ns3:TrackPointExtension/>
        </extensions>
      </trkpt>
      <trkpt lat="24.49700159020721912384033203125" lon="118.10688779689371585845947265625">
        <ele>16.799999237060546875</ele>
        <time>2016-11-09T08:38:25.000Z</time>
        <extensions>
          <ns3:TrackPointExtension/>
        </extensions>
      </trkpt>
      <trkpt lat="24.49709697626531124114990234375" lon="118.10686491429805755615234375">
        <ele>16.799999237060546875</ele>
        <time>2016-11-09T08:38:30.000Z</time>
        <extensions>
          <ns3:TrackPointExtension/>
        </extensions>
      </trkpt>
      <trkpt lat="24.49720376171171665191650390625" lon="118.1068191491067409515380859375">
        <ele>16.3999996185302734375</ele>
        <time>2016-11-09T08:38:35.000Z</time>
        <extensions>
          <ns3:TrackPointExtension/>
        </extensions>
      </trkpt>
      <trkpt lat="24.49731440283358097076416015625" lon="118.1068191491067409515380859375">
        <ele>15.19999980926513671875</ele>
        <time>2016-11-09T08:38:40.000Z</time>
        <extensions>
          <ns3:TrackPointExtension/>
        </extensions>
      </trkpt>
      <trkpt lat="24.49735446833074092864990234375" lon="118.1069259345531463623046875">
        <ele>15</ele>
        <time>2016-11-09T08:38:45.000Z</time>
        <extensions>
          <ns3:TrackPointExtension/>
        </extensions>
      </trkpt>
      <trkpt lat="24.49743074364960193634033203125" lon="118.1070022098720073699951171875">
        <ele>15</ele>
        <time>2016-11-09T08:38:50.000Z</time>
        <extensions>
          <ns3:TrackPointExtension/>
        </extensions>
      </trkpt>
      <trkpt lat="24.4975032471120357513427734375" lon="118.10710136778652667999267578125">
        <ele>14.19999980926513671875</ele>
        <time>2016-11-09T08:38:55.000Z</time>
        <extensions>
          <ns3:TrackPointExtension/>
        </extensions>
      </trkpt>
      <trkpt lat="24.49752612970769405364990234375" lon="118.10723111964762210845947265625">
        <ele>13.19999980926513671875</ele>
        <time>2016-11-09T08:39:00.000Z</time>
        <extensions>
          <ns3:TrackPointExtension/>
        </extensions>
      </trkpt>
      <trkpt lat="24.4975642673671245574951171875" lon="118.10732265003025531768798828125">
        <ele>12.3999996185302734375</ele>
        <time>2016-11-09T08:39:05.000Z</time>
        <extensions>
          <ns3:TrackPointExtension/>
        </extensions>
      </trkpt>
      <trkpt lat="24.4975890778005123138427734375" lon="118.10745231807231903076171875">
        <ele>11</ele>
        <time>2016-11-09T08:39:10.000Z</time>
        <extensions>
          <ns3:TrackPointExtension/>
        </extensions>
      </trkpt>
      <trkpt lat="24.497629143297672271728515625" lon="118.10754393227398395538330078125">
        <ele>10.19999980926513671875</ele>
        <time>2016-11-09T08:39:15.000Z</time>
        <extensions>
          <ns3:TrackPointExtension/>
        </extensions>
      </trkpt>
      <trkpt lat="24.49767105281352996826171875" lon="118.107643090188503265380859375">
        <ele>10.3999996185302734375</ele>
        <time>2016-11-09T08:39:20.000Z</time>
        <extensions>
          <ns3:TrackPointExtension/>
        </extensions>
      </trkpt>
      <trkpt lat="24.4977092742919921875" lon="118.107734620571136474609375">
        <ele>10.6000003814697265625</ele>
        <time>2016-11-09T08:39:25.000Z</time>
        <extensions>
          <ns3:TrackPointExtension/>
        </extensions>
      </trkpt>
      <trkpt lat="24.4977607391774654388427734375" lon="118.107826150953769683837890625">
        <ele>11</ele>
        <time>2016-11-09T08:39:30.000Z</time>
        <extensions>
          <ns3:TrackPointExtension/>
        </extensions>
      </trkpt>
      <trkpt lat="24.4978217594325542449951171875" lon="118.10790251009166240692138671875">
        <ele>11.3999996185302734375</ele>
        <time>2016-11-09T08:39:35.000Z</time>
        <extensions>
          <ns3:TrackPointExtension/>
        </extensions>
      </trkpt>
      <trkpt lat="24.4978961907327175140380859375" lon="118.10784148983657360076904296875">
        <ele>12</ele>
        <time>2016-11-09T08:39:40.000Z</time>
        <extensions>
          <ns3:TrackPointExtension/>
        </extensions>
      </trkpt>
      <trkpt lat="24.4979381002485752105712890625" lon="118.10775750316679477691650390625">
        <ele>12.3999996185302734375</ele>
        <time>2016-11-09T08:39:45.000Z</time>
        <extensions>
          <ns3:TrackPointExtension/>
        </extensions>
      </trkpt>
      <trkpt lat="24.49802585877478122711181640625" lon="118.107734620571136474609375">
        <ele>12.80000019073486328125</ele>
        <time>2016-11-09T08:39:50.000Z</time>
        <extensions>
          <ns3:TrackPointExtension/>
        </extensions>
      </trkpt>
      <trkpt lat="24.49813649989664554595947265625" lon="118.107734620571136474609375">
        <ele>13.6000003814697265625</ele>
        <time>2016-11-09T08:39:55.000Z</time>
        <extensions>
          <ns3:TrackPointExtension/>
        </extensions>
      </trkpt>
      <trkpt lat="24.49823188595473766326904296875" lon="118.10772699303925037384033203125">
        <ele>14.19999980926513671875</ele>
        <time>2016-11-09T08:40:00.000Z</time>
        <extensions>
          <ns3:TrackPointExtension/>
        </extensions>
      </trkpt>
      <trkpt lat="24.49834437109529972076416015625" lon="118.1076888553798198699951171875">
        <ele>14.3999996185302734375</ele>
        <time>2016-11-09T08:40:05.000Z</time>
        <extensions>
          <ns3:TrackPointExtension/>
        </extensions>
      </trkpt>
      <trkpt lat="24.49842450208961963653564453125" lon="118.10762020759284496307373046875">
        <ele>14.6000003814697265625</ele>
        <time>2016-11-09T08:40:10.000Z</time>
        <extensions>
          <ns3:TrackPointExtension/>
        </extensions>
      </trkpt>
      <trkpt lat="24.49851988814771175384521484375" lon="118.1075973249971866607666015625">
        <ele>14.3999996185302734375</ele>
        <time>2016-11-09T08:40:15.000Z</time>
        <extensions>
          <ns3:TrackPointExtension/>
        </extensions>
      </trkpt>
      <trkpt lat="24.49861519038677215576171875" lon="118.10758969746530055999755859375">
        <ele>14.19999980926513671875</ele>
        <time>2016-11-09T08:40:20.000Z</time>
        <extensions>
          <ns3:TrackPointExtension/>
        </extensions>
      </trkpt>
      <trkpt lat="24.4986991770565509796142578125" lon="118.10752867721021175384521484375">
        <ele>14.19999980926513671875</ele>
        <time>2016-11-09T08:40:25.000Z</time>
        <extensions>
          <ns3:TrackPointExtension/>
        </extensions>
      </trkpt>
      <trkpt lat="24.49880973435938358306884765625" lon="118.10749053955078125">
        <ele>14.6000003814697265625</ele>
        <time>2016-11-09T08:40:30.000Z</time>
        <extensions>
          <ns3:TrackPointExtension/>
        </extensions>
      </trkpt>
      <trkpt lat="24.49889942072331905364990234375" lon="118.10741418041288852691650390625">
        <ele>15.19999980926513671875</ele>
        <time>2016-11-09T08:40:35.000Z</time>
        <extensions>
          <ns3:TrackPointExtension/>
        </extensions>
      </trkpt>
      <trkpt lat="24.49900050647556781768798828125" lon="118.10736841522157192230224609375">
        <ele>16.200000762939453125</ele>
        <time>2016-11-09T08:40:40.000Z</time>
        <extensions>
          <ns3:TrackPointExtension/>
        </extensions>
      </trkpt>
      <trkpt lat="24.499099664390087127685546875" lon="118.1073150224983692169189453125">
        <ele>18.200000762939453125</ele>
        <time>2016-11-09T08:40:45.000Z</time>
        <extensions>
          <ns3:TrackPointExtension/>
        </extensions>
      </trkpt>
      <trkpt lat="24.4992198608815670013427734375" lon="118.1072845123708248138427734375">
        <ele>20.799999237060546875</ele>
        <time>2016-11-09T08:40:50.000Z</time>
        <extensions>
          <ns3:TrackPointExtension/>
        </extensions>
      </trkpt>
      <trkpt lat="24.49931331910192966461181640625" lon="118.10729213990271091461181640625">
        <ele>22.3999996185302734375</ele>
        <time>2016-11-09T08:40:55.000Z</time>
        <extensions>
          <ns3:TrackPointExtension/>
        </extensions>
      </trkpt>
      <trkpt lat="24.49940484948456287384033203125" lon="118.10724637471139430999755859375">
        <ele>23.3999996185302734375</ele>
        <time>2016-11-09T08:41:00.000Z</time>
        <extensions>
          <ns3:TrackPointExtension/>
        </extensions>
      </trkpt>
      <trkpt lat="24.49950979091227054595947265625" lon="118.10718535445630550384521484375">
        <ele>24.6000003814697265625</ele>
        <time>2016-11-09T08:41:05.000Z</time>
        <extensions>
          <ns3:TrackPointExtension/>
        </extensions>
      </trkpt>
      <trkpt lat="24.4995631836354732513427734375" lon="118.10710136778652667999267578125">
        <ele>25</ele>
        <time>2016-11-09T08:41:10.000Z</time>
        <extensions>
          <ns3:TrackPointExtension/>
        </extensions>
      </trkpt>
      <trkpt lat="24.4996433146297931671142578125" lon="118.10704034753143787384033203125">
        <ele>26</ele>
        <time>2016-11-09T08:41:15.000Z</time>
        <extensions>
          <ns3:TrackPointExtension/>
        </extensions>
      </trkpt>
      <trkpt lat="24.4997348450124263763427734375" lon="118.10699458234012126922607421875">
        <ele>26.799999237060546875</ele>
        <time>2016-11-09T08:41:20.000Z</time>
        <extensions>
          <ns3:TrackPointExtension/>
        </extensions>
      </trkpt>
      <trkpt lat="24.49982830323278903961181640625" lon="118.106956444680690765380859375">
        <ele>27.799999237060546875</ele>
        <time>2016-11-09T08:41:25.000Z</time>
        <extensions>
          <ns3:TrackPointExtension/>
        </extensions>
      </trkpt>
      <trkpt lat="24.499927461147308349609375" lon="118.10697932727634906768798828125">
        <ele>29.200000762939453125</ele>
        <time>2016-11-09T08:41:30.000Z</time>
        <extensions>
          <ns3:TrackPointExtension/>
        </extensions>
      </trkpt>
      <trkpt lat="24.5000171475112438201904296875" lon="118.10705560259521007537841796875">
        <ele>30.799999237060546875</ele>
        <time>2016-11-09T08:41:35.000Z</time>
        <extensions>
          <ns3:TrackPointExtension/>
        </extensions>
      </trkpt>
      <trkpt lat="24.50010675005614757537841796875" lon="118.10715484432876110076904296875">
        <ele>32.40000152587890625</ele>
        <time>2016-11-09T08:41:40.000Z</time>
        <extensions>
          <ns3:TrackPointExtension/>
        </extensions>
      </trkpt>
      <trkpt lat="24.5001696981489658355712890625" lon="118.10723111964762210845947265625">
        <ele>34.200000762939453125</ele>
        <time>2016-11-09T08:41:45.000Z</time>
        <extensions>
          <ns3:TrackPointExtension/>
        </extensions>
      </trkpt>
      <trkpt lat="24.50026315636932849884033203125" lon="118.10729213990271091461181640625">
        <ele>36.59999847412109375</ele>
        <time>2016-11-09T08:41:50.000Z</time>
        <extensions>
          <ns3:TrackPointExtension/>
        </extensions>
      </trkpt>
      <trkpt lat="24.50033373199403285980224609375" lon="118.10736841522157192230224609375">
        <ele>38.200000762939453125</ele>
        <time>2016-11-09T08:41:55.000Z</time>
        <extensions>
          <ns3:TrackPointExtension/>
        </extensions>
      </trkpt>
      <trkpt lat="24.5004023797810077667236328125" lon="118.1074370630085468292236328125">
        <ele>39.59999847412109375</ele>
        <time>2016-11-09T08:42:00.000Z</time>
        <extensions>
          <ns3:TrackPointExtension/>
        </extensions>
      </trkpt>
      <trkpt lat="24.50052450411021709442138671875" lon="118.107421807944774627685546875">
        <ele>43.200000762939453125</ele>
        <time>2016-11-09T08:42:05.000Z</time>
        <extensions>
          <ns3:TrackPointExtension/>
        </extensions>
      </trkpt>
      <trkpt lat="24.500614106655120849609375" lon="118.10745231807231903076171875">
        <ele>46</ele>
        <time>2016-11-09T08:42:10.000Z</time>
        <extensions>
          <ns3:TrackPointExtension/>
        </extensions>
      </trkpt>
      <trkpt lat="24.5006903819739818572998046875" lon="118.107521049678325653076171875">
        <ele>47.799999237060546875</ele>
        <time>2016-11-09T08:42:15.000Z</time>
        <extensions>
          <ns3:TrackPointExtension/>
        </extensions>
      </trkpt>
      <trkpt lat="24.5007591135799884796142578125" lon="118.1075973249971866607666015625">
        <ele>48.40000152587890625</ele>
        <time>2016-11-09T08:42:20.000Z</time>
        <extensions>
          <ns3:TrackPointExtension/>
        </extensions>
      </trkpt>
      <trkpt lat="24.5007591135799884796142578125" lon="118.1075973249971866607666015625">
        <ele>48.40000152587890625</ele>
        <time>2016-11-09T08:42:25.000Z</time>
        <extensions>
          <ns3:TrackPointExtension/>
        </extensions>
      </trkpt>
      <trkpt lat="24.50090403668582439422607421875" lon="118.10807031579315662384033203125">
        <ele>49.200000762939453125</ele>
        <time>2016-11-09T08:42:30.000Z</time>
        <extensions>
          <ns3:TrackPointExtension/>
        </extensions>
      </trkpt>
      <trkpt lat="24.5009212195873260498046875" lon="118.10823057778179645538330078125">
        <ele>46</ele>
        <time>2016-11-09T08:42:35.000Z</time>
        <extensions>
          <ns3:TrackPointExtension/>
        </extensions>
      </trkpt>
      <trkpt lat="24.50095935724675655364990234375" lon="118.10832210816442966461181640625">
        <ele>44.799999237060546875</ele>
        <time>2016-11-09T08:42:40.000Z</time>
        <extensions>
          <ns3:TrackPointExtension/>
        </extensions>
      </trkpt>
      <trkpt lat="24.5009917952120304107666015625" lon="118.108421266078948974609375">
        <ele>42.40000152587890625</ele>
        <time>2016-11-09T08:42:45.000Z</time>
        <extensions>
          <ns3:TrackPointExtension/>
        </extensions>
      </trkpt>
      <trkpt lat="24.501043260097503662109375" lon="118.10855864547193050384521484375">
        <ele>38.799999237060546875</ele>
        <time>2016-11-09T08:42:50.000Z</time>
        <extensions>
          <ns3:TrackPointExtension/>
        </extensions>
      </trkpt>
      <trkpt lat="24.5010719262063503265380859375" lon="118.10869594104588031768798828125">
        <ele>35.40000152587890625</ele>
        <time>2016-11-09T08:42:55.000Z</time>
        <extensions>
          <ns3:TrackPointExtension/>
        </extensions>
      </trkpt>
      <trkpt lat="24.50106614269316196441650390625" lon="118.108795098960399627685546875">
        <ele>34</ele>
        <time>2016-11-09T08:43:00.000Z</time>
        <extensions>
          <ns3:TrackPointExtension/>
        </extensions>
      </trkpt>
      <trkpt lat="24.501098580658435821533203125" lon="118.10890196822583675384521484375">
        <ele>33.40000152587890625</ele>
        <time>2016-11-09T08:43:05.000Z</time>
        <extensions>
          <ns3:TrackPointExtension/>
        </extensions>
      </trkpt>
      <trkpt lat="24.50116538442671298980712890625" lon="118.10899349860846996307373046875">
        <ele>33.40000152587890625</ele>
        <time>2016-11-09T08:43:10.000Z</time>
        <extensions>
          <ns3:TrackPointExtension/>
        </extensions>
      </trkpt>
      <trkpt lat="24.5012301765382289886474609375" lon="118.1090621463954448699951171875">
        <ele>33.799999237060546875</ele>
        <time>2016-11-09T08:43:15.000Z</time>
        <extensions>
          <ns3:TrackPointExtension/>
        </extensions>
      </trkpt>
      <trkpt lat="24.50126261450350284576416015625" lon="118.10916130430996417999267578125">
        <ele>35.59999847412109375</ele>
        <time>2016-11-09T08:43:20.000Z</time>
        <extensions>
          <ns3:TrackPointExtension/>
        </extensions>
      </trkpt>
      <trkpt lat="24.50127786956727504730224609375" lon="118.10930631123483180999755859375">
        <ele>35.40000152587890625</ele>
        <time>2016-11-09T08:43:25.000Z</time>
        <extensions>
          <ns3:TrackPointExtension/>
        </extensions>
      </trkpt>
      <trkpt lat="24.501344673335552215576171875" lon="118.10945886187255382537841796875">
        <ele>35.40000152587890625</ele>
        <time>2016-11-09T08:43:30.000Z</time>
        <extensions>
          <ns3:TrackPointExtension/>
        </extensions>
      </trkpt>
      <trkpt lat="24.501405693590641021728515625" lon="118.1095657311379909515380859375">
        <ele>37</ele>
        <time>2016-11-09T08:43:35.000Z</time>
        <extensions>
          <ns3:TrackPointExtension/>
        </extensions>
      </trkpt>
      <trkpt lat="24.5014876686036586761474609375" lon="118.1096572615206241607666015625">
        <ele>40</ele>
        <time>2016-11-09T08:43:40.000Z</time>
        <extensions>
          <ns3:TrackPointExtension/>
        </extensions>
      </trkpt>
      <trkpt lat="24.50156587176024913787841796875" lon="118.10975641943514347076416015625">
        <ele>43</ele>
        <time>2016-11-09T08:43:45.000Z</time>
        <extensions>
          <ns3:TrackPointExtension/>
        </extensions>
      </trkpt>
      <trkpt lat="24.50163644738495349884033203125" lon="118.10983269475400447845458984375">
        <ele>46.200000762939453125</ele>
        <time>2016-11-09T08:43:50.000Z</time>
        <extensions>
          <ns3:TrackPointExtension/>
        </extensions>
      </trkpt>
      <trkpt lat="24.5017203502357006072998046875" lon="118.109886087477207183837890625">
        <ele>49.799999237060546875</ele>
        <time>2016-11-09T08:43:55.000Z</time>
        <extensions>
          <ns3:TrackPointExtension/>
        </extensions>
      </trkpt>
      <trkpt lat="24.50182336382567882537841796875" lon="118.109893798828125">
        <ele>53.799999237060546875</ele>
        <time>2016-11-09T08:44:00.000Z</time>
        <extensions>
          <ns3:TrackPointExtension/>
        </extensions>
      </trkpt>
      <trkpt lat="24.50191305018961429595947265625" lon="118.10986320488154888153076171875">
        <ele>57.799999237060546875</ele>
        <time>2016-11-09T08:44:05.000Z</time>
        <extensions>
          <ns3:TrackPointExtension/>
        </extensions>
      </trkpt>
      <trkpt lat="24.5020217634737491607666015625" lon="118.1098098121583461761474609375">
        <ele>64.40000152587890625</ele>
        <time>2016-11-09T08:44:10.000Z</time>
        <extensions>
          <ns3:TrackPointExtension/>
        </extensions>
      </trkpt>
      <trkpt lat="24.5020008087158203125" lon="118.1096267513930797576904296875">
        <ele>64.59999847412109375</ele>
        <time>2016-11-09T08:44:15.000Z</time>
        <extensions>
          <ns3:TrackPointExtension/>
        </extensions>
      </trkpt>
      <trkpt lat="24.5020008087158203125" lon="118.1096267513930797576904296875">
        <ele>64.59999847412109375</ele>
        <time>2016-11-09T08:44:20.000Z</time>
        <extensions>
          <ns3:TrackPointExtension/>
        </extensions>
      </trkpt>
      <trkpt lat="24.50184247456490993499755859375" lon="118.1090316362679004669189453125">
        <ele>67</ele>
        <time>2016-11-09T08:44:25.000Z</time>
        <extensions>
          <ns3:TrackPointExtension/>
        </extensions>
      </trkpt>
      <trkpt lat="24.50184247456490993499755859375" lon="118.1090316362679004669189453125">
        <ele>67</ele>
        <time>2016-11-09T08:44:30.000Z</time>
        <extensions>
          <ns3:TrackPointExtension/>
        </extensions>
      </trkpt>
      <trkpt lat="24.501563943922519683837890625" lon="118.1080321781337261199951171875">
        <ele>74</ele>
        <time>2016-11-09T08:44:35.000Z</time>
        <extensions>
          <ns3:TrackPointExtension/>
        </extensions>
      </trkpt>
      <trkpt lat="24.501563943922519683837890625" lon="118.1080321781337261199951171875">
        <ele>74</ele>
        <time>2016-11-09T08:44:40.000Z</time>
        <extensions>
          <ns3:TrackPointExtension/>
        </extensions>
      </trkpt>
      <trkpt lat="24.50140946544706821441650390625" lon="118.10615538619458675384521484375">
        <ele>83.1999969482421875</ele>
        <time>2016-11-09T08:44:45.000Z</time>
        <extensions>
          <ns3:TrackPointExtension/>
        </extensions>
      </trkpt>
      <trkpt lat="24.50136177241802215576171875" lon="118.1062850542366504669189453125">
        <ele>82.8000030517578125</ele>
        <time>2016-11-09T08:44:50.000Z</time>
        <extensions>
          <ns3:TrackPointExtension/>
        </extensions>
      </trkpt>
      <trkpt lat="24.50135230086743831634521484375" lon="118.1064070947468280792236328125">
        <ele>82.59999847412109375</ele>
        <time>2016-11-09T08:44:55.000Z</time>
        <extensions>
          <ns3:TrackPointExtension/>
        </extensions>
      </trkpt>
      <trkpt lat="24.5013503730297088623046875" lon="118.10651396401226520538330078125">
        <ele>81.40000152587890625</ele>
        <time>2016-11-09T08:45:00.000Z</time>
        <extensions>
          <ns3:TrackPointExtension/>
        </extensions>
      </trkpt>
      <trkpt lat="24.50133704580366611480712890625" lon="118.10665125958621501922607421875">
        <ele>79</ele>
        <time>2016-11-09T08:45:05.000Z</time>
        <extensions>
          <ns3:TrackPointExtension/>
        </extensions>
      </trkpt>
      <trkpt lat="24.50144383125007152557373046875" lon="118.106613121926784515380859375">
        <ele>81.59999847412109375</ele>
        <time>2016-11-09T08:45:10.000Z</time>
        <extensions>
          <ns3:TrackPointExtension/>
        </extensions>
      </trkpt>
      <trkpt lat="24.50155447237193584442138671875" lon="118.10657498426735401153564453125">
        <ele>84.59999847412109375</ele>
        <time>2016-11-09T08:45:15.000Z</time>
        <extensions>
          <ns3:TrackPointExtension/>
        </extensions>
      </trkpt>
      <trkpt lat="24.501674585044384002685546875" lon="118.10652921907603740692138671875">
        <ele>87.1999969482421875</ele>
        <time>2016-11-09T08:45:20.000Z</time>
        <extensions>
          <ns3:TrackPointExtension/>
        </extensions>
      </trkpt>
      <trkpt lat="24.50171087868511676788330078125" lon="118.1064070947468280792236328125">
        <ele>88</ele>
        <time>2016-11-09T08:45:25.000Z</time>
        <extensions>
          <ns3:TrackPointExtension/>
        </extensions>
      </trkpt>
      <trkpt lat="24.5017890818417072296142578125" lon="118.10635370202362537384033203125">
        <ele>89</ele>
        <time>2016-11-09T08:45:30.000Z</time>
        <extensions>
          <ns3:TrackPointExtension/>
        </extensions>
      </trkpt>
      <trkpt lat="24.50188823975622653961181640625" lon="118.1062850542366504669189453125">
        <ele>91.1999969482421875</ele>
        <time>2016-11-09T08:45:35.000Z</time>
        <extensions>
          <ns3:TrackPointExtension/>
        </extensions>
      </trkpt>
      <trkpt lat="24.50198362581431865692138671875" lon="118.106208778917789459228515625">
        <ele>91</ele>
        <time>2016-11-09T08:45:40.000Z</time>
        <extensions>
          <ns3:TrackPointExtension/>
        </extensions>
      </trkpt>
      <trkpt lat="24.50205034576356410980224609375" lon="118.10614013113081455230712890625">
        <ele>90.59999847412109375</ele>
        <time>2016-11-09T08:45:45.000Z</time>
        <extensions>
          <ns3:TrackPointExtension/>
        </extensions>
      </trkpt>
      <trkpt lat="24.5021228492259979248046875" lon="118.10607139952480792999267578125">
        <ele>90.59999847412109375</ele>
        <time>2016-11-09T08:45:50.000Z</time>
        <extensions>
          <ns3:TrackPointExtension/>
        </extensions>
      </trkpt>
      <trkpt lat="24.502178169786930084228515625" lon="118.105987496674060821533203125">
        <ele>90.40000152587890625</ele>
        <time>2016-11-09T08:45:55.000Z</time>
        <extensions>
          <ns3:TrackPointExtension/>
        </extensions>
      </trkpt>
      <trkpt lat="24.5022601447999477386474609375" lon="118.10591884888708591461181640625">
        <ele>90.59999847412109375</ele>
        <time>2016-11-09T08:46:00.000Z</time>
        <extensions>
          <ns3:TrackPointExtension/>
        </extensions>
      </trkpt>
      <trkpt lat="24.50233834795653820037841796875" lon="118.10584257356822490692138671875">
        <ele>91</ele>
        <time>2016-11-09T08:46:05.000Z</time>
        <extensions>
          <ns3:TrackPointExtension/>
        </extensions>
      </trkpt>
      <trkpt lat="24.50237841345369815826416015625" lon="118.1057204492390155792236328125">
        <ele>91.8000030517578125</ele>
        <time>2016-11-09T08:46:10.000Z</time>
        <extensions>
          <ns3:TrackPointExtension/>
        </extensions>
      </trkpt>
      <trkpt lat="24.50244328938424587249755859375" lon="118.105644173920154571533203125">
        <ele>92.8000030517578125</ele>
        <time>2016-11-09T08:46:15.000Z</time>
        <extensions>
          <ns3:TrackPointExtension/>
        </extensions>
      </trkpt>
      <trkpt lat="24.50251956470310688018798828125" lon="118.1055678986012935638427734375">
        <ele>93.40000152587890625</ele>
        <time>2016-11-09T08:46:20.000Z</time>
        <extensions>
          <ns3:TrackPointExtension/>
        </extensions>
      </trkpt>
      <trkpt lat="24.502588212490081787109375" lon="118.1054458580911159515380859375">
        <ele>94.8000030517578125</ele>
        <time>2016-11-09T08:46:25.000Z</time>
        <extensions>
          <ns3:TrackPointExtension/>
        </extensions>
      </trkpt>
      <trkpt lat="24.50264546088874340057373046875" lon="118.1053466163575649261474609375">
        <ele>95.8000030517578125</ele>
        <time>2016-11-09T08:46:30.000Z</time>
        <extensions>
          <ns3:TrackPointExtension/>
        </extensions>
      </trkpt>
      <trkpt lat="24.5027027092874050140380859375" lon="118.10526271350681781768798828125">
        <ele>94.59999847412109375</ele>
        <time>2016-11-09T08:46:35.000Z</time>
        <extensions>
          <ns3:TrackPointExtension/>
        </extensions>
      </trkpt>
      <trkpt lat="24.50275794602930545806884765625" lon="118.105178810656070709228515625">
        <ele>93.40000152587890625</ele>
        <time>2016-11-09T08:46:40.000Z</time>
        <extensions>
          <ns3:TrackPointExtension/>
        </extensions>
      </trkpt>
      <trkpt lat="24.5028056390583515167236328125" lon="118.1050338037312030792236328125">
        <ele>93</ele>
        <time>2016-11-09T08:46:45.000Z</time>
        <extensions>
          <ns3:TrackPointExtension/>
        </extensions>
      </trkpt>
      <trkpt lat="24.50283807702362537384033203125" lon="118.1049117632210254669189453125">
        <ele>90.1999969482421875</ele>
        <time>2016-11-09T08:46:50.000Z</time>
        <extensions>
          <ns3:TrackPointExtension/>
        </extensions>
      </trkpt>
      <trkpt lat="24.5028953254222869873046875" lon="118.1047897227108478546142578125">
        <ele>87.40000152587890625</ele>
        <time>2016-11-09T08:46:55.000Z</time>
        <extensions>
          <ns3:TrackPointExtension/>
        </extensions>
      </trkpt>
      <trkpt lat="24.50295827351510524749755859375" lon="118.10470573604106903076171875">
        <ele>86.1999969482421875</ele>
        <time>2016-11-09T08:47:00.000Z</time>
        <extensions>
          <ns3:TrackPointExtension/>
        </extensions>
      </trkpt>
      <trkpt lat="24.50299448333680629730224609375" lon="118.10459132306277751922607421875">
        <ele>85</ele>
        <time>2016-11-09T08:47:05.000Z</time>
        <extensions>
          <ns3:TrackPointExtension/>
        </extensions>
      </trkpt>
      <trkpt lat="24.50304980389773845672607421875" lon="118.10449979268014430999755859375">
        <ele>84</ele>
        <time>2016-11-09T08:47:10.000Z</time>
        <extensions>
          <ns3:TrackPointExtension/>
        </extensions>
      </trkpt>
      <trkpt lat="24.503103196620941162109375" lon="118.104400634765625">
        <ele>84.1999969482421875</ele>
        <time>2016-11-09T08:47:15.000Z</time>
        <extensions>
          <ns3:TrackPointExtension/>
        </extensions>
      </trkpt>
      <trkpt lat="24.503158517181873321533203125" lon="118.104301393032073974609375">
        <ele>84</ele>
        <time>2016-11-09T08:47:20.000Z</time>
        <extensions>
          <ns3:TrackPointExtension/>
        </extensions>
      </trkpt>
      <trkpt lat="24.503194727003574371337890625" lon="118.10420223511755466461181640625">
        <ele>84</ele>
        <time>2016-11-09T08:47:25.000Z</time>
        <extensions>
          <ns3:TrackPointExtension/>
        </extensions>
      </trkpt>
      <trkpt lat="24.50324627570807933807373046875" lon="118.10409544967114925384521484375">
        <ele>85.1999969482421875</ele>
        <time>2016-11-09T08:47:30.000Z</time>
        <extensions>
          <ns3:TrackPointExtension/>
        </extensions>
      </trkpt>
      <trkpt lat="24.503274857997894287109375" lon="118.103958070278167724609375">
        <ele>86</ele>
        <time>2016-11-09T08:47:35.000Z</time>
        <extensions>
          <ns3:TrackPointExtension/>
        </extensions>
      </trkpt>
      <trkpt lat="24.5032844133675098419189453125" lon="118.10381314717233180999755859375">
        <ele>89.1999969482421875</ele>
        <time>2016-11-09T08:47:40.000Z</time>
        <extensions>
          <ns3:TrackPointExtension/>
        </extensions>
      </trkpt>
      <trkpt lat="24.50327293016016483306884765625" lon="118.10369865037500858306884765625">
        <ele>92</ele>
        <time>2016-11-09T08:47:45.000Z</time>
        <extensions>
          <ns3:TrackPointExtension/>
        </extensions>
      </trkpt>
      <trkpt lat="24.50331115163862705230712890625" lon="118.10360711999237537384033203125">
        <ele>92.59999847412109375</ele>
        <time>2016-11-09T08:47:50.000Z</time>
        <extensions>
          <ns3:TrackPointExtension/>
        </extensions>
      </trkpt>
      <trkpt lat="24.5033397339284420013427734375" lon="118.1034927070140838623046875">
        <ele>93.59999847412109375</ele>
        <time>2016-11-09T08:47:55.000Z</time>
        <extensions>
          <ns3:TrackPointExtension/>
        </extensions>
      </trkpt>
      <trkpt lat="24.50331299565732479095458984375" lon="118.103362955152988433837890625">
        <ele>96</ele>
        <time>2016-11-09T08:48:00.000Z</time>
        <extensions>
          <ns3:TrackPointExtension/>
        </extensions>
      </trkpt>
      <trkpt lat="24.5032787136733531951904296875" lon="118.103271424770355224609375">
        <ele>96.40000152587890625</ele>
        <time>2016-11-09T08:48:05.000Z</time>
        <extensions>
          <ns3:TrackPointExtension/>
        </extensions>
      </trkpt>
      <trkpt lat="24.5032482035458087921142578125" lon="118.10312650166451930999755859375">
        <ele>97.1999969482421875</ele>
        <time>2016-11-09T08:48:10.000Z</time>
        <extensions>
          <ns3:TrackPointExtension/>
        </extensions>
      </trkpt>
      <trkpt lat="24.50326723046600818634033203125" lon="118.10298149473965167999267578125">
        <ele>94.40000152587890625</ele>
        <time>2016-11-09T08:48:15.000Z</time>
        <extensions>
          <ns3:TrackPointExtension/>
        </extensions>
      </trkpt>
      <trkpt lat="24.50326723046600818634033203125" lon="118.10284419916570186614990234375">
        <ele>91.59999847412109375</ele>
        <time>2016-11-09T08:48:20.000Z</time>
        <extensions>
          <ns3:TrackPointExtension/>
        </extensions>
      </trkpt>
      <trkpt lat="24.50318709947168827056884765625" lon="118.10276792384684085845947265625">
        <ele>90.40000152587890625</ele>
        <time>2016-11-09T08:48:25.000Z</time>
        <extensions>
          <ns3:TrackPointExtension/>
        </extensions>
      </trkpt>
      <trkpt lat="24.5031432621181011199951171875" lon="118.10263817198574542999267578125">
        <ele>88.1999969482421875</ele>
        <time>2016-11-09T08:48:30.000Z</time>
        <extensions>
          <ns3:TrackPointExtension/>
        </extensions>
      </trkpt>
      <trkpt lat="24.50316421687602996826171875" lon="118.10253138653934001922607421875">
        <ele>85.1999969482421875</ele>
        <time>2016-11-09T08:48:35.000Z</time>
        <extensions>
          <ns3:TrackPointExtension/>
        </extensions>
      </trkpt>
      <trkpt lat="24.50307461433112621307373046875" lon="118.10242460109293460845947265625">
        <ele>87.8000030517578125</ele>
        <time>2016-11-09T08:48:40.000Z</time>
        <extensions>
          <ns3:TrackPointExtension/>
        </extensions>
      </trkpt>
      <trkpt lat="24.50302499346435070037841796875" lon="118.10231010429561138153076171875">
        <ele>88.40000152587890625</ele>
        <time>2016-11-09T08:48:45.000Z</time>
        <extensions>
          <ns3:TrackPointExtension/>
        </extensions>
      </trkpt>
      <trkpt lat="24.502851404249668121337890625" lon="118.10230247676372528076171875">
        <ele>95.40000152587890625</ele>
        <time>2016-11-09T08:48:50.000Z</time>
        <extensions>
          <ns3:TrackPointExtension/>
        </extensions>
      </trkpt>
      <trkpt lat="24.50282852165400981903076171875" lon="118.1021956913173198699951171875">
        <ele>94.59999847412109375</ele>
        <time>2016-11-09T08:48:55.000Z</time>
        <extensions>
          <ns3:TrackPointExtension/>
        </extensions>
      </trkpt>
      <trkpt lat="24.5027236640453338623046875" lon="118.102210946381092071533203125">
        <ele>98.40000152587890625</ele>
        <time>2016-11-09T08:49:00.000Z</time>
        <extensions>
          <ns3:TrackPointExtension/>
        </extensions>
      </trkpt>
      <trkpt lat="24.50261495076119899749755859375" lon="118.10215755365788936614990234375">
        <ele>101</ele>
        <time>2016-11-09T08:49:05.000Z</time>
        <extensions>
          <ns3:TrackPointExtension/>
        </extensions>
      </trkpt>
      <trkpt lat="24.5025176368653774261474609375" lon="118.10212704353034496307373046875">
        <ele>101.8000030517578125</ele>
        <time>2016-11-09T08:49:10.000Z</time>
        <extensions>
          <ns3:TrackPointExtension/>
        </extensions>
      </trkpt>
      <trkpt lat="24.5024661719799041748046875" lon="118.101989664137363433837890625">
        <ele>100.1999969482421875</ele>
        <time>2016-11-09T08:49:15.000Z</time>
        <extensions>
          <ns3:TrackPointExtension/>
        </extensions>
      </trkpt>
      <trkpt lat="24.5023764856159687042236328125" lon="118.10187525115907192230224609375">
        <ele>98.1999969482421875</ele>
        <time>2016-11-09T08:49:20.000Z</time>
        <extensions>
          <ns3:TrackPointExtension/>
        </extensions>
      </trkpt>
      <trkpt lat="24.50232879258692264556884765625" lon="118.1016693077981472015380859375">
        <ele>93</ele>
        <time>2016-11-09T08:49:25.000Z</time>
        <extensions>
          <ns3:TrackPointExtension/>
        </extensions>
      </trkpt>
      <trkpt lat="24.502250589430332183837890625" lon="118.10159294866025447845458984375">
        <ele>93.59999847412109375</ele>
        <time>2016-11-09T08:49:30.000Z</time>
        <extensions>
          <ns3:TrackPointExtension/>
        </extensions>
      </trkpt>
      <trkpt lat="24.502153359353542327880859375" lon="118.101646341383457183837890625">
        <ele>98.8000030517578125</ele>
        <time>2016-11-09T08:49:35.000Z</time>
        <extensions>
          <ns3:TrackPointExtension/>
        </extensions>
      </trkpt>
      <trkpt lat="24.50205420143902301788330078125" lon="118.10160820372402667999267578125">
        <ele>101.1999969482421875</ele>
        <time>2016-11-09T08:49:40.000Z</time>
        <extensions>
          <ns3:TrackPointExtension/>
        </extensions>
      </trkpt>
      <trkpt lat="24.5019664429128170013427734375" lon="118.101524300873279571533203125">
        <ele>102</ele>
        <time>2016-11-09T08:49:45.000Z</time>
        <extensions>
          <ns3:TrackPointExtension/>
        </extensions>
      </trkpt>
      <trkpt lat="24.5019664429128170013427734375" lon="118.101524300873279571533203125">
        <ele>102</ele>
        <time>2016-11-09T08:49:50.000Z</time>
        <extensions>
          <ns3:TrackPointExtension/>
        </extensions>
      </trkpt>
      <trkpt lat="24.5018863119184970855712890625" lon="118.10103605501353740692138671875">
        <ele>96.40000152587890625</ele>
        <time>2016-11-09T08:49:55.000Z</time>
        <extensions>
          <ns3:TrackPointExtension/>
        </extensions>
      </trkpt>
      <trkpt lat="24.501932077109813690185546875" lon="118.10090630315244197845458984375">
        <ele>89.40000152587890625</ele>
        <time>2016-11-09T08:50:00.000Z</time>
        <extensions>
          <ns3:TrackPointExtension/>
        </extensions>
      </trkpt>
      <trkpt lat="24.50192260555922985076904296875" lon="118.1007003597915172576904296875">
        <ele>83.1999969482421875</ele>
        <time>2016-11-09T08:50:05.000Z</time>
        <extensions>
          <ns3:TrackPointExtension/>
        </extensions>
      </trkpt>
      <trkpt lat="24.501907266676425933837890625" lon="118.10059349052608013153076171875">
        <ele>82.1999969482421875</ele>
        <time>2016-11-09T08:50:10.000Z</time>
        <extensions>
          <ns3:TrackPointExtension/>
        </extensions>
      </trkpt>
      <trkpt lat="24.50189963914453983306884765625" lon="118.10046382248401641845703125">
        <ele>82.8000030517578125</ele>
        <time>2016-11-09T08:50:15.000Z</time>
        <extensions>
          <ns3:TrackPointExtension/>
        </extensions>
      </trkpt>
      <trkpt lat="24.50186342932283878326416015625" lon="118.10033415444195270538330078125">
        <ele>83.59999847412109375</ele>
        <time>2016-11-09T08:50:20.000Z</time>
        <extensions>
          <ns3:TrackPointExtension/>
        </extensions>
      </trkpt>
      <trkpt lat="24.50183291919529438018798828125" lon="118.1002272851765155792236328125">
        <ele>78.8000030517578125</ele>
        <time>2016-11-09T08:50:25.000Z</time>
        <extensions>
          <ns3:TrackPointExtension/>
        </extensions>
      </trkpt>
      <trkpt lat="24.50177189894020557403564453125" lon="118.1001357547938823699951171875">
        <ele>76.8000030517578125</ele>
        <time>2016-11-09T08:50:30.000Z</time>
        <extensions>
          <ns3:TrackPointExtension/>
        </extensions>
      </trkpt>
      <trkpt lat="24.50154684484004974365234375" lon="118.10021965764462947845458984375">
        <ele>97</ele>
        <time>2016-11-09T08:50:35.000Z</time>
        <extensions>
          <ns3:TrackPointExtension/>
        </extensions>
      </trkpt>
      <trkpt lat="24.50149529613554477691650390625" lon="118.10012812726199626922607421875">
        <ele>96.59999847412109375</ele>
        <time>2016-11-09T08:50:40.000Z</time>
        <extensions>
          <ns3:TrackPointExtension/>
        </extensions>
      </trkpt>
      <trkpt lat="24.50136177241802215576171875" lon="118.1000137142837047576904296875">
        <ele>99.40000152587890625</ele>
        <time>2016-11-09T08:50:45.000Z</time>
        <extensions>
          <ns3:TrackPointExtension/>
        </extensions>
      </trkpt>
      <trkpt lat="24.5013961382210254669189453125" lon="118.09984582476317882537841796875">
        <ele>90.59999847412109375</ele>
        <time>2016-11-09T08:50:50.000Z</time>
        <extensions>
          <ns3:TrackPointExtension/>
        </extensions>
      </trkpt>
      <trkpt lat="24.5013961382210254669189453125" lon="118.09984582476317882537841796875">
        <ele>90.59999847412109375</ele>
        <time>2016-11-09T08:50:55.000Z</time>
        <extensions>
          <ns3:TrackPointExtension/>
        </extensions>
      </trkpt>
      <trkpt lat="24.5014018379151821136474609375" lon="118.09969327412545680999755859375">
        <ele>85.8000030517578125</ele>
        <time>2016-11-09T08:51:00.000Z</time>
        <extensions>
          <ns3:TrackPointExtension/>
        </extensions>
      </trkpt>
      <trkpt lat="24.501380883157253265380859375" lon="118.0995941162109375">
        <ele>86.40000152587890625</ele>
        <time>2016-11-09T08:51:05.000Z</time>
        <extensions>
          <ns3:TrackPointExtension/>
        </extensions>
      </trkpt>
      <trkpt lat="24.501380883157253265380859375" lon="118.0995941162109375">
        <ele>86.40000152587890625</ele>
        <time>2016-11-09T08:51:10.000Z</time>
        <extensions>
          <ns3:TrackPointExtension/>
        </extensions>
      </trkpt>
      <trkpt lat="24.50136177241802215576171875" lon="118.0994796194136142730712890625">
        <ele>87.1999969482421875</ele>
        <time>2016-11-09T08:51:15.000Z</time>
        <extensions>
          <ns3:TrackPointExtension/>
        </extensions>
      </trkpt>
      <trkpt lat="24.501331262290477752685546875" lon="118.09938046149909496307373046875">
        <ele>89.1999969482421875</ele>
        <time>2016-11-09T08:51:20.000Z</time>
        <extensions>
          <ns3:TrackPointExtension/>
        </extensions>
      </trkpt>
      <trkpt lat="24.5013294182717800140380859375" lon="118.09927367605268955230712890625">
        <ele>90</ele>
        <time>2016-11-09T08:51:25.000Z</time>
        <extensions>
          <ns3:TrackPointExtension/>
        </extensions>
      </trkpt>
      <trkpt lat="24.50127786956727504730224609375" lon="118.0991668067872524261474609375">
        <ele>92.1999969482421875</ele>
        <time>2016-11-09T08:51:30.000Z</time>
        <extensions>
          <ns3:TrackPointExtension/>
        </extensions>
      </trkpt>
      <trkpt lat="24.5012244768440723419189453125" lon="118.0990447662770748138427734375">
        <ele>93.1999969482421875</ele>
        <time>2016-11-09T08:51:35.000Z</time>
        <extensions>
          <ns3:TrackPointExtension/>
        </extensions>
      </trkpt>
      <trkpt lat="24.5012244768440723419189453125" lon="118.0990447662770748138427734375">
        <ele>93.1999969482421875</ele>
        <time>2016-11-09T08:51:40.000Z</time>
        <extensions>
          <ns3:TrackPointExtension/>
        </extensions>
      </trkpt>
      <trkpt lat="24.50124735943973064422607421875" lon="118.09891509823501110076904296875">
        <ele>90</ele>
        <time>2016-11-09T08:51:45.000Z</time>
        <extensions>
          <ns3:TrackPointExtension/>
        </extensions>
      </trkpt>
      <trkpt lat="24.50133704580366611480712890625" lon="118.098838739097118377685546875">
        <ele>81.59999847412109375</ele>
        <time>2016-11-09T08:51:50.000Z</time>
        <extensions>
          <ns3:TrackPointExtension/>
        </extensions>
      </trkpt>
      <trkpt lat="24.50144760310649871826171875" lon="118.098808228969573974609375">
        <ele>75.40000152587890625</ele>
        <time>2016-11-09T08:51:55.000Z</time>
        <extensions>
          <ns3:TrackPointExtension/>
        </extensions>
      </trkpt>
      <trkpt lat="24.501516334712505340576171875" lon="118.09873958118259906768798828125">
        <ele>71.40000152587890625</ele>
        <time>2016-11-09T08:52:00.000Z</time>
        <extensions>
          <ns3:TrackPointExtension/>
        </extensions>
      </trkpt>
      <trkpt lat="24.501516334712505340576171875" lon="118.09873958118259906768798828125">
        <ele>71.40000152587890625</ele>
        <time>2016-11-09T08:52:05.000Z</time>
        <extensions>
          <ns3:TrackPointExtension/>
        </extensions>
      </trkpt>
      <trkpt lat="24.5015181787312030792236328125" lon="118.09863279573619365692138671875">
        <ele>70.1999969482421875</ele>
        <time>2016-11-09T08:52:10.000Z</time>
        <extensions>
          <ns3:TrackPointExtension/>
        </extensions>
      </trkpt>
      <trkpt lat="24.50153343379497528076171875" lon="118.09853355400264263153076171875">
        <ele>71.59999847412109375</ele>
        <time>2016-11-09T08:52:15.000Z</time>
        <extensions>
          <ns3:TrackPointExtension/>
        </extensions>
      </trkpt>
      <trkpt lat="24.50155631639063358306884765625" lon="118.098434396088123321533203125">
        <ele>73</ele>
        <time>2016-11-09T08:52:20.000Z</time>
        <extensions>
          <ns3:TrackPointExtension/>
        </extensions>
      </trkpt>
      <trkpt lat="24.5015124790370464324951171875" lon="118.098312355577945709228515625">
        <ele>76.1999969482421875</ele>
        <time>2016-11-09T08:52:25.000Z</time>
        <extensions>
          <ns3:TrackPointExtension/>
        </extensions>
      </trkpt>
      <trkpt lat="24.501466713845729827880859375" lon="118.09822845272719860076904296875">
        <ele>79.1999969482421875</ele>
        <time>2016-11-09T08:52:30.000Z</time>
        <extensions>
          <ns3:TrackPointExtension/>
        </extensions>
      </trkpt>
      <trkpt lat="24.501399993896484375" lon="118.098152093589305877685546875">
        <ele>83.1999969482421875</ele>
        <time>2016-11-09T08:52:35.000Z</time>
        <extensions>
          <ns3:TrackPointExtension/>
        </extensions>
      </trkpt>
      <trkpt lat="24.50133704580366611480712890625" lon="118.0980453081429004669189453125">
        <ele>88</ele>
        <time>2016-11-09T08:52:40.000Z</time>
        <extensions>
          <ns3:TrackPointExtension/>
        </extensions>
      </trkpt>
      <trkpt lat="24.50129312463104724884033203125" lon="118.09793089516460895538330078125">
        <ele>92.59999847412109375</ele>
        <time>2016-11-09T08:52:45.000Z</time>
        <extensions>
          <ns3:TrackPointExtension/>
        </extensions>
      </trkpt>
      <trkpt lat="24.501306451857089996337890625" lon="118.0977935157716274261474609375">
        <ele>91.40000152587890625</ele>
        <time>2016-11-09T08:52:50.000Z</time>
        <extensions>
          <ns3:TrackPointExtension/>
        </extensions>
      </trkpt>
      <trkpt lat="24.50132363475859165191650390625" lon="118.0976562201976776123046875">
        <ele>87.1999969482421875</ele>
        <time>2016-11-09T08:52:55.000Z</time>
        <extensions>
          <ns3:TrackPointExtension/>
        </extensions>
      </trkpt>
      <trkpt lat="24.50135800056159496307373046875" lon="118.09755706228315830230712890625">
        <ele>84</ele>
        <time>2016-11-09T08:53:00.000Z</time>
        <extensions>
          <ns3:TrackPointExtension/>
        </extensions>
      </trkpt>
      <trkpt lat="24.50136939994990825653076171875" lon="118.097434937953948974609375">
        <ele>81</ele>
        <time>2016-11-09T08:53:05.000Z</time>
        <extensions>
          <ns3:TrackPointExtension/>
        </extensions>
      </trkpt>
      <trkpt lat="24.50137325562536716461181640625" lon="118.0973281525075435638427734375">
        <ele>79</ele>
        <time>2016-11-09T08:53:10.000Z</time>
        <extensions>
          <ns3:TrackPointExtension/>
        </extensions>
      </trkpt>
      <trkpt lat="24.50130268000066280364990234375" lon="118.09725950472056865692138671875">
        <ele>81.8000030517578125</ele>
        <time>2016-11-09T08:53:15.000Z</time>
        <extensions>
          <ns3:TrackPointExtension/>
        </extensions>
      </trkpt>
      <trkpt lat="24.5012854970991611480712890625" lon="118.09715263545513153076171875">
        <ele>81.59999847412109375</ele>
        <time>2016-11-09T08:53:20.000Z</time>
        <extensions>
          <ns3:TrackPointExtension/>
        </extensions>
      </trkpt>
      <trkpt lat="24.50126261450350284576416015625" lon="118.09705347754061222076416015625">
        <ele>81.8000030517578125</ele>
        <time>2016-11-09T08:53:25.000Z</time>
        <extensions>
          <ns3:TrackPointExtension/>
        </extensions>
      </trkpt>
      <trkpt lat="24.50125121511518955230712890625" lon="118.0969543196260929107666015625">
        <ele>82.1999969482421875</ele>
        <time>2016-11-09T08:53:30.000Z</time>
        <extensions>
          <ns3:TrackPointExtension/>
        </extensions>
      </trkpt>
      <trkpt lat="24.50130837969481945037841796875" lon="118.0968245677649974822998046875">
        <ele>80.40000152587890625</ele>
        <time>2016-11-09T08:53:35.000Z</time>
        <extensions>
          <ns3:TrackPointExtension/>
        </extensions>
      </trkpt>
      <trkpt lat="24.50137518346309661865234375" lon="118.0967330373823642730712890625">
        <ele>79.8000030517578125</ele>
        <time>2016-11-09T08:53:40.000Z</time>
        <extensions>
          <ns3:TrackPointExtension/>
        </extensions>
      </trkpt>
      <trkpt lat="24.50147048570215702056884765625" lon="118.0966109968721866607666015625">
        <ele>81.8000030517578125</ele>
        <time>2016-11-09T08:53:45.000Z</time>
        <extensions>
          <ns3:TrackPointExtension/>
        </extensions>
      </trkpt>
      <trkpt lat="24.5015677995979785919189453125" lon="118.09656523168087005615234375">
        <ele>83</ele>
        <time>2016-11-09T08:53:50.000Z</time>
        <extensions>
          <ns3:TrackPointExtension/>
        </extensions>
      </trkpt>
      <trkpt lat="24.50167081318795680999755859375" lon="118.09660336934030055999755859375">
        <ele>81</ele>
        <time>2016-11-09T08:53:55.000Z</time>
        <extensions>
          <ns3:TrackPointExtension/>
        </extensions>
      </trkpt>
      <trkpt lat="24.501773826777935028076171875" lon="118.09660336934030055999755859375">
        <ele>80.59999847412109375</ele>
        <time>2016-11-09T08:54:00.000Z</time>
        <extensions>
          <ns3:TrackPointExtension/>
        </extensions>
      </trkpt>
      <trkpt lat="24.50187675654888153076171875" lon="118.09664913453161716461181640625">
        <ele>79.1999969482421875</ele>
        <time>2016-11-09T08:54:05.000Z</time>
        <extensions>
          <ns3:TrackPointExtension/>
        </extensions>
      </trkpt>
      <trkpt lat="24.50197407044470310211181640625" lon="118.09668727219104766845703125">
        <ele>78.40000152587890625</ele>
        <time>2016-11-09T08:54:10.000Z</time>
        <extensions>
          <ns3:TrackPointExtension/>
        </extensions>
      </trkpt>
      <trkpt lat="24.50207130052149295806884765625" lon="118.09668727219104766845703125">
        <ele>79</ele>
        <time>2016-11-09T08:54:15.000Z</time>
        <extensions>
          <ns3:TrackPointExtension/>
        </extensions>
      </trkpt>
      <trkpt lat="24.5021877251565456390380859375" lon="118.09671015478670597076416015625">
        <ele>78.40000152587890625</ele>
        <time>2016-11-09T08:54:20.000Z</time>
        <extensions>
          <ns3:TrackPointExtension/>
        </extensions>
      </trkpt>
      <trkpt lat="24.5022945106029510498046875" lon="118.09677117504179477691650390625">
        <ele>77</ele>
        <time>2016-11-09T08:54:25.000Z</time>
        <extensions>
          <ns3:TrackPointExtension/>
        </extensions>
      </trkpt>
      <trkpt lat="24.50241462327539920806884765625" lon="118.09680931270122528076171875">
        <ele>76.59999847412109375</ele>
        <time>2016-11-09T08:54:30.000Z</time>
        <extensions>
          <ns3:TrackPointExtension/>
        </extensions>
      </trkpt>
      <trkpt lat="24.5025157928466796875" lon="118.09681694023311138153076171875">
        <ele>77.1999969482421875</ele>
        <time>2016-11-09T08:54:35.000Z</time>
        <extensions>
          <ns3:TrackPointExtension/>
        </extensions>
      </trkpt>
      <trkpt lat="24.5026225782930850982666015625" lon="118.09683219529688358306884765625">
        <ele>77.40000152587890625</ele>
        <time>2016-11-09T08:54:40.000Z</time>
        <extensions>
          <ns3:TrackPointExtension/>
        </extensions>
      </trkpt>
      <trkpt lat="24.50271033681929111480712890625" lon="118.09690092690289020538330078125">
        <ele>75.40000152587890625</ele>
        <time>2016-11-09T08:54:45.000Z</time>
        <extensions>
          <ns3:TrackPointExtension/>
        </extensions>
      </trkpt>
      <trkpt lat="24.5028190501034259796142578125" lon="118.0968627892434597015380859375">
        <ele>75.8000030517578125</ele>
        <time>2016-11-09T08:54:50.000Z</time>
        <extensions>
          <ns3:TrackPointExtension/>
        </extensions>
      </trkpt>
      <trkpt lat="24.5027999393641948699951171875" lon="118.096748292446136474609375">
        <ele>77.1999969482421875</ele>
        <time>2016-11-09T08:54:55.000Z</time>
        <extensions>
          <ns3:TrackPointExtension/>
        </extensions>
      </trkpt>
      <trkpt lat="24.50276750139892101287841796875" lon="118.0966262519359588623046875">
        <ele>81</ele>
        <time>2016-11-09T08:55:00.000Z</time>
        <extensions>
          <ns3:TrackPointExtension/>
        </extensions>
      </trkpt>
      <trkpt lat="24.502754174172878265380859375" lon="118.09652709402143955230712890625">
        <ele>82.8000030517578125</ele>
        <time>2016-11-09T08:55:05.000Z</time>
        <extensions>
          <ns3:TrackPointExtension/>
        </extensions>
      </trkpt>
      <trkpt lat="24.5027084089815616607666015625" lon="118.09641259722411632537841796875">
        <ele>84.59999847412109375</ele>
        <time>2016-11-09T08:55:10.000Z</time>
        <extensions>
          <ns3:TrackPointExtension/>
        </extensions>
      </trkpt>
      <trkpt lat="24.5027084089815616607666015625" lon="118.09641259722411632537841796875">
        <ele>84.59999847412109375</ele>
        <time>2016-11-09T08:55:15.000Z</time>
        <extensions>
          <ns3:TrackPointExtension/>
        </extensions>
      </trkpt>
      <trkpt lat="24.5026835985481739044189453125" lon="118.09629055671393871307373046875">
        <ele>85.59999847412109375</ele>
        <time>2016-11-09T08:55:20.000Z</time>
        <extensions>
          <ns3:TrackPointExtension/>
        </extensions>
      </trkpt>
      <trkpt lat="24.50263590551912784576416015625" lon="118.09618377126753330230712890625">
        <ele>88</ele>
        <time>2016-11-09T08:55:25.000Z</time>
        <extensions>
          <ns3:TrackPointExtension/>
        </extensions>
      </trkpt>
      <trkpt lat="24.50259969569742679595947265625" lon="118.096092157065868377685546875">
        <ele>92</ele>
        <time>2016-11-09T08:55:30.000Z</time>
        <extensions>
          <ns3:TrackPointExtension/>
        </extensions>
      </trkpt>
      <trkpt lat="24.50259969569742679595947265625" lon="118.096092157065868377685546875">
        <ele>92</ele>
        <time>2016-11-09T08:55:35.000Z</time>
        <extensions>
          <ns3:TrackPointExtension/>
        </extensions>
      </trkpt>
      <trkpt lat="24.50252526439726352691650390625" lon="118.09600062668323516845703125">
        <ele>98.40000152587890625</ele>
        <time>2016-11-09T08:55:40.000Z</time>
        <extensions>
          <ns3:TrackPointExtension/>
        </extensions>
      </trkpt>
      <trkpt lat="24.50247757136821746826171875" lon="118.09591672383248805999755859375">
        <ele>103.40000152587890625</ele>
        <time>2016-11-09T08:55:45.000Z</time>
        <extensions>
          <ns3:TrackPointExtension/>
        </extensions>
      </trkpt>
      <trkpt lat="24.50247757136821746826171875" lon="118.09580222703516483306884765625">
        <ele>105.59999847412109375</ele>
        <time>2016-11-09T08:55:50.000Z</time>
        <extensions>
          <ns3:TrackPointExtension/>
        </extensions>
      </trkpt>
      <trkpt lat="24.50251000933349132537841796875" lon="118.09571069665253162384033203125">
        <ele>102</ele>
        <time>2016-11-09T08:55:55.000Z</time>
        <extensions>
          <ns3:TrackPointExtension/>
        </extensions>
      </trkpt>
      <trkpt lat="24.5025062374770641326904296875" lon="118.09557340107858180999755859375">
        <ele>97.1999969482421875</ele>
        <time>2016-11-09T08:56:00.000Z</time>
        <extensions>
          <ns3:TrackPointExtension/>
        </extensions>
      </trkpt>
      <trkpt lat="24.50251000933349132537841796875" lon="118.0954742431640625">
        <ele>96</ele>
        <time>2016-11-09T08:56:05.000Z</time>
        <extensions>
          <ns3:TrackPointExtension/>
        </extensions>
      </trkpt>
      <trkpt lat="24.50255007483065128326416015625" lon="118.095375001430511474609375">
        <ele>99.40000152587890625</ele>
        <time>2016-11-09T08:56:10.000Z</time>
        <extensions>
          <ns3:TrackPointExtension/>
        </extensions>
      </trkpt>
      <trkpt lat="24.50258444063365459442138671875" lon="118.0952682159841060638427734375">
        <ele>100</ele>
        <time>2016-11-09T08:56:15.000Z</time>
        <extensions>
          <ns3:TrackPointExtension/>
        </extensions>
      </trkpt>
      <trkpt lat="24.50258444063365459442138671875" lon="118.0952682159841060638427734375">
        <ele>100</ele>
        <time>2016-11-09T08:56:20.000Z</time>
        <extensions>
          <ns3:TrackPointExtension/>
        </extensions>
      </trkpt>
      <trkpt lat="24.50306505896151065826416015625" lon="118.08995048515498638153076171875">
        <ele>62</ele>
        <time>2016-11-09T08:56:25.000Z</time>
        <extensions>
          <ns3:TrackPointExtension/>
        </extensions>
      </trkpt>
      <trkpt lat="24.50310512445867061614990234375" lon="118.0900573544204235076904296875">
        <ele>59.200000762939453125</ele>
        <time>2016-11-09T08:56:30.000Z</time>
        <extensions>
          <ns3:TrackPointExtension/>
        </extensions>
      </trkpt>
      <trkpt lat="24.50312993489205837249755859375" lon="118.09016413986682891845703125">
        <ele>57.59999847412109375</ele>
        <time>2016-11-09T08:56:35.000Z</time>
        <extensions>
          <ns3:TrackPointExtension/>
        </extensions>
      </trkpt>
      <trkpt lat="24.50315658934414386749267578125" lon="118.09027855284512042999267578125">
        <ele>55.799999237060546875</ele>
        <time>2016-11-09T08:56:40.000Z</time>
        <extensions>
          <ns3:TrackPointExtension/>
        </extensions>
      </trkpt>
      <trkpt lat="24.503189027309417724609375" lon="118.09039304964244365692138671875">
        <ele>53.200000762939453125</ele>
        <time>2016-11-09T08:56:45.000Z</time>
        <extensions>
          <ns3:TrackPointExtension/>
        </extensions>
      </trkpt>
      <trkpt lat="24.503189027309417724609375" lon="118.09039304964244365692138671875">
        <ele>53.200000762939453125</ele>
        <time>2016-11-09T08:56:50.000Z</time>
        <extensions>
          <ns3:TrackPointExtension/>
        </extensions>
      </trkpt>
      <trkpt lat="24.5031794719398021697998046875" lon="118.09049983508884906768798828125">
        <ele>51</ele>
        <time>2016-11-09T08:56:55.000Z</time>
        <extensions>
          <ns3:TrackPointExtension/>
        </extensions>
      </trkpt>
      <trkpt lat="24.50314133428037166595458984375" lon="118.09060662053525447845458984375">
        <ele>49.40000152587890625</ele>
        <time>2016-11-09T08:57:00.000Z</time>
        <extensions>
          <ns3:TrackPointExtension/>
        </extensions>
      </trkpt>
      <trkpt lat="24.50312993489205837249755859375" lon="118.09072874486446380615234375">
        <ele>47.40000152587890625</ele>
        <time>2016-11-09T08:57:05.000Z</time>
        <extensions>
          <ns3:TrackPointExtension/>
        </extensions>
      </trkpt>
      <trkpt lat="24.50312993489205837249755859375" lon="118.09072874486446380615234375">
        <ele>47.40000152587890625</ele>
        <time>2016-11-09T08:57:10.000Z</time>
        <extensions>
          <ns3:TrackPointExtension/>
        </extensions>
      </trkpt>
      <trkpt lat="24.5030879415571689605712890625" lon="118.09084315784275531768798828125">
        <ele>46.200000762939453125</ele>
        <time>2016-11-09T08:57:15.000Z</time>
        <extensions>
          <ns3:TrackPointExtension/>
        </extensions>
      </trkpt>
      <trkpt lat="24.50305365957319736480712890625" lon="118.09096519835293292999267578125">
        <ele>46</ele>
        <time>2016-11-09T08:57:20.000Z</time>
        <extensions>
          <ns3:TrackPointExtension/>
        </extensions>
      </trkpt>
      <trkpt lat="24.5030326209962368011474609375" lon="118.09107206761837005615234375">
        <ele>45.59999847412109375</ele>
        <time>2016-11-09T08:57:25.000Z</time>
        <extensions>
          <ns3:TrackPointExtension/>
        </extensions>
      </trkpt>
      <trkpt lat="24.50298878364264965057373046875" lon="118.09118648059666156768798828125">
        <ele>46.200000762939453125</ele>
        <time>2016-11-09T08:57:30.000Z</time>
        <extensions>
          <ns3:TrackPointExtension/>
        </extensions>
      </trkpt>
      <trkpt lat="24.502962045371532440185546875" lon="118.09127801097929477691650390625">
        <ele>46.799999237060546875</ele>
        <time>2016-11-09T08:57:35.000Z</time>
        <extensions>
          <ns3:TrackPointExtension/>
        </extensions>
      </trkpt>
      <trkpt lat="24.502925835549831390380859375" lon="118.0914001353085041046142578125">
        <ele>47.40000152587890625</ele>
        <time>2016-11-09T08:57:40.000Z</time>
        <extensions>
          <ns3:TrackPointExtension/>
        </extensions>
      </trkpt>
      <trkpt lat="24.502876214683055877685546875" lon="118.0914916656911373138427734375">
        <ele>48.59999847412109375</ele>
        <time>2016-11-09T08:57:45.000Z</time>
        <extensions>
          <ns3:TrackPointExtension/>
        </extensions>
      </trkpt>
      <trkpt lat="24.50282852165400981903076171875" lon="118.0915831960737705230712890625">
        <ele>49.799999237060546875</ele>
        <time>2016-11-09T08:57:50.000Z</time>
        <extensions>
          <ns3:TrackPointExtension/>
        </extensions>
      </trkpt>
      <trkpt lat="24.502778984606266021728515625" lon="118.09166709892451763153076171875">
        <ele>50.40000152587890625</ele>
        <time>2016-11-09T08:57:55.000Z</time>
        <extensions>
          <ns3:TrackPointExtension/>
        </extensions>
      </trkpt>
      <trkpt lat="24.5028190501034259796142578125" lon="118.09176634065806865692138671875">
        <ele>50.799999237060546875</ele>
        <time>2016-11-09T08:58:00.000Z</time>
        <extensions>
          <ns3:TrackPointExtension/>
        </extensions>
      </trkpt>
      <trkpt lat="24.5029105804860591888427734375" lon="118.0917434580624103546142578125">
        <ele>50.200000762939453125</ele>
        <time>2016-11-09T08:58:05.000Z</time>
        <extensions>
          <ns3:TrackPointExtension/>
        </extensions>
      </trkpt>
      <trkpt lat="24.50298308394849300384521484375" lon="118.09168235398828983306884765625">
        <ele>49.200000762939453125</ele>
        <time>2016-11-09T08:58:10.000Z</time>
        <extensions>
          <ns3:TrackPointExtension/>
        </extensions>
      </trkpt>
      <trkpt lat="24.503072686493396759033203125" lon="118.0916747264564037322998046875">
        <ele>48.40000152587890625</ele>
        <time>2016-11-09T08:58:15.000Z</time>
        <extensions>
          <ns3:TrackPointExtension/>
        </extensions>
      </trkpt>
      <trkpt lat="24.503158517181873321533203125" lon="118.09172057546675205230712890625">
        <ele>48.40000152587890625</ele>
        <time>2016-11-09T08:58:20.000Z</time>
        <extensions>
          <ns3:TrackPointExtension/>
        </extensions>
      </trkpt>
      <trkpt lat="24.50324242003262042999267578125" lon="118.091689981520175933837890625">
        <ele>46.40000152587890625</ele>
        <time>2016-11-09T08:58:25.000Z</time>
        <extensions>
          <ns3:TrackPointExtension/>
        </extensions>
      </trkpt>
      <trkpt lat="24.50334350578486919403076171875" lon="118.091689981520175933837890625">
        <ele>44.59999847412109375</ele>
        <time>2016-11-09T08:58:30.000Z</time>
        <extensions>
          <ns3:TrackPointExtension/>
        </extensions>
      </trkpt>
      <trkpt lat="24.50342933647334575653076171875" lon="118.091728202998638153076171875">
        <ele>43.799999237060546875</ele>
        <time>2016-11-09T08:58:35.000Z</time>
        <extensions>
          <ns3:TrackPointExtension/>
        </extensions>
      </trkpt>
      <trkpt lat="24.50351516716182231903076171875" lon="118.09176634065806865692138671875">
        <ele>41.799999237060546875</ele>
        <time>2016-11-09T08:58:40.000Z</time>
        <extensions>
          <ns3:TrackPointExtension/>
        </extensions>
      </trkpt>
      <trkpt lat="24.50360099785029888153076171875" lon="118.0918349884450435638427734375">
        <ele>40.40000152587890625</ele>
        <time>2016-11-09T08:58:45.000Z</time>
        <extensions>
          <ns3:TrackPointExtension/>
        </extensions>
      </trkpt>
      <trkpt lat="24.503673501312732696533203125" lon="118.0919265188276767730712890625">
        <ele>39</ele>
        <time>2016-11-09T08:58:50.000Z</time>
        <extensions>
          <ns3:TrackPointExtension/>
        </extensions>
      </trkpt>
      <trkpt lat="24.50370208360254764556884765625" lon="118.09202567674219608306884765625">
        <ele>38.799999237060546875</ele>
        <time>2016-11-09T08:58:55.000Z</time>
        <extensions>
          <ns3:TrackPointExtension/>
        </extensions>
      </trkpt>
      <trkpt lat="24.5036525465548038482666015625" lon="118.0921172909438610076904296875">
        <ele>40.40000152587890625</ele>
        <time>2016-11-09T08:59:00.000Z</time>
        <extensions>
          <ns3:TrackPointExtension/>
        </extensions>
      </trkpt>
      <trkpt lat="24.5036944560706615447998046875" lon="118.09222407639026641845703125">
        <ele>39.200000762939453125</ele>
        <time>2016-11-09T08:59:05.000Z</time>
        <extensions>
          <ns3:TrackPointExtension/>
        </extensions>
      </trkpt>
      <trkpt lat="24.50358959846198558807373046875" lon="118.092285096645355224609375">
        <ele>42</ele>
        <time>2016-11-09T08:59:10.000Z</time>
        <extensions>
          <ns3:TrackPointExtension/>
        </extensions>
      </trkpt>
      <trkpt lat="24.503501839935779571533203125" lon="118.09220119379460811614990234375">
        <ele>44.799999237060546875</ele>
        <time>2016-11-09T08:59:15.000Z</time>
        <extensions>
          <ns3:TrackPointExtension/>
        </extensions>
      </trkpt>
      <trkpt lat="24.5033893547952175140380859375" lon="118.092254586517810821533203125">
        <ele>47</ele>
        <time>2016-11-09T08:59:20.000Z</time>
        <extensions>
          <ns3:TrackPointExtension/>
        </extensions>
      </trkpt>
      <trkpt lat="24.50328248552978038787841796875" lon="118.09223170392215251922607421875">
        <ele>48.59999847412109375</ele>
        <time>2016-11-09T08:59:25.000Z</time>
        <extensions>
          <ns3:TrackPointExtension/>
        </extensions>
      </trkpt>
      <trkpt lat="24.50318139977753162384033203125" lon="118.09227746911346912384033203125">
        <ele>49.799999237060546875</ele>
        <time>2016-11-09T08:59:30.000Z</time>
        <extensions>
          <ns3:TrackPointExtension/>
        </extensions>
      </trkpt>
      <trkpt lat="24.50308031402528285980224609375" lon="118.0922698415815830230712890625">
        <ele>50</ele>
        <time>2016-11-09T08:59:35.000Z</time>
        <extensions>
          <ns3:TrackPointExtension/>
        </extensions>
      </trkpt>
      <trkpt lat="24.502975456416606903076171875" lon="118.092254586517810821533203125">
        <ele>50</ele>
        <time>2016-11-09T08:59:40.000Z</time>
        <extensions>
          <ns3:TrackPointExtension/>
        </extensions>
      </trkpt>
      <trkpt lat="24.502864815294742584228515625" lon="118.09227746911346912384033203125">
        <ele>49.799999237060546875</ele>
        <time>2016-11-09T08:59:45.000Z</time>
        <extensions>
          <ns3:TrackPointExtension/>
        </extensions>
      </trkpt>
      <trkpt lat="24.50277135707437992095947265625" lon="118.092315606772899627685546875">
        <ele>49.59999847412109375</ele>
        <time>2016-11-09T08:59:50.000Z</time>
        <extensions>
          <ns3:TrackPointExtension/>
        </extensions>
      </trkpt>
      <trkpt lat="24.5027236640453338623046875" lon="118.092414848506450653076171875">
        <ele>49.200000762939453125</ele>
        <time>2016-11-09T08:59:55.000Z</time>
        <extensions>
          <ns3:TrackPointExtension/>
        </extensions>
      </trkpt>
      <trkpt lat="24.50270648114383220672607421875" lon="118.09251400642096996307373046875">
        <ele>49.40000152587890625</ele>
        <time>2016-11-09T09:00:00.000Z</time>
        <extensions>
          <ns3:TrackPointExtension/>
        </extensions>
      </trkpt>
      <trkpt lat="24.50270078144967555999755859375" lon="118.0926436744630336761474609375">
        <ele>50.59999847412109375</ele>
        <time>2016-11-09T09:00:05.000Z</time>
        <extensions>
          <ns3:TrackPointExtension/>
        </extensions>
      </trkpt>
      <trkpt lat="24.5027198083698749542236328125" lon="118.092758171260356903076171875">
        <ele>52</ele>
        <time>2016-11-09T09:00:10.000Z</time>
        <extensions>
          <ns3:TrackPointExtension/>
        </extensions>
      </trkpt>
      <trkpt lat="24.50270078144967555999755859375" lon="118.09285732917487621307373046875">
        <ele>53.59999847412109375</ele>
        <time>2016-11-09T09:00:15.000Z</time>
        <extensions>
          <ns3:TrackPointExtension/>
        </extensions>
      </trkpt>
      <trkpt lat="24.5027198083698749542236328125" lon="118.0929564870893955230712890625">
        <ele>55.200000762939453125</ele>
        <time>2016-11-09T09:00:20.000Z</time>
        <extensions>
          <ns3:TrackPointExtension/>
        </extensions>
      </trkpt>
      <trkpt lat="24.50264923274517059326171875" lon="118.09304038994014263153076171875">
        <ele>58.200000762939453125</ele>
        <time>2016-11-09T09:00:25.000Z</time>
        <extensions>
          <ns3:TrackPointExtension/>
        </extensions>
      </trkpt>
      <trkpt lat="24.502557702362537384033203125" lon="118.09307098388671875">
        <ele>61.799999237060546875</ele>
        <time>2016-11-09T09:00:30.000Z</time>
        <extensions>
          <ns3:TrackPointExtension/>
        </extensions>
      </trkpt>
      <trkpt lat="24.50245854444801807403564453125" lon="118.0930480174720287322998046875">
        <ele>65</ele>
        <time>2016-11-09T09:00:35.000Z</time>
        <extensions>
          <ns3:TrackPointExtension/>
        </extensions>
      </trkpt>
      <trkpt lat="24.5023441314697265625" lon="118.09302513487637042999267578125">
        <ele>69</ele>
        <time>2016-11-09T09:00:40.000Z</time>
        <extensions>
          <ns3:TrackPointExtension/>
        </extensions>
      </trkpt>
      <trkpt lat="24.50231739319860935211181640625" lon="118.0929259769618511199951171875">
        <ele>67.59999847412109375</ele>
        <time>2016-11-09T09:00:45.000Z</time>
        <extensions>
          <ns3:TrackPointExtension/>
        </extensions>
      </trkpt>
      <trkpt lat="24.50229828245937824249267578125" lon="118.092819191515445709228515625">
        <ele>65.8000030517578125</ele>
        <time>2016-11-09T09:00:50.000Z</time>
        <extensions>
          <ns3:TrackPointExtension/>
        </extensions>
      </trkpt>
      <trkpt lat="24.50229828245937824249267578125" lon="118.092819191515445709228515625">
        <ele>65.8000030517578125</ele>
        <time>2016-11-09T09:00:55.000Z</time>
        <extensions>
          <ns3:TrackPointExtension/>
        </extensions>
      </trkpt>
      <trkpt lat="24.5022945106029510498046875" lon="118.09271232225000858306884765625">
        <ele>62.799999237060546875</ele>
        <time>2016-11-09T09:01:00.000Z</time>
        <extensions>
          <ns3:TrackPointExtension/>
        </extensions>
      </trkpt>
      <trkpt lat="24.50229828245937824249267578125" lon="118.09260553680360317230224609375">
        <ele>59.59999847412109375</ele>
        <time>2016-11-09T09:01:05.000Z</time>
        <extensions>
          <ns3:TrackPointExtension/>
        </extensions>
      </trkpt>
      <trkpt lat="24.5023154653608798980712890625" lon="118.0925063788890838623046875">
        <ele>57</ele>
        <time>2016-11-09T09:01:10.000Z</time>
        <extensions>
          <ns3:TrackPointExtension/>
        </extensions>
      </trkpt>
      <trkpt lat="24.50229643844068050384521484375" lon="118.0923995934426784515380859375">
        <ele>57.59999847412109375</ele>
        <time>2016-11-09T09:01:15.000Z</time>
        <extensions>
          <ns3:TrackPointExtension/>
        </extensions>
      </trkpt>
      <trkpt lat="24.50229643844068050384521484375" lon="118.0923995934426784515380859375">
        <ele>57.59999847412109375</ele>
        <time>2016-11-09T09:01:20.000Z</time>
        <extensions>
          <ns3:TrackPointExtension/>
        </extensions>
      </trkpt>
      <trkpt lat="24.50224681757390499114990234375" lon="118.092315606772899627685546875">
        <ele>59.59999847412109375</ele>
        <time>2016-11-09T09:01:25.000Z</time>
        <extensions>
          <ns3:TrackPointExtension/>
        </extensions>
      </trkpt>
      <trkpt lat="24.5021438039839267730712890625" lon="118.09227746911346912384033203125">
        <ele>64.1999969482421875</ele>
        <time>2016-11-09T09:01:30.000Z</time>
        <extensions>
          <ns3:TrackPointExtension/>
        </extensions>
      </trkpt>
      <trkpt lat="24.50204464606940746307373046875" lon="118.092285096645355224609375">
        <ele>68.59999847412109375</ele>
        <time>2016-11-09T09:01:35.000Z</time>
        <extensions>
          <ns3:TrackPointExtension/>
        </extensions>
      </trkpt>
      <trkpt lat="24.50198362581431865692138671875" lon="118.0923613719642162322998046875">
        <ele>70.59999847412109375</ele>
        <time>2016-11-09T09:01:40.000Z</time>
        <extensions>
          <ns3:TrackPointExtension/>
        </extensions>
      </trkpt>
      <trkpt lat="24.50195311568677425384521484375" lon="118.0924606136977672576904296875">
        <ele>71.8000030517578125</ele>
        <time>2016-11-09T09:01:45.000Z</time>
        <extensions>
          <ns3:TrackPointExtension/>
        </extensions>
      </trkpt>
      <trkpt lat="24.50194926001131534576416015625" lon="118.0925826542079448699951171875">
        <ele>74</ele>
        <time>2016-11-09T09:01:50.000Z</time>
        <extensions>
          <ns3:TrackPointExtension/>
        </extensions>
      </trkpt>
      <trkpt lat="24.5019416324794292449951171875" lon="118.0927046947181224822998046875">
        <ele>77.8000030517578125</ele>
        <time>2016-11-09T09:01:55.000Z</time>
        <extensions>
          <ns3:TrackPointExtension/>
        </extensions>
      </trkpt>
      <trkpt lat="24.5019054226577281951904296875" lon="118.09281156398355960845947265625">
        <ele>79.8000030517578125</ele>
        <time>2016-11-09T09:02:00.000Z</time>
        <extensions>
          <ns3:TrackPointExtension/>
        </extensions>
      </trkpt>
      <trkpt lat="24.50190349481999874114990234375" lon="118.09294885955750942230224609375">
        <ele>80.40000152587890625</ele>
        <time>2016-11-09T09:02:05.000Z</time>
        <extensions>
          <ns3:TrackPointExtension/>
        </extensions>
      </trkpt>
      <trkpt lat="24.5018863119184970855712890625" lon="118.093063272535800933837890625">
        <ele>79.8000030517578125</ele>
        <time>2016-11-09T09:02:10.000Z</time>
        <extensions>
          <ns3:TrackPointExtension/>
        </extensions>
      </trkpt>
      <trkpt lat="24.50188254006206989288330078125" lon="118.0931930243968963623046875">
        <ele>78.8000030517578125</ele>
        <time>2016-11-09T09:02:15.000Z</time>
        <extensions>
          <ns3:TrackPointExtension/>
        </extensions>
      </trkpt>
      <trkpt lat="24.50187298469245433807373046875" lon="118.09330743737518787384033203125">
        <ele>78.59999847412109375</ele>
        <time>2016-11-09T09:02:20.000Z</time>
        <extensions>
          <ns3:TrackPointExtension/>
        </extensions>
      </trkpt>
      <trkpt lat="24.5019054226577281951904296875" lon="118.093414306640625">
        <ele>78.40000152587890625</ele>
        <time>2016-11-09T09:02:25.000Z</time>
        <extensions>
          <ns3:TrackPointExtension/>
        </extensions>
      </trkpt>
      <trkpt lat="24.50197977013885974884033203125" lon="118.093505837023258209228515625">
        <ele>78.40000152587890625</ele>
        <time>2016-11-09T09:02:30.000Z</time>
        <extensions>
          <ns3:TrackPointExtension/>
        </extensions>
      </trkpt>
      <trkpt lat="24.502078928053379058837890625" lon="118.09355922974646091461181640625">
        <ele>77.1999969482421875</ele>
        <time>2016-11-09T09:02:35.000Z</time>
        <extensions>
          <ns3:TrackPointExtension/>
        </extensions>
      </trkpt>
      <trkpt lat="24.5021724700927734375" lon="118.09362025000154972076416015625">
        <ele>75.40000152587890625</ele>
        <time>2016-11-09T09:02:40.000Z</time>
        <extensions>
          <ns3:TrackPointExtension/>
        </extensions>
      </trkpt>
      <trkpt lat="24.5022296346724033355712890625" lon="118.09374229051172733306884765625">
        <ele>76</ele>
        <time>2016-11-09T09:02:45.000Z</time>
        <extensions>
          <ns3:TrackPointExtension/>
        </extensions>
      </trkpt>
      <trkpt lat="24.50226970016956329345703125" lon="118.09384153224527835845947265625">
        <ele>77</ele>
        <time>2016-11-09T09:02:50.000Z</time>
        <extensions>
          <ns3:TrackPointExtension/>
        </extensions>
      </trkpt>
      <trkpt lat="24.5022735558450222015380859375" lon="118.09394069015979766845703125">
        <ele>79.59999847412109375</ele>
        <time>2016-11-09T09:02:55.000Z</time>
        <extensions>
          <ns3:TrackPointExtension/>
        </extensions>
      </trkpt>
      <trkpt lat="24.502288810908794403076171875" lon="118.0940474756062030792236328125">
        <ele>82.59999847412109375</ele>
        <time>2016-11-09T09:03:00.000Z</time>
        <extensions>
          <ns3:TrackPointExtension/>
        </extensions>
      </trkpt>
      <trkpt lat="24.50231353752315044403076171875" lon="118.0941467173397541046142578125">
        <ele>85</ele>
        <time>2016-11-09T09:03:05.000Z</time>
        <extensions>
          <ns3:TrackPointExtension/>
        </extensions>
      </trkpt>
      <trkpt lat="24.5023898966610431671142578125" lon="118.09424587525427341461181640625">
        <ele>85.1999969482421875</ele>
        <time>2016-11-09T09:03:10.000Z</time>
        <extensions>
          <ns3:TrackPointExtension/>
        </extensions>
      </trkpt>
      <trkpt lat="24.5024661719799041748046875" lon="118.094314523041248321533203125">
        <ele>84.1999969482421875</ele>
        <time>2016-11-09T09:03:15.000Z</time>
        <extensions>
          <ns3:TrackPointExtension/>
        </extensions>
      </trkpt>
      <trkpt lat="24.50255393050611019134521484375" lon="118.09440605342388153076171875">
        <ele>83.1999969482421875</ele>
        <time>2016-11-09T09:03:20.000Z</time>
        <extensions>
          <ns3:TrackPointExtension/>
        </extensions>
      </trkpt>
      <trkpt lat="24.5026378333568572998046875" lon="118.09445190243422985076904296875">
        <ele>81.1999969482421875</ele>
        <time>2016-11-09T09:03:25.000Z</time>
        <extensions>
          <ns3:TrackPointExtension/>
        </extensions>
      </trkpt>
      <trkpt lat="24.5026835985481739044189453125" lon="118.0945663154125213623046875">
        <ele>82.1999969482421875</ele>
        <time>2016-11-09T09:03:30.000Z</time>
        <extensions>
          <ns3:TrackPointExtension/>
        </extensions>
      </trkpt>
      <trkpt lat="24.502679742872714996337890625" lon="118.094688355922698974609375">
        <ele>83.59999847412109375</ele>
        <time>2016-11-09T09:03:35.000Z</time>
        <extensions>
          <ns3:TrackPointExtension/>
        </extensions>
      </trkpt>
      <trkpt lat="24.50267211534082889556884765625" lon="118.0948028527200222015380859375">
        <ele>84.8000030517578125</ele>
        <time>2016-11-09T09:03:40.000Z</time>
        <extensions>
          <ns3:TrackPointExtension/>
        </extensions>
      </trkpt>
      <trkpt lat="24.50269508175551891326904296875" lon="118.09490201063454151153564453125">
        <ele>85.40000152587890625</ele>
        <time>2016-11-09T09:03:45.000Z</time>
        <extensions>
          <ns3:TrackPointExtension/>
        </extensions>
      </trkpt>
      <trkpt lat="24.5026282779872417449951171875" lon="118.0950164236128330230712890625">
        <ele>90</ele>
        <time>2016-11-09T09:03:50.000Z</time>
        <extensions>
          <ns3:TrackPointExtension/>
        </extensions>
      </trkpt>
      <trkpt lat="24.50260162353515625" lon="118.09513092041015625">
        <ele>94.59999847412109375</ele>
        <time>2016-11-09T09:03:55.000Z</time>
        <extensions>
          <ns3:TrackPointExtension/>
        </extensions>
      </trkpt>
      <trkpt lat="24.50257102958858013153076171875" lon="118.09523007832467555999755859375">
        <ele>99.40000152587890625</ele>
        <time>2016-11-09T09:04:00.000Z</time>
        <extensions>
          <ns3:TrackPointExtension/>
        </extensions>
      </trkpt>
      <trkpt lat="24.5025520026683807373046875" lon="118.09533686377108097076416015625">
        <ele>101</ele>
        <time>2016-11-09T09:04:05.000Z</time>
        <extensions>
          <ns3:TrackPointExtension/>
        </extensions>
      </trkpt>
      <trkpt lat="24.50254051946103572845458984375" lon="118.09544364921748638153076171875">
        <ele>96.59999847412109375</ele>
        <time>2016-11-09T09:04:10.000Z</time>
        <extensions>
          <ns3:TrackPointExtension/>
        </extensions>
      </trkpt>
      <trkpt lat="24.5025119371712207794189453125" lon="118.095565773546695709228515625">
        <ele>96.40000152587890625</ele>
        <time>2016-11-09T09:04:15.000Z</time>
        <extensions>
          <ns3:TrackPointExtension/>
        </extensions>
      </trkpt>
      <trkpt lat="24.50251956470310688018798828125" lon="118.0956725589931011199951171875">
        <ele>99.59999847412109375</ele>
        <time>2016-11-09T09:04:20.000Z</time>
        <extensions>
          <ns3:TrackPointExtension/>
        </extensions>
      </trkpt>
      <trkpt lat="24.5025157928466796875" lon="118.09577934443950653076171875">
        <ele>104.40000152587890625</ele>
        <time>2016-11-09T09:04:25.000Z</time>
        <extensions>
          <ns3:TrackPointExtension/>
        </extensions>
      </trkpt>
      <trkpt lat="24.5025157928466796875" lon="118.09577934443950653076171875">
        <ele>104.40000152587890625</ele>
        <time>2016-11-09T09:04:30.000Z</time>
        <extensions>
          <ns3:TrackPointExtension/>
        </extensions>
      </trkpt>
    </trkseg>
  </trk>
</gpx>
