<gpx xmlns:ns3="http://www.garmin.com/xmlschemas/TrackPointExtension/v1" xmlns="http://www.topografix.com/GPX/1/1" xmlns:xsi="http://www.w3.org/2001/XMLSchema-instance" xmlns:ns2="http://www.garmin.com/xmlschemas/GpxExtensions/v3" creator="Garmin Connect" version="1.1" xsi:schemaLocation="http://www.topografix.com/GPX/1/1 http://www.topografix.com/GPX/11.xsd">
  <extensions>
<distance>8516.0</distance>
<average_hr>0.0</average_hr>
<average_speed>3.34500002861023</average_speed>
<start_time>2016-11-01T11:57:03+00:00</start_time>
<end_time>2016-11-01T12:39:29+00:00</end_time>
<moving_time>730.0</moving_time>
<elapsed_time>2546.0</elapsed_time>
</extensions>
<metadata>
    <link href="connect.garmin.com">
      <text>Garmin Connect</text>
    </link>
    <time>2016-11-01T11:57:03.000Z</time>
  </metadata>
  <trk>
    <name>厦门市 街道路跑</name>
    <type>street_running</type>
    <trkseg>
      <trkpt lat="24.49744599871337413787841796875" lon="118.144943229854106903076171875">
        <ele>0</ele>
        <time>2016-11-01T11:57:03.000Z</time>
        <extensions>
          <ns3:TrackPointExtension/>
        </extensions>
      </trkpt>
      <trkpt lat="24.49744599871337413787841796875" lon="118.145065270364284515380859375">
        <ele>0</ele>
        <time>2016-11-01T11:57:08.000Z</time>
        <extensions>
          <ns3:TrackPointExtension/>
        </extensions>
      </trkpt>
      <trkpt lat="24.49736972339451313018798828125" lon="118.145126290619373321533203125">
        <ele>0</ele>
        <time>2016-11-01T11:57:13.000Z</time>
        <extensions>
          <ns3:TrackPointExtension/>
        </extensions>
      </trkpt>
      <trkpt lat="24.4973983056843280792236328125" lon="118.14526367001235485076904296875">
        <ele>0</ele>
        <time>2016-11-01T11:57:18.000Z</time>
        <extensions>
          <ns3:TrackPointExtension/>
        </extensions>
      </trkpt>
      <trkpt lat="24.49743644334375858306884765625" lon="118.14537045545876026153564453125">
        <ele>0</ele>
        <time>2016-11-01T11:57:23.000Z</time>
        <extensions>
          <ns3:TrackPointExtension/>
        </extensions>
      </trkpt>
      <trkpt lat="24.49750517494976520538330078125" lon="118.1454543583095073699951171875">
        <ele>0</ele>
        <time>2016-11-01T11:57:28.000Z</time>
        <extensions>
          <ns3:TrackPointExtension/>
        </extensions>
      </trkpt>
      <trkpt lat="24.497579522430896759033203125" lon="118.1455153785645961761474609375">
        <ele>0</ele>
        <time>2016-11-01T11:57:33.000Z</time>
        <extensions>
          <ns3:TrackPointExtension/>
        </extensions>
      </trkpt>
      <trkpt lat="24.49765772558748722076416015625" lon="118.14556877128779888153076171875">
        <ele>0</ele>
        <time>2016-11-01T11:57:38.000Z</time>
        <extensions>
          <ns3:TrackPointExtension/>
        </extensions>
      </trkpt>
      <trkpt lat="24.4977454841136932373046875" lon="118.145599365234375">
        <ele>0</ele>
        <time>2016-11-01T11:57:43.000Z</time>
        <extensions>
          <ns3:TrackPointExtension/>
        </extensions>
      </trkpt>
      <trkpt lat="24.49782368727028369903564453125" lon="118.14565275795757770538330078125">
        <ele>0</ele>
        <time>2016-11-01T11:57:48.000Z</time>
        <extensions>
          <ns3:TrackPointExtension/>
        </extensions>
      </trkpt>
      <trkpt lat="24.49790951795876026153564453125" lon="118.14568326808512210845947265625">
        <ele>0</ele>
        <time>2016-11-01T11:57:53.000Z</time>
        <extensions>
          <ns3:TrackPointExtension/>
        </extensions>
      </trkpt>
      <trkpt lat="24.49797816574573516845703125" lon="118.14574428834021091461181640625">
        <ele>0</ele>
        <time>2016-11-01T11:57:58.000Z</time>
        <extensions>
          <ns3:TrackPointExtension/>
        </extensions>
      </trkpt>
      <trkpt lat="24.49798009358346462249755859375" lon="118.14585107378661632537841796875">
        <ele>0</ele>
        <time>2016-11-01T11:58:03.000Z</time>
        <extensions>
          <ns3:TrackPointExtension/>
        </extensions>
      </trkpt>
      <trkpt lat="24.49795142747461795806884765625" lon="118.14596557058393955230712890625">
        <ele>0</ele>
        <time>2016-11-01T11:58:08.000Z</time>
        <extensions>
          <ns3:TrackPointExtension/>
        </extensions>
      </trkpt>
      <trkpt lat="24.4979075901210308074951171875" lon="118.14605710096657276153564453125">
        <ele>0</ele>
        <time>2016-11-01T11:58:13.000Z</time>
        <extensions>
          <ns3:TrackPointExtension/>
        </extensions>
      </trkpt>
      <trkpt lat="24.49789233505725860595703125" lon="118.14616388641297817230224609375">
        <ele>0</ele>
        <time>2016-11-01T11:58:18.000Z</time>
        <extensions>
          <ns3:TrackPointExtension/>
        </extensions>
      </trkpt>
      <trkpt lat="24.497886635363101959228515625" lon="118.14627067185938358306884765625">
        <ele>0</ele>
        <time>2016-11-01T11:58:23.000Z</time>
        <extensions>
          <ns3:TrackPointExtension/>
        </extensions>
      </trkpt>
      <trkpt lat="24.497837014496326446533203125" lon="118.14635465852916240692138671875">
        <ele>0</ele>
        <time>2016-11-01T11:58:28.000Z</time>
        <extensions>
          <ns3:TrackPointExtension/>
        </extensions>
      </trkpt>
      <trkpt lat="24.49782368727028369903564453125" lon="118.1464538164436817169189453125">
        <ele>0</ele>
        <time>2016-11-01T11:58:33.000Z</time>
        <extensions>
          <ns3:TrackPointExtension/>
        </extensions>
      </trkpt>
      <trkpt lat="24.49784464202821254730224609375" lon="118.14656822942197322845458984375">
        <ele>0</ele>
        <time>2016-11-01T11:58:38.000Z</time>
        <extensions>
          <ns3:TrackPointExtension/>
        </extensions>
      </trkpt>
      <trkpt lat="24.49784271419048309326171875" lon="118.1466750986874103546142578125">
        <ele>0</ele>
        <time>2016-11-01T11:58:43.000Z</time>
        <extensions>
          <ns3:TrackPointExtension/>
        </extensions>
      </trkpt>
      <trkpt lat="24.49784849770367145538330078125" lon="118.146781884133815765380859375">
        <ele>0</ele>
        <time>2016-11-01T11:58:48.000Z</time>
        <extensions>
          <ns3:TrackPointExtension/>
        </extensions>
      </trkpt>
      <trkpt lat="24.497800804674625396728515625" lon="118.146873414516448974609375">
        <ele>0</ele>
        <time>2016-11-01T11:58:53.000Z</time>
        <extensions>
          <ns3:TrackPointExtension/>
        </extensions>
      </trkpt>
      <trkpt lat="24.49775311164557933807373046875" lon="118.14698028378188610076904296875">
        <ele>0</ele>
        <time>2016-11-01T11:58:58.000Z</time>
        <extensions>
          <ns3:TrackPointExtension/>
        </extensions>
      </trkpt>
      <trkpt lat="24.49773785658180713653564453125" lon="118.14710232429206371307373046875">
        <ele>0</ele>
        <time>2016-11-01T11:59:03.000Z</time>
        <extensions>
          <ns3:TrackPointExtension/>
        </extensions>
      </trkpt>
      <trkpt lat="24.49767683632671833038330078125" lon="118.147216737270355224609375">
        <ele>0</ele>
        <time>2016-11-01T11:59:08.000Z</time>
        <extensions>
          <ns3:TrackPointExtension/>
        </extensions>
      </trkpt>
      <trkpt lat="24.49764817021787166595458984375" lon="118.147346489131450653076171875">
        <ele>0</ele>
        <time>2016-11-01T11:59:13.000Z</time>
        <extensions>
          <ns3:TrackPointExtension/>
        </extensions>
      </trkpt>
      <trkpt lat="24.49759100563824176788330078125" lon="118.14743039198219776153564453125">
        <ele>0</ele>
        <time>2016-11-01T11:59:18.000Z</time>
        <extensions>
          <ns3:TrackPointExtension/>
        </extensions>
      </trkpt>
      <trkpt lat="24.497524201869964599609375" lon="118.147529549896717071533203125">
        <ele>0</ele>
        <time>2016-11-01T11:59:23.000Z</time>
        <extensions>
          <ns3:TrackPointExtension/>
        </extensions>
      </trkpt>
      <trkpt lat="24.497482292354106903076171875" lon="118.14762108027935028076171875">
        <ele>0</ele>
        <time>2016-11-01T11:59:28.000Z</time>
        <extensions>
          <ns3:TrackPointExtension/>
        </extensions>
      </trkpt>
      <trkpt lat="24.49750517494976520538330078125" lon="118.14774320460855960845947265625">
        <ele>0</ele>
        <time>2016-11-01T11:59:33.000Z</time>
        <extensions>
          <ns3:TrackPointExtension/>
        </extensions>
      </trkpt>
      <trkpt lat="24.4974536262452602386474609375" lon="118.14784999005496501922607421875">
        <ele>0</ele>
        <time>2016-11-01T11:59:38.000Z</time>
        <extensions>
          <ns3:TrackPointExtension/>
        </extensions>
      </trkpt>
      <trkpt lat="24.497383050620555877685546875" lon="118.147933892905712127685546875">
        <ele>0</ele>
        <time>2016-11-01T11:59:43.000Z</time>
        <extensions>
          <ns3:TrackPointExtension/>
        </extensions>
      </trkpt>
      <trkpt lat="24.49728389270603656768798828125" lon="118.14795677550137042999267578125">
        <ele>0</ele>
        <time>2016-11-01T11:59:48.000Z</time>
        <extensions>
          <ns3:TrackPointExtension/>
        </extensions>
      </trkpt>
      <trkpt lat="24.49716755189001560211181640625" lon="118.1479491479694843292236328125">
        <ele>0</ele>
        <time>2016-11-01T11:59:53.000Z</time>
        <extensions>
          <ns3:TrackPointExtension/>
        </extensions>
      </trkpt>
      <trkpt lat="24.49716755189001560211181640625" lon="118.1479491479694843292236328125">
        <ele>0</ele>
        <time>2016-11-01T11:59:58.000Z</time>
        <extensions>
          <ns3:TrackPointExtension/>
        </extensions>
      </trkpt>
      <trkpt lat="24.4970740936696529388427734375" lon="118.147994913160800933837890625">
        <ele>0</ele>
        <time>2016-11-01T12:00:03.000Z</time>
        <extensions>
          <ns3:TrackPointExtension/>
        </extensions>
      </trkpt>
      <trkpt lat="24.49698440730571746826171875" lon="118.14796440303325653076171875">
        <ele>0</ele>
        <time>2016-11-01T12:00:08.000Z</time>
        <extensions>
          <ns3:TrackPointExtension/>
        </extensions>
      </trkpt>
      <trkpt lat="24.49698440730571746826171875" lon="118.14796440303325653076171875">
        <ele>0</ele>
        <time>2016-11-01T12:00:13.000Z</time>
        <extensions>
          <ns3:TrackPointExtension/>
        </extensions>
      </trkpt>
      <trkpt lat="24.4968833215534687042236328125" lon="118.14797203056514263153076171875">
        <ele>0</ele>
        <time>2016-11-01T12:00:18.000Z</time>
        <extensions>
          <ns3:TrackPointExtension/>
        </extensions>
      </trkpt>
      <trkpt lat="24.49677460826933383941650390625" lon="118.1479796580970287322998046875">
        <ele>0</ele>
        <time>2016-11-01T12:00:23.000Z</time>
        <extensions>
          <ns3:TrackPointExtension/>
        </extensions>
      </trkpt>
      <trkpt lat="24.49667352251708507537841796875" lon="118.14797203056514263153076171875">
        <ele>0</ele>
        <time>2016-11-01T12:00:28.000Z</time>
        <extensions>
          <ns3:TrackPointExtension/>
        </extensions>
      </trkpt>
      <trkpt lat="24.4965591095387935638427734375" lon="118.1479796580970287322998046875">
        <ele>0</ele>
        <time>2016-11-01T12:00:33.000Z</time>
        <extensions>
          <ns3:TrackPointExtension/>
        </extensions>
      </trkpt>
      <trkpt lat="24.49646942317485809326171875" lon="118.14791101031005382537841796875">
        <ele>0</ele>
        <time>2016-11-01T12:00:38.000Z</time>
        <extensions>
          <ns3:TrackPointExtension/>
        </extensions>
      </trkpt>
      <trkpt lat="24.4963512383401393890380859375" lon="118.147872872650623321533203125">
        <ele>0</ele>
        <time>2016-11-01T12:00:43.000Z</time>
        <extensions>
          <ns3:TrackPointExtension/>
        </extensions>
      </trkpt>
      <trkpt lat="24.496250152587890625" lon="118.14784999005496501922607421875">
        <ele>0</ele>
        <time>2016-11-01T12:00:48.000Z</time>
        <extensions>
          <ns3:TrackPointExtension/>
        </extensions>
      </trkpt>
      <trkpt lat="24.4961547665297985076904296875" lon="118.14784236252307891845703125">
        <ele>0</ele>
        <time>2016-11-01T12:00:53.000Z</time>
        <extensions>
          <ns3:TrackPointExtension/>
        </extensions>
      </trkpt>
      <trkpt lat="24.49605745263397693634033203125" lon="118.1478271074593067169189453125">
        <ele>0</ele>
        <time>2016-11-01T12:00:58.000Z</time>
        <extensions>
          <ns3:TrackPointExtension/>
        </extensions>
      </trkpt>
      <trkpt lat="24.49594111181795597076416015625" lon="118.14777371473610401153564453125">
        <ele>0</ele>
        <time>2016-11-01T12:01:03.000Z</time>
        <extensions>
          <ns3:TrackPointExtension/>
        </extensions>
      </trkpt>
      <trkpt lat="24.495838098227977752685546875" lon="118.14777371473610401153564453125">
        <ele>0</ele>
        <time>2016-11-01T12:01:08.000Z</time>
        <extensions>
          <ns3:TrackPointExtension/>
        </extensions>
      </trkpt>
      <trkpt lat="24.495727457106113433837890625" lon="118.1477813422679901123046875">
        <ele>0</ele>
        <time>2016-11-01T12:01:13.000Z</time>
        <extensions>
          <ns3:TrackPointExtension/>
        </extensions>
      </trkpt>
      <trkpt lat="24.49563785456120967864990234375" lon="118.14774320460855960845947265625">
        <ele>0</ele>
        <time>2016-11-01T12:01:18.000Z</time>
        <extensions>
          <ns3:TrackPointExtension/>
        </extensions>
      </trkpt>
      <trkpt lat="24.49554246850311756134033203125" lon="118.147689811885356903076171875">
        <ele>0</ele>
        <time>2016-11-01T12:01:23.000Z</time>
        <extensions>
          <ns3:TrackPointExtension/>
        </extensions>
      </trkpt>
      <trkpt lat="24.49543182738125324249267578125" lon="118.147651590406894683837890625">
        <ele>0</ele>
        <time>2016-11-01T12:01:28.000Z</time>
        <extensions>
          <ns3:TrackPointExtension/>
        </extensions>
      </trkpt>
      <trkpt lat="24.495336525142192840576171875" lon="118.14762870781123638153076171875">
        <ele>0</ele>
        <time>2016-11-01T12:01:33.000Z</time>
        <extensions>
          <ns3:TrackPointExtension/>
        </extensions>
      </trkpt>
      <trkpt lat="24.4952563941478729248046875" lon="118.14758294261991977691650390625">
        <ele>0</ele>
        <time>2016-11-01T12:01:38.000Z</time>
        <extensions>
          <ns3:TrackPointExtension/>
        </extensions>
      </trkpt>
      <trkpt lat="24.4951705634593963623046875" lon="118.14750666730105876922607421875">
        <ele>0</ele>
        <time>2016-11-01T12:01:43.000Z</time>
        <extensions>
          <ns3:TrackPointExtension/>
        </extensions>
      </trkpt>
      <trkpt lat="24.49505992233753204345703125" lon="118.147468529641628265380859375">
        <ele>0</ele>
        <time>2016-11-01T12:01:48.000Z</time>
        <extensions>
          <ns3:TrackPointExtension/>
        </extensions>
      </trkpt>
      <trkpt lat="24.4949779473245143890380859375" lon="118.14743039198219776153564453125">
        <ele>0</ele>
        <time>2016-11-01T12:01:53.000Z</time>
        <extensions>
          <ns3:TrackPointExtension/>
        </extensions>
      </trkpt>
      <trkpt lat="24.49486537836492061614990234375" lon="118.1473922543227672576904296875">
        <ele>0</ele>
        <time>2016-11-01T12:01:58.000Z</time>
        <extensions>
          <ns3:TrackPointExtension/>
        </extensions>
      </trkpt>
      <trkpt lat="24.49477384798228740692138671875" lon="118.1473922543227672576904296875">
        <ele>0</ele>
        <time>2016-11-01T12:02:03.000Z</time>
        <extensions>
          <ns3:TrackPointExtension/>
        </extensions>
      </trkpt>
      <trkpt lat="24.49468038976192474365234375" lon="118.14735411666333675384521484375">
        <ele>0</ele>
        <time>2016-11-01T12:02:08.000Z</time>
        <extensions>
          <ns3:TrackPointExtension/>
        </extensions>
      </trkpt>
      <trkpt lat="24.49458307586610317230224609375" lon="118.14735411666333675384521484375">
        <ele>0</ele>
        <time>2016-11-01T12:02:13.000Z</time>
        <extensions>
          <ns3:TrackPointExtension/>
        </extensions>
      </trkpt>
      <trkpt lat="24.49450294487178325653076171875" lon="118.14730064012110233306884765625">
        <ele>0</ele>
        <time>2016-11-01T12:02:18.000Z</time>
        <extensions>
          <ns3:TrackPointExtension/>
        </extensions>
      </trkpt>
      <trkpt lat="24.4944076426327228546142578125" lon="118.14728538505733013153076171875">
        <ele>0</ele>
        <time>2016-11-01T12:02:23.000Z</time>
        <extensions>
          <ns3:TrackPointExtension/>
        </extensions>
      </trkpt>
      <trkpt lat="24.494317956268787384033203125" lon="118.14727775752544403076171875">
        <ele>0</ele>
        <time>2016-11-01T12:02:28.000Z</time>
        <extensions>
          <ns3:TrackPointExtension/>
        </extensions>
      </trkpt>
      <trkpt lat="24.49419784359633922576904296875" lon="118.14731597900390625">
        <ele>0</ele>
        <time>2016-11-01T12:02:33.000Z</time>
        <extensions>
          <ns3:TrackPointExtension/>
        </extensions>
      </trkpt>
      <trkpt lat="24.49410815723240375518798828125" lon="118.1472625024616718292236328125">
        <ele>0</ele>
        <time>2016-11-01T12:02:38.000Z</time>
        <extensions>
          <ns3:TrackPointExtension/>
        </extensions>
      </trkpt>
      <trkpt lat="24.494010843336582183837890625" lon="118.1472930125892162322998046875">
        <ele>0</ele>
        <time>2016-11-01T12:02:43.000Z</time>
        <extensions>
          <ns3:TrackPointExtension/>
        </extensions>
      </trkpt>
      <trkpt lat="24.493949823081493377685546875" lon="118.147216737270355224609375">
        <ele>0</ele>
        <time>2016-11-01T12:02:48.000Z</time>
        <extensions>
          <ns3:TrackPointExtension/>
        </extensions>
      </trkpt>
      <trkpt lat="24.49388117529451847076416015625" lon="118.14714808948338031768798828125">
        <ele>0</ele>
        <time>2016-11-01T12:02:53.000Z</time>
        <extensions>
          <ns3:TrackPointExtension/>
        </extensions>
      </trkpt>
      <trkpt lat="24.49378964491188526153564453125" lon="118.1471099518239498138427734375">
        <ele>0</ele>
        <time>2016-11-01T12:02:58.000Z</time>
        <extensions>
          <ns3:TrackPointExtension/>
        </extensions>
      </trkpt>
      <trkpt lat="24.4936961866915225982666015625" lon="118.14711757935583591461181640625">
        <ele>0</ele>
        <time>2016-11-01T12:03:03.000Z</time>
        <extensions>
          <ns3:TrackPointExtension/>
        </extensions>
      </trkpt>
      <trkpt lat="24.49362368322908878326416015625" lon="118.14705655910074710845947265625">
        <ele>0</ele>
        <time>2016-11-01T12:03:08.000Z</time>
        <extensions>
          <ns3:TrackPointExtension/>
        </extensions>
      </trkpt>
      <trkpt lat="24.49352645315229892730712890625" lon="118.14705655910074710845947265625">
        <ele>0</ele>
        <time>2016-11-01T12:03:13.000Z</time>
        <extensions>
          <ns3:TrackPointExtension/>
        </extensions>
      </trkpt>
      <trkpt lat="24.49342151172459125518798828125" lon="118.14704130403697490692138671875">
        <ele>0</ele>
        <time>2016-11-01T12:03:18.000Z</time>
        <extensions>
          <ns3:TrackPointExtension/>
        </extensions>
      </trkpt>
      <trkpt lat="24.49331087060272693634033203125" lon="118.1470794416964054107666015625">
        <ele>0</ele>
        <time>2016-11-01T12:03:23.000Z</time>
        <extensions>
          <ns3:TrackPointExtension/>
        </extensions>
      </trkpt>
      <trkpt lat="24.4931620918214321136474609375" lon="118.1471404619514942169189453125">
        <ele>0</ele>
        <time>2016-11-01T12:03:28.000Z</time>
        <extensions>
          <ns3:TrackPointExtension/>
        </extensions>
      </trkpt>
      <trkpt lat="24.493165947496891021728515625" lon="118.147003166377544403076171875">
        <ele>0</ele>
        <time>2016-11-01T12:03:33.000Z</time>
        <extensions>
          <ns3:TrackPointExtension/>
        </extensions>
      </trkpt>
      <trkpt lat="24.49310869909822940826416015625" lon="118.14688104204833507537841796875">
        <ele>0</ele>
        <time>2016-11-01T12:03:38.000Z</time>
        <extensions>
          <ns3:TrackPointExtension/>
        </extensions>
      </trkpt>
      <trkpt lat="24.493005685508251190185546875" lon="118.14680476672947406768798828125">
        <ele>0</ele>
        <time>2016-11-01T12:03:43.000Z</time>
        <extensions>
          <ns3:TrackPointExtension/>
        </extensions>
      </trkpt>
      <trkpt lat="24.4928932003676891326904296875" lon="118.1467666290700435638427734375">
        <ele>0</ele>
        <time>2016-11-01T12:03:48.000Z</time>
        <extensions>
          <ns3:TrackPointExtension/>
        </extensions>
      </trkpt>
      <trkpt lat="24.49275967665016651153564453125" lon="118.1467361189424991607666015625">
        <ele>0</ele>
        <time>2016-11-01T12:03:53.000Z</time>
        <extensions>
          <ns3:TrackPointExtension/>
        </extensions>
      </trkpt>
      <trkpt lat="24.4926357083022594451904296875" lon="118.14669035375118255615234375">
        <ele>0</ele>
        <time>2016-11-01T12:03:58.000Z</time>
        <extensions>
          <ns3:TrackPointExtension/>
        </extensions>
      </trkpt>
      <trkpt lat="24.49254225008189678192138671875" lon="118.14669798128306865692138671875">
        <ele>0</ele>
        <time>2016-11-01T12:04:03.000Z</time>
        <extensions>
          <ns3:TrackPointExtension/>
        </extensions>
      </trkpt>
      <trkpt lat="24.4924449361860752105712890625" lon="118.1466445885598659515380859375">
        <ele>0</ele>
        <time>2016-11-01T12:04:08.000Z</time>
        <extensions>
          <ns3:TrackPointExtension/>
        </extensions>
      </trkpt>
      <trkpt lat="24.49234007857739925384521484375" lon="118.14659873954951763153076171875">
        <ele>0</ele>
        <time>2016-11-01T12:04:13.000Z</time>
        <extensions>
          <ns3:TrackPointExtension/>
        </extensions>
      </trkpt>
      <trkpt lat="24.49223513714969158172607421875" lon="118.14656822942197322845458984375">
        <ele>0</ele>
        <time>2016-11-01T12:04:18.000Z</time>
        <extensions>
          <ns3:TrackPointExtension/>
        </extensions>
      </trkpt>
      <trkpt lat="24.49214167892932891845703125" lon="118.146560601890087127685546875">
        <ele>0</ele>
        <time>2016-11-01T12:04:23.000Z</time>
        <extensions>
          <ns3:TrackPointExtension/>
        </extensions>
      </trkpt>
      <trkpt lat="24.49204822070896625518798828125" lon="118.146530091762542724609375">
        <ele>0</ele>
        <time>2016-11-01T12:04:28.000Z</time>
        <extensions>
          <ns3:TrackPointExtension/>
        </extensions>
      </trkpt>
      <trkpt lat="24.49195669032633304595947265625" lon="118.14647669903934001922607421875">
        <ele>0</ele>
        <time>2016-11-01T12:04:33.000Z</time>
        <extensions>
          <ns3:TrackPointExtension/>
        </extensions>
      </trkpt>
      <trkpt lat="24.49186700396239757537841796875" lon="118.1464538164436817169189453125">
        <ele>0</ele>
        <time>2016-11-01T12:04:38.000Z</time>
        <extensions>
          <ns3:TrackPointExtension/>
        </extensions>
      </trkpt>
      <trkpt lat="24.49176977388560771942138671875" lon="118.146438561379909515380859375">
        <ele>0</ele>
        <time>2016-11-01T12:04:43.000Z</time>
        <extensions>
          <ns3:TrackPointExtension/>
        </extensions>
      </trkpt>
      <trkpt lat="24.49166483245790004730224609375" lon="118.1464080512523651123046875">
        <ele>0</ele>
        <time>2016-11-01T12:04:48.000Z</time>
        <extensions>
          <ns3:TrackPointExtension/>
        </extensions>
      </trkpt>
      <trkpt lat="24.49157707393169403076171875" lon="118.14636991359293460845947265625">
        <ele>0</ele>
        <time>2016-11-01T12:04:53.000Z</time>
        <extensions>
          <ns3:TrackPointExtension/>
        </extensions>
      </trkpt>
      <trkpt lat="24.49148361571133136749267578125" lon="118.14635465852916240692138671875">
        <ele>0</ele>
        <time>2016-11-01T12:04:58.000Z</time>
        <extensions>
          <ns3:TrackPointExtension/>
        </extensions>
      </trkpt>
      <trkpt lat="24.4914340786635875701904296875" lon="118.14625541679561138153076171875">
        <ele>0</ele>
        <time>2016-11-01T12:05:03.000Z</time>
        <extensions>
          <ns3:TrackPointExtension/>
        </extensions>
      </trkpt>
      <trkpt lat="24.49148747138679027557373046875" lon="118.1461410038173198699951171875">
        <ele>0</ele>
        <time>2016-11-01T12:05:08.000Z</time>
        <extensions>
          <ns3:TrackPointExtension/>
        </extensions>
      </trkpt>
      <trkpt lat="24.491485543549060821533203125" lon="118.146034218370914459228515625">
        <ele>0</ele>
        <time>2016-11-01T12:05:13.000Z</time>
        <extensions>
          <ns3:TrackPointExtension/>
        </extensions>
      </trkpt>
      <trkpt lat="24.49152368120849132537841796875" lon="118.14590446650981903076171875">
        <ele>0</ele>
        <time>2016-11-01T12:05:18.000Z</time>
        <extensions>
          <ns3:TrackPointExtension/>
        </extensions>
      </trkpt>
      <trkpt lat="24.4915752299129962921142578125" lon="118.14579005353152751922607421875">
        <ele>0</ele>
        <time>2016-11-01T12:05:23.000Z</time>
        <extensions>
          <ns3:TrackPointExtension/>
        </extensions>
      </trkpt>
      <trkpt lat="24.4916171394288539886474609375" lon="118.14569852314889430999755859375">
        <ele>0</ele>
        <time>2016-11-01T12:05:28.000Z</time>
        <extensions>
          <ns3:TrackPointExtension/>
        </extensions>
      </trkpt>
      <trkpt lat="24.49163432233035564422607421875" lon="118.145599365234375">
        <ele>0</ele>
        <time>2016-11-01T12:05:33.000Z</time>
        <extensions>
          <ns3:TrackPointExtension/>
        </extensions>
      </trkpt>
      <trkpt lat="24.4916667602956295013427734375" lon="118.145500123500823974609375">
        <ele>0</ele>
        <time>2016-11-01T12:05:38.000Z</time>
        <extensions>
          <ns3:TrackPointExtension/>
        </extensions>
      </trkpt>
      <trkpt lat="24.49168008752167224884033203125" lon="118.1453933380544185638427734375">
        <ele>0</ele>
        <time>2016-11-01T12:05:43.000Z</time>
        <extensions>
          <ns3:TrackPointExtension/>
        </extensions>
      </trkpt>
      <trkpt lat="24.49172400869429111480712890625" lon="118.1452712975442409515380859375">
        <ele>0</ele>
        <time>2016-11-01T12:05:48.000Z</time>
        <extensions>
          <ns3:TrackPointExtension/>
        </extensions>
      </trkpt>
      <trkpt lat="24.491693414747714996337890625" lon="118.1451720558106899261474609375">
        <ele>0</ele>
        <time>2016-11-01T12:05:53.000Z</time>
        <extensions>
          <ns3:TrackPointExtension/>
        </extensions>
      </trkpt>
      <trkpt lat="24.49171445332467555999755859375" lon="118.14505764283239841461181640625">
        <ele>0</ele>
        <time>2016-11-01T12:05:58.000Z</time>
        <extensions>
          <ns3:TrackPointExtension/>
        </extensions>
      </trkpt>
      <trkpt lat="24.49175451882183551788330078125" lon="118.14496611244976520538330078125">
        <ele>0</ele>
        <time>2016-11-01T12:06:03.000Z</time>
        <extensions>
          <ns3:TrackPointExtension/>
        </extensions>
      </trkpt>
      <trkpt lat="24.491779245436191558837890625" lon="118.14485161565244197845458984375">
        <ele>0</ele>
        <time>2016-11-01T12:06:08.000Z</time>
        <extensions>
          <ns3:TrackPointExtension/>
        </extensions>
      </trkpt>
      <trkpt lat="24.49184219352900981903076171875" lon="118.14475245773792266845703125">
        <ele>0</ele>
        <time>2016-11-01T12:06:13.000Z</time>
        <extensions>
          <ns3:TrackPointExtension/>
        </extensions>
      </trkpt>
      <trkpt lat="24.4918937422335147857666015625" lon="118.144660927355289459228515625">
        <ele>0</ele>
        <time>2016-11-01T12:06:18.000Z</time>
        <extensions>
          <ns3:TrackPointExtension/>
        </extensions>
      </trkpt>
      <trkpt lat="24.49194327928125858306884765625" lon="118.14456939697265625">
        <ele>0</ele>
        <time>2016-11-01T12:06:23.000Z</time>
        <extensions>
          <ns3:TrackPointExtension/>
        </extensions>
      </trkpt>
      <trkpt lat="24.49194327928125858306884765625" lon="118.14456939697265625">
        <ele>0</ele>
        <time>2016-11-01T12:06:28.000Z</time>
        <extensions>
          <ns3:TrackPointExtension/>
        </extensions>
      </trkpt>
      <trkpt lat="24.491945207118988037109375" lon="118.1444549001753330230712890625">
        <ele>0</ele>
        <time>2016-11-01T12:06:33.000Z</time>
        <extensions>
          <ns3:TrackPointExtension/>
        </extensions>
      </trkpt>
      <trkpt lat="24.49198150075972080230712890625" lon="118.1443328596651554107666015625">
        <ele>0</ele>
        <time>2016-11-01T12:06:38.000Z</time>
        <extensions>
          <ns3:TrackPointExtension/>
        </extensions>
      </trkpt>
      <trkpt lat="24.49198150075972080230712890625" lon="118.1443328596651554107666015625">
        <ele>0</ele>
        <time>2016-11-01T12:06:43.000Z</time>
        <extensions>
          <ns3:TrackPointExtension/>
        </extensions>
      </trkpt>
      <trkpt lat="24.4920405931770801544189453125" lon="118.144256584346294403076171875">
        <ele>0</ele>
        <time>2016-11-01T12:06:48.000Z</time>
        <extensions>
          <ns3:TrackPointExtension/>
        </extensions>
      </trkpt>
      <trkpt lat="24.4920405931770801544189453125" lon="118.144256584346294403076171875">
        <ele>0</ele>
        <time>2016-11-01T12:06:53.000Z</time>
        <extensions>
          <ns3:TrackPointExtension/>
        </extensions>
      </trkpt>
      <trkpt lat="24.492036737501621246337890625" lon="118.1432723812758922576904296875">
        <ele>0</ele>
        <time>2016-11-01T12:06:58.000Z</time>
        <extensions>
          <ns3:TrackPointExtension/>
        </extensions>
      </trkpt>
      <trkpt lat="24.49213405139744281768798828125" lon="118.1432418711483478546142578125">
        <ele>0</ele>
        <time>2016-11-01T12:07:03.000Z</time>
        <extensions>
          <ns3:TrackPointExtension/>
        </extensions>
      </trkpt>
      <trkpt lat="24.49215886183083057403564453125" lon="118.1431426294147968292236328125">
        <ele>0</ele>
        <time>2016-11-01T12:07:08.000Z</time>
        <extensions>
          <ns3:TrackPointExtension/>
        </extensions>
      </trkpt>
      <trkpt lat="24.49215886183083057403564453125" lon="118.14301296137273311614990234375">
        <ele>0</ele>
        <time>2016-11-01T12:07:13.000Z</time>
        <extensions>
          <ns3:TrackPointExtension/>
        </extensions>
      </trkpt>
      <trkpt lat="24.4922161102294921875" lon="118.142852783203125">
        <ele>0</ele>
        <time>2016-11-01T12:07:18.000Z</time>
        <extensions>
          <ns3:TrackPointExtension/>
        </extensions>
      </trkpt>
      <trkpt lat="24.49230571277439594268798828125" lon="118.14280693419277667999267578125">
        <ele>0</ele>
        <time>2016-11-01T12:07:23.000Z</time>
        <extensions>
          <ns3:TrackPointExtension/>
        </extensions>
      </trkpt>
      <trkpt lat="24.49231141246855258941650390625" lon="118.14269252121448516845703125">
        <ele>0</ele>
        <time>2016-11-01T12:07:28.000Z</time>
        <extensions>
          <ns3:TrackPointExtension/>
        </extensions>
      </trkpt>
      <trkpt lat="24.49236673302948474884033203125" lon="118.142600990831851959228515625">
        <ele>0</ele>
        <time>2016-11-01T12:07:33.000Z</time>
        <extensions>
          <ns3:TrackPointExtension/>
        </extensions>
      </trkpt>
      <trkpt lat="24.49249262921512126922607421875" lon="118.1425247155129909515380859375">
        <ele>0</ele>
        <time>2016-11-01T12:07:38.000Z</time>
        <extensions>
          <ns3:TrackPointExtension/>
        </extensions>
      </trkpt>
      <trkpt lat="24.49256890453398227691650390625" lon="118.14243310131132602691650390625">
        <ele>0</ele>
        <time>2016-11-01T12:07:43.000Z</time>
        <extensions>
          <ns3:TrackPointExtension/>
        </extensions>
      </trkpt>
      <trkpt lat="24.492650963366031646728515625" lon="118.14235682599246501922607421875">
        <ele>0</ele>
        <time>2016-11-01T12:07:48.000Z</time>
        <extensions>
          <ns3:TrackPointExtension/>
        </extensions>
      </trkpt>
      <trkpt lat="24.492626152932643890380859375" lon="118.14222715795040130615234375">
        <ele>0</ele>
        <time>2016-11-01T12:07:53.000Z</time>
        <extensions>
          <ns3:TrackPointExtension/>
        </extensions>
      </trkpt>
      <trkpt lat="24.49263378046452999114990234375" lon="118.14212028868496417999267578125">
        <ele>0</ele>
        <time>2016-11-01T12:07:58.000Z</time>
        <extensions>
          <ns3:TrackPointExtension/>
        </extensions>
      </trkpt>
      <trkpt lat="24.49263378046452999114990234375" lon="118.14212028868496417999267578125">
        <ele>0</ele>
        <time>2016-11-01T12:08:03.000Z</time>
        <extensions>
          <ns3:TrackPointExtension/>
        </extensions>
      </trkpt>
      <trkpt lat="24.49263378046452999114990234375" lon="118.14212028868496417999267578125">
        <ele>0</ele>
        <time>2016-11-01T12:08:08.000Z</time>
        <extensions>
          <ns3:TrackPointExtension/>
        </extensions>
      </trkpt>
      <trkpt lat="24.49260897003114223480224609375" lon="118.14198299311101436614990234375">
        <ele>0</ele>
        <time>2016-11-01T12:08:13.000Z</time>
        <extensions>
          <ns3:TrackPointExtension/>
        </extensions>
      </trkpt>
      <trkpt lat="24.49256890453398227691650390625" lon="118.1418685801327228546142578125">
        <ele>0</ele>
        <time>2016-11-01T12:08:18.000Z</time>
        <extensions>
          <ns3:TrackPointExtension/>
        </extensions>
      </trkpt>
      <trkpt lat="24.49256890453398227691650390625" lon="118.1418685801327228546142578125">
        <ele>0</ele>
        <time>2016-11-01T12:08:23.000Z</time>
        <extensions>
          <ns3:TrackPointExtension/>
        </extensions>
      </trkpt>
      <trkpt lat="24.49260327033698558807373046875" lon="118.14177696593105792999267578125">
        <ele>0</ele>
        <time>2016-11-01T12:08:28.000Z</time>
        <extensions>
          <ns3:TrackPointExtension/>
        </extensions>
      </trkpt>
      <trkpt lat="24.4926605187356472015380859375" lon="118.1416778080165386199951171875">
        <ele>0</ele>
        <time>2016-11-01T12:08:33.000Z</time>
        <extensions>
          <ns3:TrackPointExtension/>
        </extensions>
      </trkpt>
      <trkpt lat="24.49259757064282894134521484375" lon="118.1415557675063610076904296875">
        <ele>0</ele>
        <time>2016-11-01T12:08:38.000Z</time>
        <extensions>
          <ns3:TrackPointExtension/>
        </extensions>
      </trkpt>
      <trkpt lat="24.49259757064282894134521484375" lon="118.1415557675063610076904296875">
        <ele>0</ele>
        <time>2016-11-01T12:08:43.000Z</time>
        <extensions>
          <ns3:TrackPointExtension/>
        </extensions>
      </trkpt>
      <trkpt lat="24.492288529872894287109375" lon="118.1411514244973659515380859375">
        <ele>0</ele>
        <time>2016-11-01T12:08:48.000Z</time>
        <extensions>
          <ns3:TrackPointExtension/>
        </extensions>
      </trkpt>
      <trkpt lat="24.492288529872894287109375" lon="118.1411514244973659515380859375">
        <ele>0</ele>
        <time>2016-11-01T12:08:53.000Z</time>
        <extensions>
          <ns3:TrackPointExtension/>
        </extensions>
      </trkpt>
      <trkpt lat="24.49219892732799053192138671875" lon="118.14117430709302425384521484375">
        <ele>0</ele>
        <time>2016-11-01T12:08:58.000Z</time>
        <extensions>
          <ns3:TrackPointExtension/>
        </extensions>
      </trkpt>
      <trkpt lat="24.49219892732799053192138671875" lon="118.14117430709302425384521484375">
        <ele>0</ele>
        <time>2016-11-01T12:09:03.000Z</time>
        <extensions>
          <ns3:TrackPointExtension/>
        </extensions>
      </trkpt>
      <trkpt lat="24.49219892732799053192138671875" lon="118.14117430709302425384521484375">
        <ele>0</ele>
        <time>2016-11-01T12:09:08.000Z</time>
        <extensions>
          <ns3:TrackPointExtension/>
        </extensions>
      </trkpt>
      <trkpt lat="24.492116868495941162109375" lon="118.14109794795513153076171875">
        <ele>0</ele>
        <time>2016-11-01T12:09:13.000Z</time>
        <extensions>
          <ns3:TrackPointExtension/>
        </extensions>
      </trkpt>
      <trkpt lat="24.49200622737407684326171875" lon="118.14105981029570102691650390625">
        <ele>0</ele>
        <time>2016-11-01T12:09:18.000Z</time>
        <extensions>
          <ns3:TrackPointExtension/>
        </extensions>
      </trkpt>
      <trkpt lat="24.4919089972972869873046875" lon="118.1410216726362705230712890625">
        <ele>0</ele>
        <time>2016-11-01T12:09:23.000Z</time>
        <extensions>
          <ns3:TrackPointExtension/>
        </extensions>
      </trkpt>
      <trkpt lat="24.49180028401315212249755859375" lon="118.1409911625087261199951171875">
        <ele>0</ele>
        <time>2016-11-01T12:09:28.000Z</time>
        <extensions>
          <ns3:TrackPointExtension/>
        </extensions>
      </trkpt>
      <trkpt lat="24.491693414747714996337890625" lon="118.14096827991306781768798828125">
        <ele>0</ele>
        <time>2016-11-01T12:09:33.000Z</time>
        <extensions>
          <ns3:TrackPointExtension/>
        </extensions>
      </trkpt>
      <trkpt lat="24.49159995652735233306884765625" lon="118.14093776978552341461181640625">
        <ele>0</ele>
        <time>2016-11-01T12:09:38.000Z</time>
        <extensions>
          <ns3:TrackPointExtension/>
        </extensions>
      </trkpt>
      <trkpt lat="24.491510353982448577880859375" lon="118.1409148871898651123046875">
        <ele>0</ele>
        <time>2016-11-01T12:09:43.000Z</time>
        <extensions>
          <ns3:TrackPointExtension/>
        </extensions>
      </trkpt>
      <trkpt lat="24.49141882359981536865234375" lon="118.14090725965797901153564453125">
        <ele>0</ele>
        <time>2016-11-01T12:09:48.000Z</time>
        <extensions>
          <ns3:TrackPointExtension/>
        </extensions>
      </trkpt>
      <trkpt lat="24.4913234375417232513427734375" lon="118.1408996321260929107666015625">
        <ele>0</ele>
        <time>2016-11-01T12:09:53.000Z</time>
        <extensions>
          <ns3:TrackPointExtension/>
        </extensions>
      </trkpt>
      <trkpt lat="24.49122042395174503326416015625" lon="118.1408386118710041046142578125">
        <ele>0</ele>
        <time>2016-11-01T12:09:58.000Z</time>
        <extensions>
          <ns3:TrackPointExtension/>
        </extensions>
      </trkpt>
      <trkpt lat="24.49112889356911182403564453125" lon="118.1408386118710041046142578125">
        <ele>0</ele>
        <time>2016-11-01T12:10:03.000Z</time>
        <extensions>
          <ns3:TrackPointExtension/>
        </extensions>
      </trkpt>
      <trkpt lat="24.49102210812270641326904296875" lon="118.14083098433911800384521484375">
        <ele>0</ele>
        <time>2016-11-01T12:10:08.000Z</time>
        <extensions>
          <ns3:TrackPointExtension/>
        </extensions>
      </trkpt>
      <trkpt lat="24.490920938551425933837890625" lon="118.14081572927534580230712890625">
        <ele>0</ele>
        <time>2016-11-01T12:10:13.000Z</time>
        <extensions>
          <ns3:TrackPointExtension/>
        </extensions>
      </trkpt>
      <trkpt lat="24.490920938551425933837890625" lon="118.14081572927534580230712890625">
        <ele>0</ele>
        <time>2016-11-01T12:10:18.000Z</time>
        <extensions>
          <ns3:TrackPointExtension/>
        </extensions>
      </trkpt>
    </trkseg>
  </trk>
</gpx>
