<gpx xmlns:ns3="http://www.garmin.com/xmlschemas/TrackPointExtension/v1" xmlns="http://www.topografix.com/GPX/1/1" xmlns:xsi="http://www.w3.org/2001/XMLSchema-instance" xmlns:ns2="http://www.garmin.com/xmlschemas/GpxExtensions/v3" creator="Garmin Connect" version="1.1" xsi:schemaLocation="http://www.topografix.com/GPX/1/1 http://www.topografix.com/GPX/11.xsd">
  <extensions>
<distance>502.0</distance>
<average_hr>0.0</average_hr>
<average_speed>2.1640000343322754</average_speed>
<start_time>2016-12-04T09:20:26+00:00</start_time>
<end_time>2016-12-04T09:24:18+00:00</end_time>
<moving_time>220.0</moving_time>
<elapsed_time>232.0</elapsed_time>
</extensions>
<metadata>
    <link href="connect.garmin.com">
      <text>Garmin Connect</text>
    </link>
    <time>2016-12-04T09:20:26.000Z</time>
  </metadata>
  <trk>
    <name>厦门市 街道路跑</name>
    <type>street_running</type>
    <trkseg>
      <trkpt lat="24.4931201823055744171142578125" lon="118.194686807692050933837890625">
        <ele>0</ele>
        <time>2016-12-04T09:20:26.000Z</time>
        <extensions>
          <ns3:TrackPointExtension/>
        </extensions>
      </trkpt>
      <trkpt lat="24.4931201823055744171142578125" lon="118.19469451904296875">
        <ele>0</ele>
        <time>2016-12-04T09:20:31.000Z</time>
        <extensions>
          <ns3:TrackPointExtension/>
        </extensions>
      </trkpt>
      <trkpt lat="24.493116326630115509033203125" lon="118.19470214657485485076904296875">
        <ele>0</ele>
        <time>2016-12-04T09:20:36.000Z</time>
        <extensions>
          <ns3:TrackPointExtension/>
        </extensions>
      </trkpt>
      <trkpt lat="24.4931067712604999542236328125" lon="118.19471740163862705230712890625">
        <ele>0</ele>
        <time>2016-12-04T09:20:41.000Z</time>
        <extensions>
          <ns3:TrackPointExtension/>
        </extensions>
      </trkpt>
      <trkpt lat="24.49309344403445720672607421875" lon="118.194725029170513153076171875">
        <ele>0</ele>
        <time>2016-12-04T09:20:46.000Z</time>
        <extensions>
          <ns3:TrackPointExtension/>
        </extensions>
      </trkpt>
      <trkpt lat="24.49307818897068500518798828125" lon="118.19473265670239925384521484375">
        <ele>0</ele>
        <time>2016-12-04T09:20:51.000Z</time>
        <extensions>
          <ns3:TrackPointExtension/>
        </extensions>
      </trkpt>
      <trkpt lat="24.49306293390691280364990234375" lon="118.19474791176617145538330078125">
        <ele>0</ele>
        <time>2016-12-04T09:20:56.000Z</time>
        <extensions>
          <ns3:TrackPointExtension/>
        </extensions>
      </trkpt>
      <trkpt lat="24.4930457510054111480712890625" lon="118.19475553929805755615234375">
        <ele>0</ele>
        <time>2016-12-04T09:21:01.000Z</time>
        <extensions>
          <ns3:TrackPointExtension/>
        </extensions>
      </trkpt>
      <trkpt lat="24.49302672408521175384521484375" lon="118.1947707943618297576904296875">
        <ele>0</ele>
        <time>2016-12-04T09:21:06.000Z</time>
        <extensions>
          <ns3:TrackPointExtension/>
        </extensions>
      </trkpt>
      <trkpt lat="24.49300761334598064422607421875" lon="118.19477842189371585845947265625">
        <ele>0</ele>
        <time>2016-12-04T09:21:11.000Z</time>
        <extensions>
          <ns3:TrackPointExtension/>
        </extensions>
      </trkpt>
      <trkpt lat="24.49298858642578125" lon="118.19479367695748805999755859375">
        <ele>0</ele>
        <time>2016-12-04T09:21:16.000Z</time>
        <extensions>
          <ns3:TrackPointExtension/>
        </extensions>
      </trkpt>
      <trkpt lat="24.49296754784882068634033203125" lon="118.19480893202126026153564453125">
        <ele>0</ele>
        <time>2016-12-04T09:21:21.000Z</time>
        <extensions>
          <ns3:TrackPointExtension/>
        </extensions>
      </trkpt>
      <trkpt lat="24.49294659309089183807373046875" lon="118.1948165595531463623046875">
        <ele>0</ele>
        <time>2016-12-04T09:21:26.000Z</time>
        <extensions>
          <ns3:TrackPointExtension/>
        </extensions>
      </trkpt>
      <trkpt lat="24.49292563833296298980712890625" lon="118.1948318146169185638427734375">
        <ele>0</ele>
        <time>2016-12-04T09:21:31.000Z</time>
        <extensions>
          <ns3:TrackPointExtension/>
        </extensions>
      </trkpt>
      <trkpt lat="24.4929045997560024261474609375" lon="118.194847069680690765380859375">
        <ele>0</ele>
        <time>2016-12-04T09:21:36.000Z</time>
        <extensions>
          <ns3:TrackPointExtension/>
        </extensions>
      </trkpt>
      <trkpt lat="24.492883644998073577880859375" lon="118.1948623247444629669189453125">
        <ele>0</ele>
        <time>2016-12-04T09:21:41.000Z</time>
        <extensions>
          <ns3:TrackPointExtension/>
        </extensions>
      </trkpt>
      <trkpt lat="24.4928626902401447296142578125" lon="118.19487757980823516845703125">
        <ele>0</ele>
        <time>2016-12-04T09:21:46.000Z</time>
        <extensions>
          <ns3:TrackPointExtension/>
        </extensions>
      </trkpt>
      <trkpt lat="24.49284165166318416595458984375" lon="118.19488520734012126922607421875">
        <ele>0</ele>
        <time>2016-12-04T09:21:51.000Z</time>
        <extensions>
          <ns3:TrackPointExtension/>
        </extensions>
      </trkpt>
      <trkpt lat="24.49282069690525531768798828125" lon="118.19490046240389347076416015625">
        <ele>0</ele>
        <time>2016-12-04T09:21:56.000Z</time>
        <extensions>
          <ns3:TrackPointExtension/>
        </extensions>
      </trkpt>
      <trkpt lat="24.49280158616602420806884765625" lon="118.19491571746766567230224609375">
        <ele>0</ele>
        <time>2016-12-04T09:22:01.000Z</time>
        <extensions>
          <ns3:TrackPointExtension/>
        </extensions>
      </trkpt>
      <trkpt lat="24.49277870357036590576171875" lon="118.19493097253143787384033203125">
        <ele>0</ele>
        <time>2016-12-04T09:22:06.000Z</time>
        <extensions>
          <ns3:TrackPointExtension/>
        </extensions>
      </trkpt>
      <trkpt lat="24.49275582097470760345458984375" lon="118.194938600063323974609375">
        <ele>0</ele>
        <time>2016-12-04T09:22:11.000Z</time>
        <extensions>
          <ns3:TrackPointExtension/>
        </extensions>
      </trkpt>
      <trkpt lat="24.49273486621677875518798828125" lon="118.1949538551270961761474609375">
        <ele>0</ele>
        <time>2016-12-04T09:22:16.000Z</time>
        <extensions>
          <ns3:TrackPointExtension/>
        </extensions>
      </trkpt>
      <trkpt lat="24.49271391145884990692138671875" lon="118.19496148265898227691650390625">
        <ele>0</ele>
        <time>2016-12-04T09:22:21.000Z</time>
        <extensions>
          <ns3:TrackPointExtension/>
        </extensions>
      </trkpt>
      <trkpt lat="24.49269287288188934326171875" lon="118.19497673772275447845458984375">
        <ele>0</ele>
        <time>2016-12-04T09:22:26.000Z</time>
        <extensions>
          <ns3:TrackPointExtension/>
        </extensions>
      </trkpt>
      <trkpt lat="24.4926719181239604949951171875" lon="118.1949843652546405792236328125">
        <ele>0</ele>
        <time>2016-12-04T09:22:31.000Z</time>
        <extensions>
          <ns3:TrackPointExtension/>
        </extensions>
      </trkpt>
      <trkpt lat="24.49265289120376110076904296875" lon="118.19499199278652667999267578125">
        <ele>0</ele>
        <time>2016-12-04T09:22:36.000Z</time>
        <extensions>
          <ns3:TrackPointExtension/>
        </extensions>
      </trkpt>
      <trkpt lat="24.49263378046452999114990234375" lon="118.19499962031841278076171875">
        <ele>0</ele>
        <time>2016-12-04T09:22:41.000Z</time>
        <extensions>
          <ns3:TrackPointExtension/>
        </extensions>
      </trkpt>
      <trkpt lat="24.4926165975630283355712890625" lon="118.19500724785029888153076171875">
        <ele>0</ele>
        <time>2016-12-04T09:22:46.000Z</time>
        <extensions>
          <ns3:TrackPointExtension/>
        </extensions>
      </trkpt>
      <trkpt lat="24.4925956428050994873046875" lon="118.1950148753821849822998046875">
        <ele>0</ele>
        <time>2016-12-04T09:22:51.000Z</time>
        <extensions>
          <ns3:TrackPointExtension/>
        </extensions>
      </trkpt>
      <trkpt lat="24.492576532065868377685546875" lon="118.195030130445957183837890625">
        <ele>0</ele>
        <time>2016-12-04T09:22:56.000Z</time>
        <extensions>
          <ns3:TrackPointExtension/>
        </extensions>
      </trkpt>
      <trkpt lat="24.4925594329833984375" lon="118.195037841796875">
        <ele>0</ele>
        <time>2016-12-04T09:23:01.000Z</time>
        <extensions>
          <ns3:TrackPointExtension/>
        </extensions>
      </trkpt>
      <trkpt lat="24.492540322244167327880859375" lon="118.1950530968606472015380859375">
        <ele>0</ele>
        <time>2016-12-04T09:23:06.000Z</time>
        <extensions>
          <ns3:TrackPointExtension/>
        </extensions>
      </trkpt>
      <trkpt lat="24.49252121150493621826171875" lon="118.19506072439253330230712890625">
        <ele>0</ele>
        <time>2016-12-04T09:23:11.000Z</time>
        <extensions>
          <ns3:TrackPointExtension/>
        </extensions>
      </trkpt>
      <trkpt lat="24.49250218458473682403564453125" lon="118.19507597945630550384521484375">
        <ele>0</ele>
        <time>2016-12-04T09:23:16.000Z</time>
        <extensions>
          <ns3:TrackPointExtension/>
        </extensions>
      </trkpt>
      <trkpt lat="24.49248307384550571441650390625" lon="118.19509123452007770538330078125">
        <ele>0</ele>
        <time>2016-12-04T09:23:21.000Z</time>
        <extensions>
          <ns3:TrackPointExtension/>
        </extensions>
      </trkpt>
      <trkpt lat="24.49247737415134906768798828125" lon="118.19512174464762210845947265625">
        <ele>0</ele>
        <time>2016-12-04T09:23:26.000Z</time>
        <extensions>
          <ns3:TrackPointExtension/>
        </extensions>
      </trkpt>
      <trkpt lat="24.49246781878173351287841796875" lon="118.19513699971139430999755859375">
        <ele>0</ele>
        <time>2016-12-04T09:23:31.000Z</time>
        <extensions>
          <ns3:TrackPointExtension/>
        </extensions>
      </trkpt>
      <trkpt lat="24.492454491555690765380859375" lon="118.19515225477516651153564453125">
        <ele>0</ele>
        <time>2016-12-04T09:23:36.000Z</time>
        <extensions>
          <ns3:TrackPointExtension/>
        </extensions>
      </trkpt>
      <trkpt lat="24.49244116432964801788330078125" lon="118.1951751373708248138427734375">
        <ele>0</ele>
        <time>2016-12-04T09:23:41.000Z</time>
        <extensions>
          <ns3:TrackPointExtension/>
        </extensions>
      </trkpt>
      <trkpt lat="24.49242590926587581634521484375" lon="118.195190392434597015380859375">
        <ele>0</ele>
        <time>2016-12-04T09:23:46.000Z</time>
        <extensions>
          <ns3:TrackPointExtension/>
        </extensions>
      </trkpt>
      <trkpt lat="24.49241249822080135345458984375" lon="118.19519801996648311614990234375">
        <ele>0</ele>
        <time>2016-12-04T09:23:51.000Z</time>
        <extensions>
          <ns3:TrackPointExtension/>
        </extensions>
      </trkpt>
      <trkpt lat="24.49239724315702915191650390625" lon="118.19521327503025531768798828125">
        <ele>0</ele>
        <time>2016-12-04T09:23:56.000Z</time>
        <extensions>
          <ns3:TrackPointExtension/>
        </extensions>
      </trkpt>
      <trkpt lat="24.4923839159309864044189453125" lon="118.19522853009402751922607421875">
        <ele>0</ele>
        <time>2016-12-04T09:24:01.000Z</time>
        <extensions>
          <ns3:TrackPointExtension/>
        </extensions>
      </trkpt>
      <trkpt lat="24.492368660867214202880859375" lon="118.1952361576259136199951171875">
        <ele>0</ele>
        <time>2016-12-04T09:24:06.000Z</time>
        <extensions>
          <ns3:TrackPointExtension/>
        </extensions>
      </trkpt>
      <trkpt lat="24.49235147796571254730224609375" lon="118.19524378515779972076416015625">
        <ele>0</ele>
        <time>2016-12-04T09:24:11.000Z</time>
        <extensions>
          <ns3:TrackPointExtension/>
        </extensions>
      </trkpt>
      <trkpt lat="24.4923342950642108917236328125" lon="118.195251412689685821533203125">
        <ele>0</ele>
        <time>2016-12-04T09:24:16.000Z</time>
        <extensions>
          <ns3:TrackPointExtension/>
        </extensions>
      </trkpt>
      <trkpt lat="24.492319040000438690185546875" lon="118.19525904022157192230224609375">
        <ele>0</ele>
        <time>2016-12-04T09:24:21.000Z</time>
        <extensions>
          <ns3:TrackPointExtension/>
        </extensions>
      </trkpt>
      <trkpt lat="24.4923037849366664886474609375" lon="118.19527429528534412384033203125">
        <ele>0</ele>
        <time>2016-12-04T09:24:26.000Z</time>
        <extensions>
          <ns3:TrackPointExtension/>
        </extensions>
      </trkpt>
      <trkpt lat="24.492288529872894287109375" lon="118.195281922817230224609375">
        <ele>0</ele>
        <time>2016-12-04T09:24:31.000Z</time>
        <extensions>
          <ns3:TrackPointExtension/>
        </extensions>
      </trkpt>
      <trkpt lat="24.49227134697139263153076171875" lon="118.1952971778810024261474609375">
        <ele>0</ele>
        <time>2016-12-04T09:24:36.000Z</time>
        <extensions>
          <ns3:TrackPointExtension/>
        </extensions>
      </trkpt>
      <trkpt lat="24.49225424788892269134521484375" lon="118.19530480541288852691650390625">
        <ele>0</ele>
        <time>2016-12-04T09:24:41.000Z</time>
        <extensions>
          <ns3:TrackPointExtension/>
        </extensions>
      </trkpt>
      <trkpt lat="24.49223513714969158172607421875" lon="118.19532006047666072845458984375">
        <ele>0</ele>
        <time>2016-12-04T09:24:46.000Z</time>
        <extensions>
          <ns3:TrackPointExtension/>
        </extensions>
      </trkpt>
      <trkpt lat="24.49221418239176273345947265625" lon="118.1953276880085468292236328125">
        <ele>0</ele>
        <time>2016-12-04T09:24:51.000Z</time>
        <extensions>
          <ns3:TrackPointExtension/>
        </extensions>
      </trkpt>
      <trkpt lat="24.49219892732799053192138671875" lon="118.19533531554043292999267578125">
        <ele>0</ele>
        <time>2016-12-04T09:24:56.000Z</time>
        <extensions>
          <ns3:TrackPointExtension/>
        </extensions>
      </trkpt>
      <trkpt lat="24.49217981658875942230224609375" lon="118.19533531554043292999267578125">
        <ele>0</ele>
        <time>2016-12-04T09:25:01.000Z</time>
        <extensions>
          <ns3:TrackPointExtension/>
        </extensions>
      </trkpt>
      <trkpt lat="24.4921626336872577667236328125" lon="118.19534294307231903076171875">
        <ele>0</ele>
        <time>2016-12-04T09:25:06.000Z</time>
        <extensions>
          <ns3:TrackPointExtension/>
        </extensions>
      </trkpt>
      <trkpt lat="24.49214360676705837249755859375" lon="118.1953581981360912322998046875">
        <ele>0</ele>
        <time>2016-12-04T09:25:11.000Z</time>
        <extensions>
          <ns3:TrackPointExtension/>
        </extensions>
      </trkpt>
      <trkpt lat="24.4921264238655567169189453125" lon="118.19536582566797733306884765625">
        <ele>0</ele>
        <time>2016-12-04T09:25:16.000Z</time>
        <extensions>
          <ns3:TrackPointExtension/>
        </extensions>
      </trkpt>
      <trkpt lat="24.49210924096405506134033203125" lon="118.195373453199863433837890625">
        <ele>0</ele>
        <time>2016-12-04T09:25:21.000Z</time>
        <extensions>
          <ns3:TrackPointExtension/>
        </extensions>
      </trkpt>
      <trkpt lat="24.492074958980083465576171875" lon="118.195373453199863433837890625">
        <ele>0</ele>
        <time>2016-12-04T09:25:26.000Z</time>
        <extensions>
          <ns3:TrackPointExtension/>
        </extensions>
      </trkpt>
      <trkpt lat="24.4920462928712368011474609375" lon="118.19536582566797733306884765625">
        <ele>0</ele>
        <time>2016-12-04T09:25:31.000Z</time>
        <extensions>
          <ns3:TrackPointExtension/>
        </extensions>
      </trkpt>
      <trkpt lat="24.4920214824378490447998046875" lon="118.19536582566797733306884765625">
        <ele>0</ele>
        <time>2016-12-04T09:25:36.000Z</time>
        <extensions>
          <ns3:TrackPointExtension/>
        </extensions>
      </trkpt>
      <trkpt lat="24.49200245551764965057373046875" lon="118.1953581981360912322998046875">
        <ele>0</ele>
        <time>2016-12-04T09:25:41.000Z</time>
        <extensions>
          <ns3:TrackPointExtension/>
        </extensions>
      </trkpt>
      <trkpt lat="24.49198334477841854095458984375" lon="118.19536582566797733306884765625">
        <ele>0</ele>
        <time>2016-12-04T09:25:46.000Z</time>
        <extensions>
          <ns3:TrackPointExtension/>
        </extensions>
      </trkpt>
      <trkpt lat="24.491964317858219146728515625" lon="118.195373453199863433837890625">
        <ele>0</ele>
        <time>2016-12-04T09:25:51.000Z</time>
        <extensions>
          <ns3:TrackPointExtension/>
        </extensions>
      </trkpt>
      <trkpt lat="24.49194713495671749114990234375" lon="118.19538116455078125">
        <ele>0</ele>
        <time>2016-12-04T09:25:56.000Z</time>
        <extensions>
          <ns3:TrackPointExtension/>
        </extensions>
      </trkpt>
      <trkpt lat="24.4919242523610591888427734375" lon="118.19538879208266735076904296875">
        <ele>0</ele>
        <time>2016-12-04T09:26:01.000Z</time>
        <extensions>
          <ns3:TrackPointExtension/>
        </extensions>
      </trkpt>
      <trkpt lat="24.49190136976540088653564453125" lon="118.1953964196145534515380859375">
        <ele>0</ele>
        <time>2016-12-04T09:26:06.000Z</time>
        <extensions>
          <ns3:TrackPointExtension/>
        </extensions>
      </trkpt>
      <trkpt lat="24.491878487169742584228515625" lon="118.1953964196145534515380859375">
        <ele>0</ele>
        <time>2016-12-04T09:26:11.000Z</time>
        <extensions>
          <ns3:TrackPointExtension/>
        </extensions>
      </trkpt>
      <trkpt lat="24.491853676736354827880859375" lon="118.19540404714643955230712890625">
        <ele>0</ele>
        <time>2016-12-04T09:26:16.000Z</time>
        <extensions>
          <ns3:TrackPointExtension/>
        </extensions>
      </trkpt>
      <trkpt lat="24.49183456599712371826171875" lon="118.19540404714643955230712890625">
        <ele>0</ele>
        <time>2016-12-04T09:26:21.000Z</time>
        <extensions>
          <ns3:TrackPointExtension/>
        </extensions>
      </trkpt>
      <trkpt lat="24.491817466914653778076171875" lon="118.195411674678325653076171875">
        <ele>0</ele>
        <time>2016-12-04T09:26:26.000Z</time>
        <extensions>
          <ns3:TrackPointExtension/>
        </extensions>
      </trkpt>
      <trkpt lat="24.4918022118508815765380859375" lon="118.195411674678325653076171875">
        <ele>0</ele>
        <time>2016-12-04T09:26:31.000Z</time>
        <extensions>
          <ns3:TrackPointExtension/>
        </extensions>
      </trkpt>
      <trkpt lat="24.49178502894937992095947265625" lon="118.195411674678325653076171875">
        <ele>0</ele>
        <time>2016-12-04T09:26:36.000Z</time>
        <extensions>
          <ns3:TrackPointExtension/>
        </extensions>
      </trkpt>
      <trkpt lat="24.491767846047878265380859375" lon="118.19541930221021175384521484375">
        <ele>0</ele>
        <time>2016-12-04T09:26:41.000Z</time>
        <extensions>
          <ns3:TrackPointExtension/>
        </extensions>
      </trkpt>
      <trkpt lat="24.4917468912899494171142578125" lon="118.19541930221021175384521484375">
        <ele>0</ele>
        <time>2016-12-04T09:26:46.000Z</time>
        <extensions>
          <ns3:TrackPointExtension/>
        </extensions>
      </trkpt>
      <trkpt lat="24.49172585271298885345458984375" lon="118.19541930221021175384521484375">
        <ele>0</ele>
        <time>2016-12-04T09:26:51.000Z</time>
        <extensions>
          <ns3:TrackPointExtension/>
        </extensions>
      </trkpt>
      <trkpt lat="24.49170489795506000518798828125" lon="118.19541930221021175384521484375">
        <ele>0</ele>
        <time>2016-12-04T09:26:56.000Z</time>
        <extensions>
          <ns3:TrackPointExtension/>
        </extensions>
      </trkpt>
      <trkpt lat="24.49168964289128780364990234375" lon="118.19541930221021175384521484375">
        <ele>0</ele>
        <time>2016-12-04T09:27:01.000Z</time>
        <extensions>
          <ns3:TrackPointExtension/>
        </extensions>
      </trkpt>
      <trkpt lat="24.49167438782751560211181640625" lon="118.19541930221021175384521484375">
        <ele>0</ele>
        <time>2016-12-04T09:27:06.000Z</time>
        <extensions>
          <ns3:TrackPointExtension/>
        </extensions>
      </trkpt>
      <trkpt lat="24.49165913276374340057373046875" lon="118.19541930221021175384521484375">
        <ele>0</ele>
        <time>2016-12-04T09:27:11.000Z</time>
        <extensions>
          <ns3:TrackPointExtension/>
        </extensions>
      </trkpt>
      <trkpt lat="24.49164002202451229095458984375" lon="118.19541930221021175384521484375">
        <ele>0</ele>
        <time>2016-12-04T09:27:16.000Z</time>
        <extensions>
          <ns3:TrackPointExtension/>
        </extensions>
      </trkpt>
      <trkpt lat="24.49162292294204235076904296875" lon="118.195411674678325653076171875">
        <ele>0</ele>
        <time>2016-12-04T09:27:21.000Z</time>
        <extensions>
          <ns3:TrackPointExtension/>
        </extensions>
      </trkpt>
      <trkpt lat="24.49160381220281124114990234375" lon="118.19541930221021175384521484375">
        <ele>0</ele>
        <time>2016-12-04T09:27:26.000Z</time>
        <extensions>
          <ns3:TrackPointExtension/>
        </extensions>
      </trkpt>
      <trkpt lat="24.4915809296071529388427734375" lon="118.19541930221021175384521484375">
        <ele>0</ele>
        <time>2016-12-04T09:27:31.000Z</time>
        <extensions>
          <ns3:TrackPointExtension/>
        </extensions>
      </trkpt>
      <trkpt lat="24.49155804701149463653564453125" lon="118.19541930221021175384521484375">
        <ele>0</ele>
        <time>2016-12-04T09:27:36.000Z</time>
        <extensions>
          <ns3:TrackPointExtension/>
        </extensions>
      </trkpt>
      <trkpt lat="24.49153893627226352691650390625" lon="118.19541930221021175384521484375">
        <ele>0</ele>
        <time>2016-12-04T09:27:41.000Z</time>
        <extensions>
          <ns3:TrackPointExtension/>
        </extensions>
      </trkpt>
      <trkpt lat="24.491521753370761871337890625" lon="118.19541930221021175384521484375">
        <ele>0</ele>
        <time>2016-12-04T09:27:46.000Z</time>
        <extensions>
          <ns3:TrackPointExtension/>
        </extensions>
      </trkpt>
      <trkpt lat="24.4915064983069896697998046875" lon="118.1954269297420978546142578125">
        <ele>0</ele>
        <time>2016-12-04T09:27:51.000Z</time>
        <extensions>
          <ns3:TrackPointExtension/>
        </extensions>
      </trkpt>
      <trkpt lat="24.4915007986128330230712890625" lon="118.1954269297420978546142578125">
        <ele>0</ele>
        <time>2016-12-04T09:27:56.000Z</time>
        <extensions>
          <ns3:TrackPointExtension/>
        </extensions>
      </trkpt>
      <trkpt lat="24.49150465428829193115234375" lon="118.1954269297420978546142578125">
        <ele>0</ele>
        <time>2016-12-04T09:28:01.000Z</time>
        <extensions>
          <ns3:TrackPointExtension/>
        </extensions>
      </trkpt>
      <trkpt lat="24.49151228182017803192138671875" lon="118.1954269297420978546142578125">
        <ele>0</ele>
        <time>2016-12-04T09:28:06.000Z</time>
        <extensions>
          <ns3:TrackPointExtension/>
        </extensions>
      </trkpt>
      <trkpt lat="24.4915256090462207794189453125" lon="118.1954269297420978546142578125">
        <ele>0</ele>
        <time>2016-12-04T09:28:11.000Z</time>
        <extensions>
          <ns3:TrackPointExtension/>
        </extensions>
      </trkpt>
      <trkpt lat="24.49154279194772243499755859375" lon="118.19541930221021175384521484375">
        <ele>0</ele>
        <time>2016-12-04T09:28:16.000Z</time>
        <extensions>
          <ns3:TrackPointExtension/>
        </extensions>
      </trkpt>
      <trkpt lat="24.49155804701149463653564453125" lon="118.19541930221021175384521484375">
        <ele>0</ele>
        <time>2016-12-04T09:28:21.000Z</time>
        <extensions>
          <ns3:TrackPointExtension/>
        </extensions>
      </trkpt>
      <trkpt lat="24.49156944639980792999267578125" lon="118.19541930221021175384521484375">
        <ele>0</ele>
        <time>2016-12-04T09:28:26.000Z</time>
        <extensions>
          <ns3:TrackPointExtension/>
        </extensions>
      </trkpt>
      <trkpt lat="24.49158285744488239288330078125" lon="118.195411674678325653076171875">
        <ele>0</ele>
        <time>2016-12-04T09:28:31.000Z</time>
        <extensions>
          <ns3:TrackPointExtension/>
        </extensions>
      </trkpt>
      <trkpt lat="24.49159811250865459442138671875" lon="118.19540404714643955230712890625">
        <ele>0</ele>
        <time>2016-12-04T09:28:36.000Z</time>
        <extensions>
          <ns3:TrackPointExtension/>
        </extensions>
      </trkpt>
      <trkpt lat="24.4916171394288539886474609375" lon="118.1953964196145534515380859375">
        <ele>0</ele>
        <time>2016-12-04T09:28:41.000Z</time>
        <extensions>
          <ns3:TrackPointExtension/>
        </extensions>
      </trkpt>
      <trkpt lat="24.49163817800581455230712890625" lon="118.1953964196145534515380859375">
        <ele>0</ele>
        <time>2016-12-04T09:28:46.000Z</time>
        <extensions>
          <ns3:TrackPointExtension/>
        </extensions>
      </trkpt>
      <trkpt lat="24.49165913276374340057373046875" lon="118.19538879208266735076904296875">
        <ele>0</ele>
        <time>2016-12-04T09:28:51.000Z</time>
        <extensions>
          <ns3:TrackPointExtension/>
        </extensions>
      </trkpt>
      <trkpt lat="24.4916915707290172576904296875" lon="118.19538879208266735076904296875">
        <ele>0</ele>
        <time>2016-12-04T09:28:56.000Z</time>
        <extensions>
          <ns3:TrackPointExtension/>
        </extensions>
      </trkpt>
      <trkpt lat="24.49171252548694610595703125" lon="118.19538116455078125">
        <ele>0</ele>
        <time>2016-12-04T09:29:01.000Z</time>
        <extensions>
          <ns3:TrackPointExtension/>
        </extensions>
      </trkpt>
      <trkpt lat="24.4917334802448749542236328125" lon="118.195373453199863433837890625">
        <ele>0</ele>
        <time>2016-12-04T09:29:06.000Z</time>
        <extensions>
          <ns3:TrackPointExtension/>
        </extensions>
      </trkpt>
      <trkpt lat="24.49175636284053325653076171875" lon="118.19536582566797733306884765625">
        <ele>0</ele>
        <time>2016-12-04T09:29:11.000Z</time>
        <extensions>
          <ns3:TrackPointExtension/>
        </extensions>
      </trkpt>
      <trkpt lat="24.49177547357976436614990234375" lon="118.19536582566797733306884765625">
        <ele>0</ele>
        <time>2016-12-04T09:29:16.000Z</time>
        <extensions>
          <ns3:TrackPointExtension/>
        </extensions>
      </trkpt>
      <trkpt lat="24.49179458431899547576904296875" lon="118.1953581981360912322998046875">
        <ele>0</ele>
        <time>2016-12-04T09:29:21.000Z</time>
        <extensions>
          <ns3:TrackPointExtension/>
        </extensions>
      </trkpt>
      <trkpt lat="24.49181168340146541595458984375" lon="118.19535057060420513153076171875">
        <ele>0</ele>
        <time>2016-12-04T09:29:26.000Z</time>
        <extensions>
          <ns3:TrackPointExtension/>
        </extensions>
      </trkpt>
      <trkpt lat="24.491828866302967071533203125" lon="118.19535057060420513153076171875">
        <ele>0</ele>
        <time>2016-12-04T09:29:31.000Z</time>
        <extensions>
          <ns3:TrackPointExtension/>
        </extensions>
      </trkpt>
      <trkpt lat="24.4918441213667392730712890625" lon="118.19534294307231903076171875">
        <ele>0</ele>
        <time>2016-12-04T09:29:36.000Z</time>
        <extensions>
          <ns3:TrackPointExtension/>
        </extensions>
      </trkpt>
      <trkpt lat="24.4918632321059703826904296875" lon="118.19534294307231903076171875">
        <ele>0</ele>
        <time>2016-12-04T09:29:41.000Z</time>
        <extensions>
          <ns3:TrackPointExtension/>
        </extensions>
      </trkpt>
      <trkpt lat="24.49188225902616977691650390625" lon="118.19533531554043292999267578125">
        <ele>0</ele>
        <time>2016-12-04T09:29:46.000Z</time>
        <extensions>
          <ns3:TrackPointExtension/>
        </extensions>
      </trkpt>
      <trkpt lat="24.49190136976540088653564453125" lon="118.19533531554043292999267578125">
        <ele>0</ele>
        <time>2016-12-04T09:29:51.000Z</time>
        <extensions>
          <ns3:TrackPointExtension/>
        </extensions>
      </trkpt>
      <trkpt lat="24.49192039668560028076171875" lon="118.1953276880085468292236328125">
        <ele>0</ele>
        <time>2016-12-04T09:29:56.000Z</time>
        <extensions>
          <ns3:TrackPointExtension/>
        </extensions>
      </trkpt>
      <trkpt lat="24.49193757958710193634033203125" lon="118.1953276880085468292236328125">
        <ele>0</ele>
        <time>2016-12-04T09:30:01.000Z</time>
        <extensions>
          <ns3:TrackPointExtension/>
        </extensions>
      </trkpt>
      <trkpt lat="24.4919547624886035919189453125" lon="118.19532006047666072845458984375">
        <ele>0</ele>
        <time>2016-12-04T09:30:06.000Z</time>
        <extensions>
          <ns3:TrackPointExtension/>
        </extensions>
      </trkpt>
      <trkpt lat="24.49197001755237579345703125" lon="118.195312432944774627685546875">
        <ele>0</ele>
        <time>2016-12-04T09:30:11.000Z</time>
        <extensions>
          <ns3:TrackPointExtension/>
        </extensions>
      </trkpt>
      <trkpt lat="24.49198720045387744903564453125" lon="118.195312432944774627685546875">
        <ele>0</ele>
        <time>2016-12-04T09:30:16.000Z</time>
        <extensions>
          <ns3:TrackPointExtension/>
        </extensions>
      </trkpt>
      <trkpt lat="24.4920043833553791046142578125" lon="118.19530480541288852691650390625">
        <ele>0</ele>
        <time>2016-12-04T09:30:21.000Z</time>
        <extensions>
          <ns3:TrackPointExtension/>
        </extensions>
      </trkpt>
      <trkpt lat="24.4920214824378490447998046875" lon="118.19528955034911632537841796875">
        <ele>0</ele>
        <time>2016-12-04T09:30:26.000Z</time>
        <extensions>
          <ns3:TrackPointExtension/>
        </extensions>
      </trkpt>
      <trkpt lat="24.4920405931770801544189453125" lon="118.19525904022157192230224609375">
        <ele>0</ele>
        <time>2016-12-04T09:30:31.000Z</time>
        <extensions>
          <ns3:TrackPointExtension/>
        </extensions>
      </trkpt>
      <trkpt lat="24.49205777607858180999755859375" lon="118.19524378515779972076416015625">
        <ele>0</ele>
        <time>2016-12-04T09:30:36.000Z</time>
        <extensions>
          <ns3:TrackPointExtension/>
        </extensions>
      </trkpt>
      <trkpt lat="24.49207303114235401153564453125" lon="118.19522853009402751922607421875">
        <ele>0</ele>
        <time>2016-12-04T09:30:41.000Z</time>
        <extensions>
          <ns3:TrackPointExtension/>
        </extensions>
      </trkpt>
      <trkpt lat="24.49208828620612621307373046875" lon="118.19522090256214141845703125">
        <ele>0</ele>
        <time>2016-12-04T09:30:46.000Z</time>
        <extensions>
          <ns3:TrackPointExtension/>
        </extensions>
      </trkpt>
      <trkpt lat="24.49210354126989841461181640625" lon="118.1952056474983692169189453125">
        <ele>0</ele>
        <time>2016-12-04T09:30:51.000Z</time>
        <extensions>
          <ns3:TrackPointExtension/>
        </extensions>
      </trkpt>
      <trkpt lat="24.49211879633367061614990234375" lon="118.195190392434597015380859375">
        <ele>0</ele>
        <time>2016-12-04T09:30:56.000Z</time>
        <extensions>
          <ns3:TrackPointExtension/>
        </extensions>
      </trkpt>
      <trkpt lat="24.49213405139744281768798828125" lon="118.1951751373708248138427734375">
        <ele>0</ele>
        <time>2016-12-04T09:31:01.000Z</time>
        <extensions>
          <ns3:TrackPointExtension/>
        </extensions>
      </trkpt>
      <trkpt lat="24.4921512342989444732666015625" lon="118.1951598823070526123046875">
        <ele>0</ele>
        <time>2016-12-04T09:31:06.000Z</time>
        <extensions>
          <ns3:TrackPointExtension/>
        </extensions>
      </trkpt>
      <trkpt lat="24.49216841720044612884521484375" lon="118.1951446272432804107666015625">
        <ele>0</ele>
        <time>2016-12-04T09:31:11.000Z</time>
        <extensions>
          <ns3:TrackPointExtension/>
        </extensions>
      </trkpt>
      <trkpt lat="24.49218551628291606903076171875" lon="118.195129372179508209228515625">
        <ele>0</ele>
        <time>2016-12-04T09:31:16.000Z</time>
        <extensions>
          <ns3:TrackPointExtension/>
        </extensions>
      </trkpt>
      <trkpt lat="24.492202699184417724609375" lon="118.19512174464762210845947265625">
        <ele>0</ele>
        <time>2016-12-04T09:31:21.000Z</time>
        <extensions>
          <ns3:TrackPointExtension/>
        </extensions>
      </trkpt>
      <trkpt lat="24.492221809923648834228515625" lon="118.1951141171157360076904296875">
        <ele>0</ele>
        <time>2016-12-04T09:31:26.000Z</time>
        <extensions>
          <ns3:TrackPointExtension/>
        </extensions>
      </trkpt>
      <trkpt lat="24.49224083684384822845458984375" lon="118.19509886205196380615234375">
        <ele>0</ele>
        <time>2016-12-04T09:31:31.000Z</time>
        <extensions>
          <ns3:TrackPointExtension/>
        </extensions>
      </trkpt>
      <trkpt lat="24.49225994758307933807373046875" lon="118.19509123452007770538330078125">
        <ele>0</ele>
        <time>2016-12-04T09:31:36.000Z</time>
        <extensions>
          <ns3:TrackPointExtension/>
        </extensions>
      </trkpt>
      <trkpt lat="24.4922789745032787322998046875" lon="118.1950836069881916046142578125">
        <ele>0</ele>
        <time>2016-12-04T09:31:41.000Z</time>
        <extensions>
          <ns3:TrackPointExtension/>
        </extensions>
      </trkpt>
      <trkpt lat="24.49229615740478038787841796875" lon="118.195068351924419403076171875">
        <ele>0</ele>
        <time>2016-12-04T09:31:46.000Z</time>
        <extensions>
          <ns3:TrackPointExtension/>
        </extensions>
      </trkpt>
      <trkpt lat="24.49231334030628204345703125" lon="118.19506072439253330230712890625">
        <ele>0</ele>
        <time>2016-12-04T09:31:51.000Z</time>
        <extensions>
          <ns3:TrackPointExtension/>
        </extensions>
      </trkpt>
      <trkpt lat="24.4923285953700542449951171875" lon="118.1950530968606472015380859375">
        <ele>0</ele>
        <time>2016-12-04T09:31:56.000Z</time>
        <extensions>
          <ns3:TrackPointExtension/>
        </extensions>
      </trkpt>
      <trkpt lat="24.4923477061092853546142578125" lon="118.195037841796875">
        <ele>0</ele>
        <time>2016-12-04T09:32:01.000Z</time>
        <extensions>
          <ns3:TrackPointExtension/>
        </extensions>
      </trkpt>
      <trkpt lat="24.49236296117305755615234375" lon="118.19502250291407108306884765625">
        <ele>0</ele>
        <time>2016-12-04T09:32:06.000Z</time>
        <extensions>
          <ns3:TrackPointExtension/>
        </extensions>
      </trkpt>
      <trkpt lat="24.4923782162368297576904296875" lon="118.1950148753821849822998046875">
        <ele>0</ele>
        <time>2016-12-04T09:32:11.000Z</time>
        <extensions>
          <ns3:TrackPointExtension/>
        </extensions>
      </trkpt>
      <trkpt lat="24.49239539913833141326904296875" lon="118.19499962031841278076171875">
        <ele>0</ele>
        <time>2016-12-04T09:32:16.000Z</time>
        <extensions>
          <ns3:TrackPointExtension/>
        </extensions>
      </trkpt>
      <trkpt lat="24.49241249822080135345458984375" lon="118.1949843652546405792236328125">
        <ele>0</ele>
        <time>2016-12-04T09:32:21.000Z</time>
        <extensions>
          <ns3:TrackPointExtension/>
        </extensions>
      </trkpt>
      <trkpt lat="24.492429681122303009033203125" lon="118.19497673772275447845458984375">
        <ele>0</ele>
        <time>2016-12-04T09:32:26.000Z</time>
        <extensions>
          <ns3:TrackPointExtension/>
        </extensions>
      </trkpt>
      <trkpt lat="24.4924449361860752105712890625" lon="118.19497673772275447845458984375">
        <ele>0</ele>
        <time>2016-12-04T09:32:31.000Z</time>
        <extensions>
          <ns3:TrackPointExtension/>
        </extensions>
      </trkpt>
      <trkpt lat="24.492460191249847412109375" lon="118.194969110190868377685546875">
        <ele>0</ele>
        <time>2016-12-04T09:32:36.000Z</time>
        <extensions>
          <ns3:TrackPointExtension/>
        </extensions>
      </trkpt>
      <trkpt lat="24.4924754463136196136474609375" lon="118.19496148265898227691650390625">
        <ele>0</ele>
        <time>2016-12-04T09:32:41.000Z</time>
        <extensions>
          <ns3:TrackPointExtension/>
        </extensions>
      </trkpt>
      <trkpt lat="24.4924945570528507232666015625" lon="118.1949538551270961761474609375">
        <ele>0</ele>
        <time>2016-12-04T09:32:46.000Z</time>
        <extensions>
          <ns3:TrackPointExtension/>
        </extensions>
      </trkpt>
      <trkpt lat="24.49251358397305011749267578125" lon="118.19494622759521007537841796875">
        <ele>0</ele>
        <time>2016-12-04T09:32:51.000Z</time>
        <extensions>
          <ns3:TrackPointExtension/>
        </extensions>
      </trkpt>
      <trkpt lat="24.4925307668745517730712890625" lon="118.194938600063323974609375">
        <ele>0</ele>
        <time>2016-12-04T09:32:56.000Z</time>
        <extensions>
          <ns3:TrackPointExtension/>
        </extensions>
      </trkpt>
      <trkpt lat="24.4925498776137828826904296875" lon="118.1949233449995517730712890625">
        <ele>0</ele>
        <time>2016-12-04T09:33:01.000Z</time>
        <extensions>
          <ns3:TrackPointExtension/>
        </extensions>
      </trkpt>
      <trkpt lat="24.49256706051528453826904296875" lon="118.19491571746766567230224609375">
        <ele>0</ele>
        <time>2016-12-04T09:33:06.000Z</time>
        <extensions>
          <ns3:TrackPointExtension/>
        </extensions>
      </trkpt>
      <trkpt lat="24.49258415959775447845458984375" lon="118.194908089935779571533203125">
        <ele>0</ele>
        <time>2016-12-04T09:33:11.000Z</time>
        <extensions>
          <ns3:TrackPointExtension/>
        </extensions>
      </trkpt>
      <trkpt lat="24.492601342499256134033203125" lon="118.19490046240389347076416015625">
        <ele>0</ele>
        <time>2016-12-04T09:33:16.000Z</time>
        <extensions>
          <ns3:TrackPointExtension/>
        </extensions>
      </trkpt>
      <trkpt lat="24.49262045323848724365234375" lon="118.1948928348720073699951171875">
        <ele>0</ele>
        <time>2016-12-04T09:33:21.000Z</time>
        <extensions>
          <ns3:TrackPointExtension/>
        </extensions>
      </trkpt>
      <trkpt lat="24.492637552320957183837890625" lon="118.19488520734012126922607421875">
        <ele>0</ele>
        <time>2016-12-04T09:33:26.000Z</time>
        <extensions>
          <ns3:TrackPointExtension/>
        </extensions>
      </trkpt>
      <trkpt lat="24.49265473522245883941650390625" lon="118.19487757980823516845703125">
        <ele>0</ele>
        <time>2016-12-04T09:33:31.000Z</time>
        <extensions>
          <ns3:TrackPointExtension/>
        </extensions>
      </trkpt>
      <trkpt lat="24.49267384596168994903564453125" lon="118.19487757980823516845703125">
        <ele>0</ele>
        <time>2016-12-04T09:33:36.000Z</time>
        <extensions>
          <ns3:TrackPointExtension/>
        </extensions>
      </trkpt>
      <trkpt lat="24.49268910102546215057373046875" lon="118.19486995227634906768798828125">
        <ele>0</ele>
        <time>2016-12-04T09:33:41.000Z</time>
        <extensions>
          <ns3:TrackPointExtension/>
        </extensions>
      </trkpt>
      <trkpt lat="24.4927081279456615447998046875" lon="118.1948623247444629669189453125">
        <ele>0</ele>
        <time>2016-12-04T09:33:46.000Z</time>
        <extensions>
          <ns3:TrackPointExtension/>
        </extensions>
      </trkpt>
      <trkpt lat="24.49272531084716320037841796875" lon="118.19485469721257686614990234375">
        <ele>0</ele>
        <time>2016-12-04T09:33:51.000Z</time>
        <extensions>
          <ns3:TrackPointExtension/>
        </extensions>
      </trkpt>
      <trkpt lat="24.4927463494241237640380859375" lon="118.194847069680690765380859375">
        <ele>0</ele>
        <time>2016-12-04T09:33:56.000Z</time>
        <extensions>
          <ns3:TrackPointExtension/>
        </extensions>
      </trkpt>
      <trkpt lat="24.4927634485065937042236328125" lon="118.19483944214880466461181640625">
        <ele>0</ele>
        <time>2016-12-04T09:34:01.000Z</time>
        <extensions>
          <ns3:TrackPointExtension/>
        </extensions>
      </trkpt>
      <trkpt lat="24.49278448708355426788330078125" lon="118.19482418708503246307373046875">
        <ele>0</ele>
        <time>2016-12-04T09:34:06.000Z</time>
        <extensions>
          <ns3:TrackPointExtension/>
        </extensions>
      </trkpt>
      <trkpt lat="24.49280544184148311614990234375" lon="118.1948165595531463623046875">
        <ele>0</ele>
        <time>2016-12-04T09:34:11.000Z</time>
        <extensions>
          <ns3:TrackPointExtension/>
        </extensions>
      </trkpt>
      <trkpt lat="24.49282455258071422576904296875" lon="118.19480893202126026153564453125">
        <ele>0</ele>
        <time>2016-12-04T09:34:16.000Z</time>
        <extensions>
          <ns3:TrackPointExtension/>
        </extensions>
      </trkpt>
      <trkpt lat="24.49284165166318416595458984375" lon="118.1948013044893741607666015625">
        <ele>0</ele>
        <time>2016-12-04T09:34:21.000Z</time>
        <extensions>
          <ns3:TrackPointExtension/>
        </extensions>
      </trkpt>
      <trkpt lat="24.49286076240241527557373046875" lon="118.194786049425601959228515625">
        <ele>0</ele>
        <time>2016-12-04T09:34:26.000Z</time>
        <extensions>
          <ns3:TrackPointExtension/>
        </extensions>
      </trkpt>
      <trkpt lat="24.4928797893226146697998046875" lon="118.19477842189371585845947265625">
        <ele>0</ele>
        <time>2016-12-04T09:34:31.000Z</time>
        <extensions>
          <ns3:TrackPointExtension/>
        </extensions>
      </trkpt>
      <trkpt lat="24.49289697222411632537841796875" lon="118.19477842189371585845947265625">
        <ele>0</ele>
        <time>2016-12-04T09:34:36.000Z</time>
        <extensions>
          <ns3:TrackPointExtension/>
        </extensions>
      </trkpt>
      <trkpt lat="24.49291415512561798095703125" lon="118.19476316682994365692138671875">
        <ele>0</ele>
        <time>2016-12-04T09:34:41.000Z</time>
        <extensions>
          <ns3:TrackPointExtension/>
        </extensions>
      </trkpt>
      <trkpt lat="24.49293133802711963653564453125" lon="118.19476316682994365692138671875">
        <ele>0</ele>
        <time>2016-12-04T09:34:46.000Z</time>
        <extensions>
          <ns3:TrackPointExtension/>
        </extensions>
      </trkpt>
      <trkpt lat="24.49295229278504848480224609375" lon="118.19475553929805755615234375">
        <ele>0</ele>
        <time>2016-12-04T09:34:51.000Z</time>
        <extensions>
          <ns3:TrackPointExtension/>
        </extensions>
      </trkpt>
      <trkpt lat="24.492969475686550140380859375" lon="118.19474791176617145538330078125">
        <ele>0</ele>
        <time>2016-12-04T09:34:56.000Z</time>
        <extensions>
          <ns3:TrackPointExtension/>
        </extensions>
      </trkpt>
      <trkpt lat="24.49298858642578125" lon="118.1947402842342853546142578125">
        <ele>0</ele>
        <time>2016-12-04T09:35:01.000Z</time>
        <extensions>
          <ns3:TrackPointExtension/>
        </extensions>
      </trkpt>
      <trkpt lat="24.493005685508251190185546875" lon="118.1947402842342853546142578125">
        <ele>0</ele>
        <time>2016-12-04T09:35:06.000Z</time>
        <extensions>
          <ns3:TrackPointExtension/>
        </extensions>
      </trkpt>
      <trkpt lat="24.4930247962474822998046875" lon="118.19473265670239925384521484375">
        <ele>0</ele>
        <time>2016-12-04T09:35:11.000Z</time>
        <extensions>
          <ns3:TrackPointExtension/>
        </extensions>
      </trkpt>
      <trkpt lat="24.49304382316768169403076171875" lon="118.19473265670239925384521484375">
        <ele>0</ele>
        <time>2016-12-04T09:35:16.000Z</time>
        <extensions>
          <ns3:TrackPointExtension/>
        </extensions>
      </trkpt>
      <trkpt lat="24.493061006069183349609375" lon="118.194725029170513153076171875">
        <ele>0</ele>
        <time>2016-12-04T09:35:21.000Z</time>
        <extensions>
          <ns3:TrackPointExtension/>
        </extensions>
      </trkpt>
      <trkpt lat="24.49307818897068500518798828125" lon="118.19471740163862705230712890625">
        <ele>0</ele>
        <time>2016-12-04T09:35:26.000Z</time>
        <extensions>
          <ns3:TrackPointExtension/>
        </extensions>
      </trkpt>
      <trkpt lat="24.49309729970991611480712890625" lon="118.1947097741067409515380859375">
        <ele>0</ele>
        <time>2016-12-04T09:35:31.000Z</time>
        <extensions>
          <ns3:TrackPointExtension/>
        </extensions>
      </trkpt>
      <trkpt lat="24.493116326630115509033203125" lon="118.19470214657485485076904296875">
        <ele>0</ele>
        <time>2016-12-04T09:35:36.000Z</time>
        <extensions>
          <ns3:TrackPointExtension/>
        </extensions>
      </trkpt>
      <trkpt lat="24.49313543736934661865234375" lon="118.19469451904296875">
        <ele>0</ele>
        <time>2016-12-04T09:35:41.000Z</time>
        <extensions>
          <ns3:TrackPointExtension/>
        </extensions>
      </trkpt>
      <trkpt lat="24.49315446428954601287841796875" lon="118.19469451904296875">
        <ele>0</ele>
        <time>2016-12-04T09:35:46.000Z</time>
        <extensions>
          <ns3:TrackPointExtension/>
        </extensions>
      </trkpt>
      <trkpt lat="24.4931755028665065765380859375" lon="118.194686807692050933837890625">
        <ele>0</ele>
        <time>2016-12-04T09:35:51.000Z</time>
        <extensions>
          <ns3:TrackPointExtension/>
        </extensions>
      </trkpt>
      <trkpt lat="24.49319452978670597076416015625" lon="118.194686807692050933837890625">
        <ele>0</ele>
        <time>2016-12-04T09:35:56.000Z</time>
        <extensions>
          <ns3:TrackPointExtension/>
        </extensions>
      </trkpt>
      <trkpt lat="24.49321548454463481903076171875" lon="118.194686807692050933837890625">
        <ele>0</ele>
        <time>2016-12-04T09:36:01.000Z</time>
        <extensions>
          <ns3:TrackPointExtension/>
        </extensions>
      </trkpt>
      <trkpt lat="24.493238367140293121337890625" lon="118.194686807692050933837890625">
        <ele>0</ele>
        <time>2016-12-04T09:36:06.000Z</time>
        <extensions>
          <ns3:TrackPointExtension/>
        </extensions>
      </trkpt>
      <trkpt lat="24.49325940571725368499755859375" lon="118.194686807692050933837890625">
        <ele>0</ele>
        <time>2016-12-04T09:36:11.000Z</time>
        <extensions>
          <ns3:TrackPointExtension/>
        </extensions>
      </trkpt>
      <trkpt lat="24.49328036047518253326416015625" lon="118.194686807692050933837890625">
        <ele>0</ele>
        <time>2016-12-04T09:36:16.000Z</time>
        <extensions>
          <ns3:TrackPointExtension/>
        </extensions>
      </trkpt>
      <trkpt lat="24.4933032430708408355712890625" lon="118.19467918016016483306884765625">
        <ele>0</ele>
        <time>2016-12-04T09:36:21.000Z</time>
        <extensions>
          <ns3:TrackPointExtension/>
        </extensions>
      </trkpt>
      <trkpt lat="24.493324197828769683837890625" lon="118.19467918016016483306884765625">
        <ele>0</ele>
        <time>2016-12-04T09:36:26.000Z</time>
        <extensions>
          <ns3:TrackPointExtension/>
        </extensions>
      </trkpt>
      <trkpt lat="24.49334330856800079345703125" lon="118.19467918016016483306884765625">
        <ele>0</ele>
        <time>2016-12-04T09:36:31.000Z</time>
        <extensions>
          <ns3:TrackPointExtension/>
        </extensions>
      </trkpt>
      <trkpt lat="24.4933642633259296417236328125" lon="118.19467918016016483306884765625">
        <ele>0</ele>
        <time>2016-12-04T09:36:36.000Z</time>
        <extensions>
          <ns3:TrackPointExtension/>
        </extensions>
      </trkpt>
      <trkpt lat="24.49338144622743129730224609375" lon="118.19467918016016483306884765625">
        <ele>0</ele>
        <time>2016-12-04T09:36:41.000Z</time>
        <extensions>
          <ns3:TrackPointExtension/>
        </extensions>
      </trkpt>
      <trkpt lat="24.49340055696666240692138671875" lon="118.19467918016016483306884765625">
        <ele>0</ele>
        <time>2016-12-04T09:36:46.000Z</time>
        <extensions>
          <ns3:TrackPointExtension/>
        </extensions>
      </trkpt>
      <trkpt lat="24.4934195838868618011474609375" lon="118.19467918016016483306884765625">
        <ele>0</ele>
        <time>2016-12-04T09:36:51.000Z</time>
        <extensions>
          <ns3:TrackPointExtension/>
        </extensions>
      </trkpt>
      <trkpt lat="24.4934386946260929107666015625" lon="118.19467918016016483306884765625">
        <ele>0</ele>
        <time>2016-12-04T09:36:56.000Z</time>
        <extensions>
          <ns3:TrackPointExtension/>
        </extensions>
      </trkpt>
      <trkpt lat="24.49345587752759456634521484375" lon="118.194686807692050933837890625">
        <ele>0</ele>
        <time>2016-12-04T09:37:01.000Z</time>
        <extensions>
          <ns3:TrackPointExtension/>
        </extensions>
      </trkpt>
      <trkpt lat="24.49347113259136676788330078125" lon="118.194686807692050933837890625">
        <ele>0</ele>
        <time>2016-12-04T09:37:06.000Z</time>
        <extensions>
          <ns3:TrackPointExtension/>
        </extensions>
      </trkpt>
      <trkpt lat="24.493490159511566162109375" lon="118.194686807692050933837890625">
        <ele>0</ele>
        <time>2016-12-04T09:37:11.000Z</time>
        <extensions>
          <ns3:TrackPointExtension/>
        </extensions>
      </trkpt>
      <trkpt lat="24.49351304210722446441650390625" lon="118.194686807692050933837890625">
        <ele>0</ele>
        <time>2016-12-04T09:37:16.000Z</time>
        <extensions>
          <ns3:TrackPointExtension/>
        </extensions>
      </trkpt>
      <trkpt lat="24.49353785254061222076416015625" lon="118.19469451904296875">
        <ele>0</ele>
        <time>2016-12-04T09:37:21.000Z</time>
        <extensions>
          <ns3:TrackPointExtension/>
        </extensions>
      </trkpt>
      <trkpt lat="24.49355880729854106903076171875" lon="118.19469451904296875">
        <ele>0</ele>
        <time>2016-12-04T09:37:26.000Z</time>
        <extensions>
          <ns3:TrackPointExtension/>
        </extensions>
      </trkpt>
      <trkpt lat="24.493575990200042724609375" lon="118.19470214657485485076904296875">
        <ele>0</ele>
        <time>2016-12-04T09:37:31.000Z</time>
        <extensions>
          <ns3:TrackPointExtension/>
        </extensions>
      </trkpt>
      <trkpt lat="24.49359317310154438018798828125" lon="118.1947097741067409515380859375">
        <ele>0</ele>
        <time>2016-12-04T09:37:36.000Z</time>
        <extensions>
          <ns3:TrackPointExtension/>
        </extensions>
      </trkpt>
      <trkpt lat="24.49361228384077548980712890625" lon="118.194725029170513153076171875">
        <ele>0</ele>
        <time>2016-12-04T09:37:41.000Z</time>
        <extensions>
          <ns3:TrackPointExtension/>
        </extensions>
      </trkpt>
      <trkpt lat="24.49362368322908878326416015625" lon="118.194725029170513153076171875">
        <ele>0</ele>
        <time>2016-12-04T09:37:46.000Z</time>
        <extensions>
          <ns3:TrackPointExtension/>
        </extensions>
      </trkpt>
      <trkpt lat="24.49362938292324542999267578125" lon="118.194725029170513153076171875">
        <ele>0</ele>
        <time>2016-12-04T09:37:51.000Z</time>
        <extensions>
          <ns3:TrackPointExtension/>
        </extensions>
      </trkpt>
      <trkpt lat="24.49362368322908878326416015625" lon="118.19471740163862705230712890625">
        <ele>0</ele>
        <time>2016-12-04T09:37:56.000Z</time>
        <extensions>
          <ns3:TrackPointExtension/>
        </extensions>
      </trkpt>
      <trkpt lat="24.49361798353493213653564453125" lon="118.19471740163862705230712890625">
        <ele>0</ele>
        <time>2016-12-04T09:38:01.000Z</time>
        <extensions>
          <ns3:TrackPointExtension/>
        </extensions>
      </trkpt>
      <trkpt lat="24.493606500327587127685546875" lon="118.194725029170513153076171875">
        <ele>0</ele>
        <time>2016-12-04T09:38:06.000Z</time>
        <extensions>
          <ns3:TrackPointExtension/>
        </extensions>
      </trkpt>
      <trkpt lat="24.49359317310154438018798828125" lon="118.19473265670239925384521484375">
        <ele>0</ele>
        <time>2016-12-04T09:38:11.000Z</time>
        <extensions>
          <ns3:TrackPointExtension/>
        </extensions>
      </trkpt>
      <trkpt lat="24.4935798458755016326904296875" lon="118.19473265670239925384521484375">
        <ele>0</ele>
        <time>2016-12-04T09:38:16.000Z</time>
        <extensions>
          <ns3:TrackPointExtension/>
        </extensions>
      </trkpt>
      <trkpt lat="24.49356266297399997711181640625" lon="118.19473265670239925384521484375">
        <ele>0</ele>
        <time>2016-12-04T09:38:21.000Z</time>
        <extensions>
          <ns3:TrackPointExtension/>
        </extensions>
      </trkpt>
      <trkpt lat="24.493545480072498321533203125" lon="118.19473265670239925384521484375">
        <ele>0</ele>
        <time>2016-12-04T09:38:26.000Z</time>
        <extensions>
          <ns3:TrackPointExtension/>
        </extensions>
      </trkpt>
      <trkpt lat="24.49352829717099666595458984375" lon="118.19473265670239925384521484375">
        <ele>0</ele>
        <time>2016-12-04T09:38:31.000Z</time>
        <extensions>
          <ns3:TrackPointExtension/>
        </extensions>
      </trkpt>
      <trkpt lat="24.493509270250797271728515625" lon="118.19473265670239925384521484375">
        <ele>0</ele>
        <time>2016-12-04T09:38:36.000Z</time>
        <extensions>
          <ns3:TrackPointExtension/>
        </extensions>
      </trkpt>
      <trkpt lat="24.493490159511566162109375" lon="118.19473265670239925384521484375">
        <ele>0</ele>
        <time>2016-12-04T09:38:41.000Z</time>
        <extensions>
          <ns3:TrackPointExtension/>
        </extensions>
      </trkpt>
      <trkpt lat="24.4934692047536373138427734375" lon="118.19473265670239925384521484375">
        <ele>0</ele>
        <time>2016-12-04T09:38:46.000Z</time>
        <extensions>
          <ns3:TrackPointExtension/>
        </extensions>
      </trkpt>
      <trkpt lat="24.493448249995708465576171875" lon="118.19473265670239925384521484375">
        <ele>0</ele>
        <time>2016-12-04T09:38:51.000Z</time>
        <extensions>
          <ns3:TrackPointExtension/>
        </extensions>
      </trkpt>
      <trkpt lat="24.493423439562320709228515625" lon="118.1947402842342853546142578125">
        <ele>0</ele>
        <time>2016-12-04T09:38:56.000Z</time>
        <extensions>
          <ns3:TrackPointExtension/>
        </extensions>
      </trkpt>
      <trkpt lat="24.49340055696666240692138671875" lon="118.19473265670239925384521484375">
        <ele>0</ele>
        <time>2016-12-04T09:39:01.000Z</time>
        <extensions>
          <ns3:TrackPointExtension/>
        </extensions>
      </trkpt>
      <trkpt lat="24.49337574653327465057373046875" lon="118.194725029170513153076171875">
        <ele>0</ele>
        <time>2016-12-04T09:39:06.000Z</time>
        <extensions>
          <ns3:TrackPointExtension/>
        </extensions>
      </trkpt>
      <trkpt lat="24.493349008262157440185546875" lon="118.194725029170513153076171875">
        <ele>0</ele>
        <time>2016-12-04T09:39:11.000Z</time>
        <extensions>
          <ns3:TrackPointExtension/>
        </extensions>
      </trkpt>
      <trkpt lat="24.4933223538100719451904296875" lon="118.194725029170513153076171875">
        <ele>0</ele>
        <time>2016-12-04T09:39:16.000Z</time>
        <extensions>
          <ns3:TrackPointExtension/>
        </extensions>
      </trkpt>
      <trkpt lat="24.4932975433766841888427734375" lon="118.194725029170513153076171875">
        <ele>0</ele>
        <time>2016-12-04T09:39:21.000Z</time>
        <extensions>
          <ns3:TrackPointExtension/>
        </extensions>
      </trkpt>
      <trkpt lat="24.49327466078102588653564453125" lon="118.194725029170513153076171875">
        <ele>0</ele>
        <time>2016-12-04T09:39:26.000Z</time>
        <extensions>
          <ns3:TrackPointExtension/>
        </extensions>
      </trkpt>
      <trkpt lat="24.493251778185367584228515625" lon="118.19471740163862705230712890625">
        <ele>0</ele>
        <time>2016-12-04T09:39:31.000Z</time>
        <extensions>
          <ns3:TrackPointExtension/>
        </extensions>
      </trkpt>
      <trkpt lat="24.4932365231215953826904296875" lon="118.19471740163862705230712890625">
        <ele>0</ele>
        <time>2016-12-04T09:39:36.000Z</time>
        <extensions>
          <ns3:TrackPointExtension/>
        </extensions>
      </trkpt>
      <trkpt lat="24.4932174123823642730712890625" lon="118.1947097741067409515380859375">
        <ele>0</ele>
        <time>2016-12-04T09:39:41.000Z</time>
        <extensions>
          <ns3:TrackPointExtension/>
        </extensions>
      </trkpt>
      <trkpt lat="24.49320978485047817230224609375" lon="118.19470214657485485076904296875">
        <ele>0</ele>
        <time>2016-12-04T09:39:46.000Z</time>
        <extensions>
          <ns3:TrackPointExtension/>
        </extensions>
      </trkpt>
    </trkseg>
  </trk>
</gpx>
