<gpx xmlns:ns3="http://www.garmin.com/xmlschemas/TrackPointExtension/v1" xmlns="http://www.topografix.com/GPX/1/1" xmlns:xsi="http://www.w3.org/2001/XMLSchema-instance" xmlns:ns2="http://www.garmin.com/xmlschemas/GpxExtensions/v3" creator="Garmin Connect" version="1.1" xsi:schemaLocation="http://www.topografix.com/GPX/1/1 http://www.topografix.com/GPX/11.xsd">
  <extensions>
<distance>3068.0</distance>
<average_hr></average_hr>
<average_speed>3.052999973297119</average_speed>
<start_time>2019-02-03T09:18:10+00:00</start_time>
<end_time>2019-02-03T09:34:55+00:00</end_time>
<moving_time>980.0</moving_time>
<elapsed_time>1005.0</elapsed_time>
</extensions>
<metadata>
    <link href="connect.garmin.com">
      <text>Garmin Connect</text>
    </link>
    <time>2019-02-03T09:18:10.000Z</time>
  </metadata>
  <trk>
    <name>泉州市 街道路跑</name>
    <type>street_running</type>
    <trkseg>
      <trkpt lat="25.07409662939608097076416015625" lon="118.50877373479306697845458984375">
        <ele>0</ele>
        <time>2019-02-03T09:18:10.000Z</time>
        <extensions>
          <ns3:TrackPointExtension>
            <ns3:cad>24</ns3:cad>
          </ns3:TrackPointExtension>
        </extensions>
      </trkpt>
      <trkpt lat="25.07409662939608097076416015625" lon="118.50877373479306697845458984375">
        <ele>0</ele>
        <time>2019-02-03T09:18:15.000Z</time>
        <extensions>
          <ns3:TrackPointExtension>
            <ns3:cad>90</ns3:cad>
          </ns3:TrackPointExtension>
        </extensions>
      </trkpt>
      <trkpt lat="25.07409662939608097076416015625" lon="118.50877373479306697845458984375">
        <ele>0</ele>
        <time>2019-02-03T09:18:20.000Z</time>
        <extensions>
          <ns3:TrackPointExtension>
            <ns3:cad>84</ns3:cad>
          </ns3:TrackPointExtension>
        </extensions>
      </trkpt>
      <trkpt lat="25.07420157082378864288330078125" lon="118.50872796960175037384033203125">
        <ele>0</ele>
        <time>2019-02-03T09:18:25.000Z</time>
        <extensions>
          <ns3:TrackPointExtension>
            <ns3:cad>90</ns3:cad>
          </ns3:TrackPointExtension>
        </extensions>
      </trkpt>
      <trkpt lat="25.0742854736745357513427734375" lon="118.5086593218147754669189453125">
        <ele>0</ele>
        <time>2019-02-03T09:18:30.000Z</time>
        <extensions>
          <ns3:TrackPointExtension>
            <ns3:cad>90</ns3:cad>
          </ns3:TrackPointExtension>
        </extensions>
      </trkpt>
      <trkpt lat="25.0743827037513256072998046875" lon="118.50852965377271175384521484375">
        <ele>0</ele>
        <time>2019-02-03T09:18:35.000Z</time>
        <extensions>
          <ns3:TrackPointExtension>
            <ns3:cad>84</ns3:cad>
          </ns3:TrackPointExtension>
        </extensions>
      </trkpt>
      <trkpt lat="25.074436180293560028076171875" lon="118.5084380395710468292236328125">
        <ele>0</ele>
        <time>2019-02-03T09:18:40.000Z</time>
        <extensions>
          <ns3:TrackPointExtension>
            <ns3:cad>90</ns3:cad>
          </ns3:TrackPointExtension>
        </extensions>
      </trkpt>
      <trkpt lat="25.0745486654341220855712890625" lon="118.5083465091884136199951171875">
        <ele>0</ele>
        <time>2019-02-03T09:18:45.000Z</time>
        <extensions>
          <ns3:TrackPointExtension>
            <ns3:cad>90</ns3:cad>
          </ns3:TrackPointExtension>
        </extensions>
      </trkpt>
      <trkpt lat="25.07457733154296875" lon="118.50824735127389430999755859375">
        <ele>0</ele>
        <time>2019-02-03T09:18:50.000Z</time>
        <extensions>
          <ns3:TrackPointExtension>
            <ns3:cad>90</ns3:cad>
          </ns3:TrackPointExtension>
        </extensions>
      </trkpt>
      <trkpt lat="25.074594430625438690185546875" lon="118.508079461753368377685546875">
        <ele>0</ele>
        <time>2019-02-03T09:18:55.000Z</time>
        <extensions>
          <ns3:TrackPointExtension>
            <ns3:cad>90</ns3:cad>
          </ns3:TrackPointExtension>
        </extensions>
      </trkpt>
      <trkpt lat="25.0746230967342853546142578125" lon="118.5079726763069629669189453125">
        <ele>0</ele>
        <time>2019-02-03T09:19:00.000Z</time>
        <extensions>
          <ns3:TrackPointExtension>
            <ns3:cad>90</ns3:cad>
          </ns3:TrackPointExtension>
        </extensions>
      </trkpt>
      <trkpt lat="25.0746898166835308074951171875" lon="118.50778953172266483306884765625">
        <ele>0</ele>
        <time>2019-02-03T09:19:05.000Z</time>
        <extensions>
          <ns3:TrackPointExtension>
            <ns3:cad>90</ns3:cad>
          </ns3:TrackPointExtension>
        </extensions>
      </trkpt>
      <trkpt lat="25.07471655495464801788330078125" lon="118.5076598636806011199951171875">
        <ele>0</ele>
        <time>2019-02-03T09:19:10.000Z</time>
        <extensions>
          <ns3:TrackPointExtension>
            <ns3:cad>90</ns3:cad>
          </ns3:TrackPointExtension>
        </extensions>
      </trkpt>
      <trkpt lat="25.07477757520973682403564453125" lon="118.507492057979106903076171875">
        <ele>0</ele>
        <time>2019-02-03T09:19:15.000Z</time>
        <extensions>
          <ns3:TrackPointExtension>
            <ns3:cad>90</ns3:cad>
          </ns3:TrackPointExtension>
        </extensions>
      </trkpt>
      <trkpt lat="25.0748348236083984375" lon="118.5074080713093280792236328125">
        <ele>0</ele>
        <time>2019-02-03T09:19:20.000Z</time>
        <extensions>
          <ns3:TrackPointExtension>
            <ns3:cad>84</ns3:cad>
          </ns3:TrackPointExtension>
        </extensions>
      </trkpt>
      <trkpt lat="25.07491872645914554595947265625" lon="118.507270775735378265380859375">
        <ele>0</ele>
        <time>2019-02-03T09:19:25.000Z</time>
        <extensions>
          <ns3:TrackPointExtension>
            <ns3:cad>84</ns3:cad>
          </ns3:TrackPointExtension>
        </extensions>
      </trkpt>
      <trkpt lat="25.0749721191823482513427734375" lon="118.50717161782085895538330078125">
        <ele>0</ele>
        <time>2019-02-03T09:19:30.000Z</time>
        <extensions>
          <ns3:TrackPointExtension>
            <ns3:cad>90</ns3:cad>
          </ns3:TrackPointExtension>
        </extensions>
      </trkpt>
      <trkpt lat="25.07503121159970760345458984375" lon="118.507018983364105224609375">
        <ele>0</ele>
        <time>2019-02-03T09:19:35.000Z</time>
        <extensions>
          <ns3:TrackPointExtension>
            <ns3:cad>90</ns3:cad>
          </ns3:TrackPointExtension>
        </extensions>
      </trkpt>
      <trkpt lat="25.07508083246648311614990234375" lon="118.50691982544958591461181640625">
        <ele>0</ele>
        <time>2019-02-03T09:19:40.000Z</time>
        <extensions>
          <ns3:TrackPointExtension>
            <ns3:cad>90</ns3:cad>
          </ns3:TrackPointExtension>
        </extensions>
      </trkpt>
      <trkpt lat="25.07513992488384246826171875" lon="118.5067519359290599822998046875">
        <ele>0</ele>
        <time>2019-02-03T09:19:45.000Z</time>
        <extensions>
          <ns3:TrackPointExtension>
            <ns3:cad>84</ns3:cad>
          </ns3:TrackPointExtension>
        </extensions>
      </trkpt>
      <trkpt lat="25.07519147358834743499755859375" lon="118.50663752295076847076416015625">
        <ele>0</ele>
        <time>2019-02-03T09:19:50.000Z</time>
        <extensions>
          <ns3:TrackPointExtension>
            <ns3:cad>90</ns3:cad>
          </ns3:TrackPointExtension>
        </extensions>
      </trkpt>
      <trkpt lat="25.0752601213753223419189453125" lon="118.50648497231304645538330078125">
        <ele>0</ele>
        <time>2019-02-03T09:19:55.000Z</time>
        <extensions>
          <ns3:TrackPointExtension>
            <ns3:cad>90</ns3:cad>
          </ns3:TrackPointExtension>
        </extensions>
      </trkpt>
      <trkpt lat="25.0753001868724822998046875" lon="118.5063781030476093292236328125">
        <ele>0</ele>
        <time>2019-02-03T09:20:00.000Z</time>
        <extensions>
          <ns3:TrackPointExtension>
            <ns3:cad>84</ns3:cad>
          </ns3:TrackPointExtension>
        </extensions>
      </trkpt>
      <trkpt lat="25.07537839002907276153564453125" lon="118.5062102973461151123046875">
        <ele>0</ele>
        <time>2019-02-03T09:20:05.000Z</time>
        <extensions>
          <ns3:TrackPointExtension>
            <ns3:cad>90</ns3:cad>
          </ns3:TrackPointExtension>
        </extensions>
      </trkpt>
      <trkpt lat="25.07542415522038936614990234375" lon="118.50611113943159580230712890625">
        <ele>0</ele>
        <time>2019-02-03T09:20:10.000Z</time>
        <extensions>
          <ns3:TrackPointExtension>
            <ns3:cad>90</ns3:cad>
          </ns3:TrackPointExtension>
        </extensions>
      </trkpt>
      <trkpt lat="25.0755176134407520294189453125" lon="118.5059737600386142730712890625">
        <ele>0</ele>
        <time>2019-02-03T09:20:15.000Z</time>
        <extensions>
          <ns3:TrackPointExtension>
            <ns3:cad>90</ns3:cad>
          </ns3:TrackPointExtension>
        </extensions>
      </trkpt>
      <trkpt lat="25.0755672343075275421142578125" lon="118.50587460212409496307373046875">
        <ele>0</ele>
        <time>2019-02-03T09:20:20.000Z</time>
        <extensions>
          <ns3:TrackPointExtension>
            <ns3:cad>90</ns3:cad>
          </ns3:TrackPointExtension>
        </extensions>
      </trkpt>
      <trkpt lat="25.07563018240034580230712890625" lon="118.5057219676673412322998046875">
        <ele>0</ele>
        <time>2019-02-03T09:20:25.000Z</time>
        <extensions>
          <ns3:TrackPointExtension>
            <ns3:cad>90</ns3:cad>
          </ns3:TrackPointExtension>
        </extensions>
      </trkpt>
      <trkpt lat="25.07569690234959125518798828125" lon="118.5056304372847080230712890625">
        <ele>0</ele>
        <time>2019-02-03T09:20:30.000Z</time>
        <extensions>
          <ns3:TrackPointExtension>
            <ns3:cad>90</ns3:cad>
          </ns3:TrackPointExtension>
        </extensions>
      </trkpt>
      <trkpt lat="25.07579228840768337249755859375" lon="118.50547025911509990692138671875">
        <ele>0</ele>
        <time>2019-02-03T09:20:35.000Z</time>
        <extensions>
          <ns3:TrackPointExtension>
            <ns3:cad>90</ns3:cad>
          </ns3:TrackPointExtension>
        </extensions>
      </trkpt>
      <trkpt lat="25.075851380825042724609375" lon="118.50536338984966278076171875">
        <ele>0</ele>
        <time>2019-02-03T09:20:40.000Z</time>
        <extensions>
          <ns3:TrackPointExtension>
            <ns3:cad>90</ns3:cad>
          </ns3:TrackPointExtension>
        </extensions>
      </trkpt>
      <trkpt lat="25.07591240108013153076171875" lon="118.50518795661628246307373046875">
        <ele>0</ele>
        <time>2019-02-03T09:20:45.000Z</time>
        <extensions>
          <ns3:TrackPointExtension>
            <ns3:cad>90</ns3:cad>
          </ns3:TrackPointExtension>
        </extensions>
      </trkpt>
      <trkpt lat="25.075956322252750396728515625" lon="118.5050735436379909515380859375">
        <ele>0</ele>
        <time>2019-02-03T09:20:50.000Z</time>
        <extensions>
          <ns3:TrackPointExtension>
            <ns3:cad>90</ns3:cad>
          </ns3:TrackPointExtension>
        </extensions>
      </trkpt>
      <trkpt lat="25.07600401528179645538330078125" lon="118.50489802658557891845703125">
        <ele>0</ele>
        <time>2019-02-03T09:20:55.000Z</time>
        <extensions>
          <ns3:TrackPointExtension>
            <ns3:cad>90</ns3:cad>
          </ns3:TrackPointExtension>
        </extensions>
      </trkpt>
      <trkpt lat="25.07604022510349750518798828125" lon="118.50477598607540130615234375">
        <ele>0</ele>
        <time>2019-02-03T09:21:00.000Z</time>
        <extensions>
          <ns3:TrackPointExtension>
            <ns3:cad>90</ns3:cad>
          </ns3:TrackPointExtension>
        </extensions>
      </trkpt>
      <trkpt lat="25.0760879181325435638427734375" lon="118.504615724086761474609375">
        <ele>0</ele>
        <time>2019-02-03T09:21:05.000Z</time>
        <extensions>
          <ns3:TrackPointExtension>
            <ns3:cad>90</ns3:cad>
          </ns3:TrackPointExtension>
        </extensions>
      </trkpt>
      <trkpt lat="25.0760993175208568572998046875" lon="118.5044936835765838623046875">
        <ele>0</ele>
        <time>2019-02-03T09:21:10.000Z</time>
        <extensions>
          <ns3:TrackPointExtension>
            <ns3:cad>90</ns3:cad>
          </ns3:TrackPointExtension>
        </extensions>
      </trkpt>
      <trkpt lat="25.07613561116158962249755859375" lon="118.5043181665241718292236328125">
        <ele>0</ele>
        <time>2019-02-03T09:21:15.000Z</time>
        <extensions>
          <ns3:TrackPointExtension>
            <ns3:cad>90</ns3:cad>
          </ns3:TrackPointExtension>
        </extensions>
      </trkpt>
      <trkpt lat="25.07617567665874958038330078125" lon="118.50420375354588031768798828125">
        <ele>0</ele>
        <time>2019-02-03T09:21:20.000Z</time>
        <extensions>
          <ns3:TrackPointExtension>
            <ns3:cad>90</ns3:cad>
          </ns3:TrackPointExtension>
        </extensions>
      </trkpt>
      <trkpt lat="25.07623669691383838653564453125" lon="118.5040435753762722015380859375">
        <ele>0</ele>
        <time>2019-02-03T09:21:25.000Z</time>
        <extensions>
          <ns3:TrackPointExtension>
            <ns3:cad>90</ns3:cad>
          </ns3:TrackPointExtension>
        </extensions>
      </trkpt>
      <trkpt lat="25.0762404687702655792236328125" lon="118.503929078578948974609375">
        <ele>0</ele>
        <time>2019-02-03T09:21:30.000Z</time>
        <extensions>
          <ns3:TrackPointExtension>
            <ns3:cad>90</ns3:cad>
          </ns3:TrackPointExtension>
        </extensions>
      </trkpt>
      <trkpt lat="25.0762652792036533355712890625" lon="118.50378415547311305999755859375">
        <ele>0</ele>
        <time>2019-02-03T09:21:35.000Z</time>
        <extensions>
          <ns3:TrackPointExtension>
            <ns3:cad>90</ns3:cad>
          </ns3:TrackPointExtension>
        </extensions>
      </trkpt>
      <trkpt lat="25.0762939453125" lon="118.50368499755859375">
        <ele>0</ele>
        <time>2019-02-03T09:21:40.000Z</time>
        <extensions>
          <ns3:TrackPointExtension>
            <ns3:cad>90</ns3:cad>
          </ns3:TrackPointExtension>
        </extensions>
      </trkpt>
      <trkpt lat="25.0763149000704288482666015625" lon="118.50353236310184001922607421875">
        <ele>0</ele>
        <time>2019-02-03T09:21:45.000Z</time>
        <extensions>
          <ns3:TrackPointExtension>
            <ns3:cad>90</ns3:cad>
          </ns3:TrackPointExtension>
        </extensions>
      </trkpt>
      <trkpt lat="25.07634155452251434326171875" lon="118.50342557765543460845947265625">
        <ele>0</ele>
        <time>2019-02-03T09:21:50.000Z</time>
        <extensions>
          <ns3:TrackPointExtension>
            <ns3:cad>90</ns3:cad>
          </ns3:TrackPointExtension>
        </extensions>
      </trkpt>
      <trkpt lat="25.0763797760009765625" lon="118.50326531566679477691650390625">
        <ele>0</ele>
        <time>2019-02-03T09:21:55.000Z</time>
        <extensions>
          <ns3:TrackPointExtension>
            <ns3:cad>90</ns3:cad>
          </ns3:TrackPointExtension>
        </extensions>
      </trkpt>
      <trkpt lat="25.07640265859663486480712890625" lon="118.50315853022038936614990234375">
        <ele>0</ele>
        <time>2019-02-03T09:22:00.000Z</time>
        <extensions>
          <ns3:TrackPointExtension>
            <ns3:cad>90</ns3:cad>
          </ns3:TrackPointExtension>
        </extensions>
      </trkpt>
      <trkpt lat="25.0764369405806064605712890625" lon="118.502990640699863433837890625">
        <ele>0</ele>
        <time>2019-02-03T09:22:05.000Z</time>
        <extensions>
          <ns3:TrackPointExtension>
            <ns3:cad>90</ns3:cad>
          </ns3:TrackPointExtension>
        </extensions>
      </trkpt>
      <trkpt lat="25.07644842378795146942138671875" lon="118.50287622772157192230224609375">
        <ele>0</ele>
        <time>2019-02-03T09:22:10.000Z</time>
        <extensions>
          <ns3:TrackPointExtension>
            <ns3:cad>90</ns3:cad>
          </ns3:TrackPointExtension>
        </extensions>
      </trkpt>
      <trkpt lat="25.07645982317626476287841796875" lon="118.50269316695630550384521484375">
        <ele>0</ele>
        <time>2019-02-03T09:22:15.000Z</time>
        <extensions>
          <ns3:TrackPointExtension>
            <ns3:cad>90</ns3:cad>
          </ns3:TrackPointExtension>
        </extensions>
      </trkpt>
      <trkpt lat="25.07646367885172367095947265625" lon="118.5025710426270961761474609375">
        <ele>0</ele>
        <time>2019-02-03T09:22:20.000Z</time>
        <extensions>
          <ns3:TrackPointExtension>
            <ns3:cad>84</ns3:cad>
          </ns3:TrackPointExtension>
        </extensions>
      </trkpt>
      <trkpt lat="25.07645982317626476287841796875" lon="118.50238035432994365692138671875">
        <ele>0</ele>
        <time>2019-02-03T09:22:25.000Z</time>
        <extensions>
          <ns3:TrackPointExtension>
            <ns3:cad>90</ns3:cad>
          </ns3:TrackPointExtension>
        </extensions>
      </trkpt>
      <trkpt lat="25.07646367885172367095947265625" lon="118.50225060246884822845458984375">
        <ele>0</ele>
        <time>2019-02-03T09:22:30.000Z</time>
        <extensions>
          <ns3:TrackPointExtension>
            <ns3:cad>90</ns3:cad>
          </ns3:TrackPointExtension>
        </extensions>
      </trkpt>
      <trkpt lat="25.07649033330380916595458984375" lon="118.502059914171695709228515625">
        <ele>0</ele>
        <time>2019-02-03T09:22:35.000Z</time>
        <extensions>
          <ns3:TrackPointExtension>
            <ns3:cad>90</ns3:cad>
          </ns3:TrackPointExtension>
        </extensions>
      </trkpt>
      <trkpt lat="25.076507516205310821533203125" lon="118.50193016231060028076171875">
        <ele>0</ele>
        <time>2019-02-03T09:22:40.000Z</time>
        <extensions>
          <ns3:TrackPointExtension>
            <ns3:cad>90</ns3:cad>
          </ns3:TrackPointExtension>
        </extensions>
      </trkpt>
      <trkpt lat="25.076538026332855224609375" lon="118.50173947401344776153564453125">
        <ele>0</ele>
        <time>2019-02-03T09:22:45.000Z</time>
        <extensions>
          <ns3:TrackPointExtension>
            <ns3:cad>90</ns3:cad>
          </ns3:TrackPointExtension>
        </extensions>
      </trkpt>
      <trkpt lat="25.0765532813966274261474609375" lon="118.50160972215235233306884765625">
        <ele>0</ele>
        <time>2019-02-03T09:22:50.000Z</time>
        <extensions>
          <ns3:TrackPointExtension>
            <ns3:cad>90</ns3:cad>
          </ns3:TrackPointExtension>
        </extensions>
      </trkpt>
      <trkpt lat="25.07657046429812908172607421875" lon="118.50141140632331371307373046875">
        <ele>0</ele>
        <time>2019-02-03T09:22:55.000Z</time>
        <extensions>
          <ns3:TrackPointExtension>
            <ns3:cad>90</ns3:cad>
          </ns3:TrackPointExtension>
        </extensions>
      </trkpt>
      <trkpt lat="25.07658571936190128326416015625" lon="118.50128173828125">
        <ele>0</ele>
        <time>2019-02-03T09:23:00.000Z</time>
        <extensions>
          <ns3:TrackPointExtension>
            <ns3:cad>90</ns3:cad>
          </ns3:TrackPointExtension>
        </extensions>
      </trkpt>
      <trkpt lat="25.07659904658794403076171875" lon="118.50108333863317966461181640625">
        <ele>0</ele>
        <time>2019-02-03T09:23:05.000Z</time>
        <extensions>
          <ns3:TrackPointExtension>
            <ns3:cad>90</ns3:cad>
          </ns3:TrackPointExtension>
        </extensions>
      </trkpt>
      <trkpt lat="25.07659904658794403076171875" lon="118.5009536705911159515380859375">
        <ele>0</ele>
        <time>2019-02-03T09:23:10.000Z</time>
        <extensions>
          <ns3:TrackPointExtension>
            <ns3:cad>90</ns3:cad>
          </ns3:TrackPointExtension>
        </extensions>
      </trkpt>
      <trkpt lat="25.0766143016517162322998046875" lon="118.50077052600681781768798828125">
        <ele>0</ele>
        <time>2019-02-03T09:23:15.000Z</time>
        <extensions>
          <ns3:TrackPointExtension>
            <ns3:cad>90</ns3:cad>
          </ns3:TrackPointExtension>
        </extensions>
      </trkpt>
      <trkpt lat="25.0766334123909473419189453125" lon="118.50064848549664020538330078125">
        <ele>0</ele>
        <time>2019-02-03T09:23:20.000Z</time>
        <extensions>
          <ns3:TrackPointExtension>
            <ns3:cad>96</ns3:cad>
          </ns3:TrackPointExtension>
        </extensions>
      </trkpt>
      <trkpt lat="25.07665629498660564422607421875" lon="118.50045771338045597076416015625">
        <ele>0</ele>
        <time>2019-02-03T09:23:25.000Z</time>
        <extensions>
          <ns3:TrackPointExtension>
            <ns3:cad>90</ns3:cad>
          </ns3:TrackPointExtension>
        </extensions>
      </trkpt>
      <trkpt lat="25.07665629498660564422607421875" lon="118.50033567287027835845947265625">
        <ele>0</ele>
        <time>2019-02-03T09:23:30.000Z</time>
        <extensions>
          <ns3:TrackPointExtension>
            <ns3:cad>96</ns3:cad>
          </ns3:TrackPointExtension>
        </extensions>
      </trkpt>
      <trkpt lat="25.076654367148876190185546875" lon="118.50016015581786632537841796875">
        <ele>0</ele>
        <time>2019-02-03T09:23:35.000Z</time>
        <extensions>
          <ns3:TrackPointExtension>
            <ns3:cad>96</ns3:cad>
          </ns3:TrackPointExtension>
        </extensions>
      </trkpt>
      <trkpt lat="25.07666015066206455230712890625" lon="118.5000457428395748138427734375">
        <ele>0</ele>
        <time>2019-02-03T09:23:40.000Z</time>
        <extensions>
          <ns3:TrackPointExtension>
            <ns3:cad>90</ns3:cad>
          </ns3:TrackPointExtension>
        </extensions>
      </trkpt>
      <trkpt lat="25.07667540572583675384521484375" lon="118.49986259825527667999267578125">
        <ele>0</ele>
        <time>2019-02-03T09:23:45.000Z</time>
        <extensions>
          <ns3:TrackPointExtension>
            <ns3:cad>96</ns3:cad>
          </ns3:TrackPointExtension>
        </extensions>
      </trkpt>
      <trkpt lat="25.0766887329518795013427734375" lon="118.4997329302132129669189453125">
        <ele>0</ele>
        <time>2019-02-03T09:23:50.000Z</time>
        <extensions>
          <ns3:TrackPointExtension>
            <ns3:cad>96</ns3:cad>
          </ns3:TrackPointExtension>
        </extensions>
      </trkpt>
      <trkpt lat="25.07670206017792224884033203125" lon="118.4995421580970287322998046875">
        <ele>0</ele>
        <time>2019-02-03T09:23:55.000Z</time>
        <extensions>
          <ns3:TrackPointExtension>
            <ns3:cad>96</ns3:cad>
          </ns3:TrackPointExtension>
        </extensions>
      </trkpt>
      <trkpt lat="25.076709687709808349609375" lon="118.4994201175868511199951171875">
        <ele>0</ele>
        <time>2019-02-03T09:24:00.000Z</time>
        <extensions>
          <ns3:TrackPointExtension>
            <ns3:cad>96</ns3:cad>
          </ns3:TrackPointExtension>
        </extensions>
      </trkpt>
      <trkpt lat="25.07671161554753780364990234375" lon="118.49922942928969860076904296875">
        <ele>0</ele>
        <time>2019-02-03T09:24:05.000Z</time>
        <extensions>
          <ns3:TrackPointExtension>
            <ns3:cad>90</ns3:cad>
          </ns3:TrackPointExtension>
        </extensions>
      </trkpt>
      <trkpt lat="25.0767001323401927947998046875" lon="118.4991073049604892730712890625">
        <ele>0</ele>
        <time>2019-02-03T09:24:10.000Z</time>
        <extensions>
          <ns3:TrackPointExtension>
            <ns3:cad>96</ns3:cad>
          </ns3:TrackPointExtension>
        </extensions>
      </trkpt>
      <trkpt lat="25.07669066078960895538330078125" lon="118.4989242441952228546142578125">
        <ele>0</ele>
        <time>2019-02-03T09:24:15.000Z</time>
        <extensions>
          <ns3:TrackPointExtension>
            <ns3:cad>96</ns3:cad>
          </ns3:TrackPointExtension>
        </extensions>
      </trkpt>
      <trkpt lat="25.07669828832149505615234375" lon="118.4987944923341274261474609375">
        <ele>0</ele>
        <time>2019-02-03T09:24:20.000Z</time>
        <extensions>
          <ns3:TrackPointExtension>
            <ns3:cad>90</ns3:cad>
          </ns3:TrackPointExtension>
        </extensions>
      </trkpt>
      <trkpt lat="25.07670206017792224884033203125" lon="118.49860380403697490692138671875">
        <ele>0</ele>
        <time>2019-02-03T09:24:25.000Z</time>
        <extensions>
          <ns3:TrackPointExtension>
            <ns3:cad>90</ns3:cad>
          </ns3:TrackPointExtension>
        </extensions>
      </trkpt>
      <trkpt lat="25.0767001323401927947998046875" lon="118.49841303192079067230224609375">
        <ele>0</ele>
        <time>2019-02-03T09:24:30.000Z</time>
        <extensions>
          <ns3:TrackPointExtension>
            <ns3:cad>90</ns3:cad>
          </ns3:TrackPointExtension>
        </extensions>
      </trkpt>
      <trkpt lat="25.07668110541999340057373046875" lon="118.4982986189424991607666015625">
        <ele>0</ele>
        <time>2019-02-03T09:24:35.000Z</time>
        <extensions>
          <ns3:TrackPointExtension>
            <ns3:cad>96</ns3:cad>
          </ns3:TrackPointExtension>
        </extensions>
      </trkpt>
      <trkpt lat="25.0766391120851039886474609375" lon="118.49811547435820102691650390625">
        <ele>0</ele>
        <time>2019-02-03T09:24:40.000Z</time>
        <extensions>
          <ns3:TrackPointExtension>
            <ns3:cad>90</ns3:cad>
          </ns3:TrackPointExtension>
        </extensions>
      </trkpt>
      <trkpt lat="25.0765837915241718292236328125" lon="118.49800868891179561614990234375">
        <ele>0</ele>
        <time>2019-02-03T09:24:45.000Z</time>
        <extensions>
          <ns3:TrackPointExtension>
            <ns3:cad>96</ns3:cad>
          </ns3:TrackPointExtension>
        </extensions>
      </trkpt>
      <trkpt lat="25.0764922611415386199951171875" lon="118.4978637658059597015380859375">
        <ele>0</ele>
        <time>2019-02-03T09:24:50.000Z</time>
        <extensions>
          <ns3:TrackPointExtension>
            <ns3:cad>90</ns3:cad>
          </ns3:TrackPointExtension>
        </extensions>
      </trkpt>
      <trkpt lat="25.07642931304872035980224609375" lon="118.49778740666806697845458984375">
        <ele>0</ele>
        <time>2019-02-03T09:24:55.000Z</time>
        <extensions>
          <ns3:TrackPointExtension>
            <ns3:cad>90</ns3:cad>
          </ns3:TrackPointExtension>
        </extensions>
      </trkpt>
      <trkpt lat="25.07635303772985935211181640625" lon="118.4976424835622310638427734375">
        <ele>0</ele>
        <time>2019-02-03T09:25:00.000Z</time>
        <extensions>
          <ns3:TrackPointExtension>
            <ns3:cad>90</ns3:cad>
          </ns3:TrackPointExtension>
        </extensions>
      </trkpt>
      <trkpt lat="25.076280534267425537109375" lon="118.49755858071148395538330078125">
        <ele>0</ele>
        <time>2019-02-03T09:25:05.000Z</time>
        <extensions>
          <ns3:TrackPointExtension>
            <ns3:cad>90</ns3:cad>
          </ns3:TrackPointExtension>
        </extensions>
      </trkpt>
      <trkpt lat="25.0761851482093334197998046875" lon="118.497436456382274627685546875">
        <ele>0</ele>
        <time>2019-02-03T09:25:10.000Z</time>
        <extensions>
          <ns3:TrackPointExtension>
            <ns3:cad>90</ns3:cad>
          </ns3:TrackPointExtension>
        </extensions>
      </trkpt>
      <trkpt lat="25.07612991146743297576904296875" lon="118.49735255353152751922607421875">
        <ele>0</ele>
        <time>2019-02-03T09:25:15.000Z</time>
        <extensions>
          <ns3:TrackPointExtension>
            <ns3:cad>90</ns3:cad>
          </ns3:TrackPointExtension>
        </extensions>
      </trkpt>
      <trkpt lat="25.076042152941226959228515625" lon="118.4972076304256916046142578125">
        <ele>0</ele>
        <time>2019-02-03T09:25:20.000Z</time>
        <extensions>
          <ns3:TrackPointExtension>
            <ns3:cad>90</ns3:cad>
          </ns3:TrackPointExtension>
        </extensions>
      </trkpt>
      <trkpt lat="25.0759829767048358917236328125" lon="118.4971083886921405792236328125">
        <ele>0</ele>
        <time>2019-02-03T09:25:25.000Z</time>
        <extensions>
          <ns3:TrackPointExtension>
            <ns3:cad>90</ns3:cad>
          </ns3:TrackPointExtension>
        </extensions>
      </trkpt>
      <trkpt lat="25.07589337415993213653564453125" lon="118.49697872065007686614990234375">
        <ele>0</ele>
        <time>2019-02-03T09:25:30.000Z</time>
        <extensions>
          <ns3:TrackPointExtension>
            <ns3:cad>90</ns3:cad>
          </ns3:TrackPointExtension>
        </extensions>
      </trkpt>
      <trkpt lat="25.07583998143672943115234375" lon="118.49687956273555755615234375">
        <ele>0</ele>
        <time>2019-02-03T09:25:35.000Z</time>
        <extensions>
          <ns3:TrackPointExtension>
            <ns3:cad>90</ns3:cad>
          </ns3:TrackPointExtension>
        </extensions>
      </trkpt>
      <trkpt lat="25.0757502950727939605712890625" lon="118.4967345558106899261474609375">
        <ele>0</ele>
        <time>2019-02-03T09:25:40.000Z</time>
        <extensions>
          <ns3:TrackPointExtension>
            <ns3:cad>90</ns3:cad>
          </ns3:TrackPointExtension>
        </extensions>
      </trkpt>
      <trkpt lat="25.07569120265543460845947265625" lon="118.496627770364284515380859375">
        <ele>0</ele>
        <time>2019-02-03T09:25:45.000Z</time>
        <extensions>
          <ns3:TrackPointExtension>
            <ns3:cad>90</ns3:cad>
          </ns3:TrackPointExtension>
        </extensions>
      </trkpt>
      <trkpt lat="25.075593888759613037109375" lon="118.4964904747903347015380859375">
        <ele>0</ele>
        <time>2019-02-03T09:25:50.000Z</time>
        <extensions>
          <ns3:TrackPointExtension>
            <ns3:cad>90</ns3:cad>
          </ns3:TrackPointExtension>
        </extensions>
      </trkpt>
      <trkpt lat="25.075538568198680877685546875" lon="118.49638360552489757537841796875">
        <ele>0</ele>
        <time>2019-02-03T09:25:55.000Z</time>
        <extensions>
          <ns3:TrackPointExtension>
            <ns3:cad>90</ns3:cad>
          </ns3:TrackPointExtension>
        </extensions>
      </trkpt>
      <trkpt lat="25.07545466534793376922607421875" lon="118.49624630995094776153564453125">
        <ele>0</ele>
        <time>2019-02-03T09:26:00.000Z</time>
        <extensions>
          <ns3:TrackPointExtension>
            <ns3:cad>90</ns3:cad>
          </ns3:TrackPointExtension>
        </extensions>
      </trkpt>
      <trkpt lat="25.0754012726247310638427734375" lon="118.49615477956831455230712890625">
        <ele>0</ele>
        <time>2019-02-03T09:26:05.000Z</time>
        <extensions>
          <ns3:TrackPointExtension>
            <ns3:cad>90</ns3:cad>
          </ns3:TrackPointExtension>
        </extensions>
      </trkpt>
      <trkpt lat="25.07529825903475284576416015625" lon="118.4960174001753330230712890625">
        <ele>0</ele>
        <time>2019-02-03T09:26:10.000Z</time>
        <extensions>
          <ns3:TrackPointExtension>
            <ns3:cad>90</ns3:cad>
          </ns3:TrackPointExtension>
        </extensions>
      </trkpt>
      <trkpt lat="25.0752239115536212921142578125" lon="118.4959258697926998138427734375">
        <ele>0</ele>
        <time>2019-02-03T09:26:15.000Z</time>
        <extensions>
          <ns3:TrackPointExtension>
            <ns3:cad>90</ns3:cad>
          </ns3:TrackPointExtension>
        </extensions>
      </trkpt>
      <trkpt lat="25.0751246698200702667236328125" lon="118.49577323533594608306884765625">
        <ele>0</ele>
        <time>2019-02-03T09:26:20.000Z</time>
        <extensions>
          <ns3:TrackPointExtension>
            <ns3:cad>90</ns3:cad>
          </ns3:TrackPointExtension>
        </extensions>
      </trkpt>
      <trkpt lat="25.0750388391315937042236328125" lon="118.49569696001708507537841796875">
        <ele>0</ele>
        <time>2019-02-03T09:26:25.000Z</time>
        <extensions>
          <ns3:TrackPointExtension>
            <ns3:cad>90</ns3:cad>
          </ns3:TrackPointExtension>
        </extensions>
      </trkpt>
      <trkpt lat="25.07490531541407108306884765625" lon="118.4955825470387935638427734375">
        <ele>0</ele>
        <time>2019-02-03T09:26:30.000Z</time>
        <extensions>
          <ns3:TrackPointExtension>
            <ns3:cad>96</ns3:cad>
          </ns3:TrackPointExtension>
        </extensions>
      </trkpt>
      <trkpt lat="25.07480808533728122711181640625" lon="118.49549864418804645538330078125">
        <ele>0</ele>
        <time>2019-02-03T09:26:35.000Z</time>
        <extensions>
          <ns3:TrackPointExtension>
            <ns3:cad>90</ns3:cad>
          </ns3:TrackPointExtension>
        </extensions>
      </trkpt>
      <trkpt lat="25.0746841169893741607666015625" lon="118.4953612647950649261474609375">
        <ele>0</ele>
        <time>2019-02-03T09:26:40.000Z</time>
        <extensions>
          <ns3:TrackPointExtension>
            <ns3:cad>90</ns3:cad>
          </ns3:TrackPointExtension>
        </extensions>
      </trkpt>
      <trkpt lat="25.074583031237125396728515625" lon="118.49528498947620391845703125">
        <ele>0</ele>
        <time>2019-02-03T09:26:45.000Z</time>
        <extensions>
          <ns3:TrackPointExtension>
            <ns3:cad>90</ns3:cad>
          </ns3:TrackPointExtension>
        </extensions>
      </trkpt>
      <trkpt lat="25.074411369860172271728515625" lon="118.49518583156168460845947265625">
        <ele>0</ele>
        <time>2019-02-03T09:26:50.000Z</time>
        <extensions>
          <ns3:TrackPointExtension>
            <ns3:cad>90</ns3:cad>
          </ns3:TrackPointExtension>
        </extensions>
      </trkpt>
      <trkpt lat="25.07428924553096294403076171875" lon="118.4951476939022541046142578125">
        <ele>0</ele>
        <time>2019-02-03T09:26:55.000Z</time>
        <extensions>
          <ns3:TrackPointExtension>
            <ns3:cad>96</ns3:cad>
          </ns3:TrackPointExtension>
        </extensions>
      </trkpt>
      <trkpt lat="25.0741081126034259796142578125" lon="118.49510955624282360076904296875">
        <ele>0</ele>
        <time>2019-02-03T09:27:00.000Z</time>
        <extensions>
          <ns3:TrackPointExtension>
            <ns3:cad>96</ns3:cad>
          </ns3:TrackPointExtension>
        </extensions>
      </trkpt>
      <trkpt lat="25.07398598827421665191650390625" lon="118.49507133476436138153076171875">
        <ele>0</ele>
        <time>2019-02-03T09:27:05.000Z</time>
        <extensions>
          <ns3:TrackPointExtension>
            <ns3:cad>90</ns3:cad>
          </ns3:TrackPointExtension>
        </extensions>
      </trkpt>
      <trkpt lat="25.07379337213933467864990234375" lon="118.4950484521687030792236328125">
        <ele>0</ele>
        <time>2019-02-03T09:27:10.000Z</time>
        <extensions>
          <ns3:TrackPointExtension>
            <ns3:cad>96</ns3:cad>
          </ns3:TrackPointExtension>
        </extensions>
      </trkpt>
      <trkpt lat="25.07367133162915706634521484375" lon="118.4950484521687030792236328125">
        <ele>0</ele>
        <time>2019-02-03T09:27:15.000Z</time>
        <extensions>
          <ns3:TrackPointExtension>
            <ns3:cad>96</ns3:cad>
          </ns3:TrackPointExtension>
        </extensions>
      </trkpt>
      <trkpt lat="25.073492042720317840576171875" lon="118.495033197104930877685546875">
        <ele>0</ele>
        <time>2019-02-03T09:27:20.000Z</time>
        <extensions>
          <ns3:TrackPointExtension>
            <ns3:cad>96</ns3:cad>
          </ns3:TrackPointExtension>
        </extensions>
      </trkpt>
      <trkpt lat="25.0733661465346813201904296875" lon="118.49501031450927257537841796875">
        <ele>0</ele>
        <time>2019-02-03T09:27:25.000Z</time>
        <extensions>
          <ns3:TrackPointExtension>
            <ns3:cad>90</ns3:cad>
          </ns3:TrackPointExtension>
        </extensions>
      </trkpt>
      <trkpt lat="25.0731753744184970855712890625" lon="118.49497980438172817230224609375">
        <ele>0</ele>
        <time>2019-02-03T09:27:30.000Z</time>
        <extensions>
          <ns3:TrackPointExtension>
            <ns3:cad>90</ns3:cad>
          </ns3:TrackPointExtension>
        </extensions>
      </trkpt>
      <trkpt lat="25.073049478232860565185546875" lon="118.4949569217860698699951171875">
        <ele>0</ele>
        <time>2019-02-03T09:27:35.000Z</time>
        <extensions>
          <ns3:TrackPointExtension>
            <ns3:cad>90</ns3:cad>
          </ns3:TrackPointExtension>
        </extensions>
      </trkpt>
      <trkpt lat="25.07285878993570804595947265625" lon="118.4949264116585254669189453125">
        <ele>0</ele>
        <time>2019-02-03T09:27:40.000Z</time>
        <extensions>
          <ns3:TrackPointExtension>
            <ns3:cad>90</ns3:cad>
          </ns3:TrackPointExtension>
        </extensions>
      </trkpt>
      <trkpt lat="25.07273289375007152557373046875" lon="118.4948959015309810638427734375">
        <ele>0</ele>
        <time>2019-02-03T09:27:45.000Z</time>
        <extensions>
          <ns3:TrackPointExtension>
            <ns3:cad>90</ns3:cad>
          </ns3:TrackPointExtension>
        </extensions>
      </trkpt>
      <trkpt lat="25.0725536048412322998046875" lon="118.49494929425418376922607421875">
        <ele>0</ele>
        <time>2019-02-03T09:27:50.000Z</time>
        <extensions>
          <ns3:TrackPointExtension>
            <ns3:cad>90</ns3:cad>
          </ns3:TrackPointExtension>
        </extensions>
      </trkpt>
      <trkpt lat="25.07243533618748188018798828125" lon="118.4949874319136142730712890625">
        <ele>0</ele>
        <time>2019-02-03T09:27:55.000Z</time>
        <extensions>
          <ns3:TrackPointExtension>
            <ns3:cad>90</ns3:cad>
          </ns3:TrackPointExtension>
        </extensions>
      </trkpt>
      <trkpt lat="25.07226367481052875518798828125" lon="118.494911156594753265380859375">
        <ele>0</ele>
        <time>2019-02-03T09:28:00.000Z</time>
        <extensions>
          <ns3:TrackPointExtension>
            <ns3:cad>90</ns3:cad>
          </ns3:TrackPointExtension>
        </extensions>
      </trkpt>
      <trkpt lat="25.0721511058509349822998046875" lon="118.4948653914034366607666015625">
        <ele>0</ele>
        <time>2019-02-03T09:28:05.000Z</time>
        <extensions>
          <ns3:TrackPointExtension>
            <ns3:cad>96</ns3:cad>
          </ns3:TrackPointExtension>
        </extensions>
      </trkpt>
      <trkpt lat="25.07197567261755466461181640625" lon="118.49485776387155055999755859375">
        <ele>0</ele>
        <time>2019-02-03T09:28:10.000Z</time>
        <extensions>
          <ns3:TrackPointExtension>
            <ns3:cad>90</ns3:cad>
          </ns3:TrackPointExtension>
        </extensions>
      </trkpt>
      <trkpt lat="25.07185933180153369903564453125" lon="118.49484250880777835845947265625">
        <ele>0</ele>
        <time>2019-02-03T09:28:15.000Z</time>
        <extensions>
          <ns3:TrackPointExtension>
            <ns3:cad>90</ns3:cad>
          </ns3:TrackPointExtension>
        </extensions>
      </trkpt>
      <trkpt lat="25.0716800428926944732666015625" lon="118.4948348812758922576904296875">
        <ele>0</ele>
        <time>2019-02-03T09:28:20.000Z</time>
        <extensions>
          <ns3:TrackPointExtension>
            <ns3:cad>96</ns3:cad>
          </ns3:TrackPointExtension>
        </extensions>
      </trkpt>
      <trkpt lat="25.071565546095371246337890625" lon="118.49481962621212005615234375">
        <ele>0</ele>
        <time>2019-02-03T09:28:25.000Z</time>
        <extensions>
          <ns3:TrackPointExtension>
            <ns3:cad>90</ns3:cad>
          </ns3:TrackPointExtension>
        </extensions>
      </trkpt>
      <trkpt lat="25.0713977403938770294189453125" lon="118.49478148855268955230712890625">
        <ele>0</ele>
        <time>2019-02-03T09:28:30.000Z</time>
        <extensions>
          <ns3:TrackPointExtension>
            <ns3:cad>96</ns3:cad>
          </ns3:TrackPointExtension>
        </extensions>
      </trkpt>
      <trkpt lat="25.0712870992720127105712890625" lon="118.49474326707422733306884765625">
        <ele>0</ele>
        <time>2019-02-03T09:28:35.000Z</time>
        <extensions>
          <ns3:TrackPointExtension>
            <ns3:cad>90</ns3:cad>
          </ns3:TrackPointExtension>
        </extensions>
      </trkpt>
      <trkpt lat="25.07110781036317348480224609375" lon="118.49468224681913852691650390625">
        <ele>0</ele>
        <time>2019-02-03T09:28:40.000Z</time>
        <extensions>
          <ns3:TrackPointExtension>
            <ns3:cad>96</ns3:cad>
          </ns3:TrackPointExtension>
        </extensions>
      </trkpt>
      <trkpt lat="25.07098384201526641845703125" lon="118.49466699175536632537841796875">
        <ele>0</ele>
        <time>2019-02-03T09:28:45.000Z</time>
        <extensions>
          <ns3:TrackPointExtension>
            <ns3:cad>90</ns3:cad>
          </ns3:TrackPointExtension>
        </extensions>
      </trkpt>
      <trkpt lat="25.07079885341227054595947265625" lon="118.494659364223480224609375">
        <ele>0</ele>
        <time>2019-02-03T09:28:50.000Z</time>
        <extensions>
          <ns3:TrackPointExtension>
            <ns3:cad>90</ns3:cad>
          </ns3:TrackPointExtension>
        </extensions>
      </trkpt>
      <trkpt lat="25.0706748850643634796142578125" lon="118.49465173669159412384033203125">
        <ele>0</ele>
        <time>2019-02-03T09:28:55.000Z</time>
        <extensions>
          <ns3:TrackPointExtension>
            <ns3:cad>96</ns3:cad>
          </ns3:TrackPointExtension>
        </extensions>
      </trkpt>
      <trkpt lat="25.0704898126423358917236328125" lon="118.49460597150027751922607421875">
        <ele>0</ele>
        <time>2019-02-03T09:29:00.000Z</time>
        <extensions>
          <ns3:TrackPointExtension>
            <ns3:cad>90</ns3:cad>
          </ns3:TrackPointExtension>
        </extensions>
      </trkpt>
      <trkpt lat="25.0703677721321582794189453125" lon="118.49457546137273311614990234375">
        <ele>0</ele>
        <time>2019-02-03T09:29:05.000Z</time>
        <extensions>
          <ns3:TrackPointExtension>
            <ns3:cad>90</ns3:cad>
          </ns3:TrackPointExtension>
        </extensions>
      </trkpt>
      <trkpt lat="25.07018278352916240692138671875" lon="118.4945220686495304107666015625">
        <ele>0</ele>
        <time>2019-02-03T09:29:10.000Z</time>
        <extensions>
          <ns3:TrackPointExtension>
            <ns3:cad>90</ns3:cad>
          </ns3:TrackPointExtension>
        </extensions>
      </trkpt>
      <trkpt lat="25.07005688734352588653564453125" lon="118.49449918605387210845947265625">
        <ele>0</ele>
        <time>2019-02-03T09:29:15.000Z</time>
        <extensions>
          <ns3:TrackPointExtension>
            <ns3:cad>90</ns3:cad>
          </ns3:TrackPointExtension>
        </extensions>
      </trkpt>
      <trkpt lat="25.0698928534984588623046875" lon="118.494506813585758209228515625">
        <ele>0</ele>
        <time>2019-02-03T09:29:20.000Z</time>
        <extensions>
          <ns3:TrackPointExtension>
            <ns3:cad>90</ns3:cad>
          </ns3:TrackPointExtension>
        </extensions>
      </trkpt>
      <trkpt lat="25.0697860680520534515380859375" lon="118.4944915585219860076904296875">
        <ele>0</ele>
        <time>2019-02-03T09:29:25.000Z</time>
        <extensions>
          <ns3:TrackPointExtension>
            <ns3:cad>90</ns3:cad>
          </ns3:TrackPointExtension>
        </extensions>
      </trkpt>
      <trkpt lat="25.06962387822568416595458984375" lon="118.49445342086255550384521484375">
        <ele>0</ele>
        <time>2019-02-03T09:29:30.000Z</time>
        <extensions>
          <ns3:TrackPointExtension>
            <ns3:cad>90</ns3:cad>
          </ns3:TrackPointExtension>
        </extensions>
      </trkpt>
      <trkpt lat="25.06951139308512210845947265625" lon="118.49442291073501110076904296875">
        <ele>0</ele>
        <time>2019-02-03T09:29:35.000Z</time>
        <extensions>
          <ns3:TrackPointExtension>
            <ns3:cad>90</ns3:cad>
          </ns3:TrackPointExtension>
        </extensions>
      </trkpt>
      <trkpt lat="25.0693435035645961761474609375" lon="118.49439994432032108306884765625">
        <ele>0</ele>
        <time>2019-02-03T09:29:40.000Z</time>
        <extensions>
          <ns3:TrackPointExtension>
            <ns3:cad>96</ns3:cad>
          </ns3:TrackPointExtension>
        </extensions>
      </trkpt>
      <trkpt lat="25.06922909058630466461181640625" lon="118.49437706172466278076171875">
        <ele>0</ele>
        <time>2019-02-03T09:29:45.000Z</time>
        <extensions>
          <ns3:TrackPointExtension>
            <ns3:cad>90</ns3:cad>
          </ns3:TrackPointExtension>
        </extensions>
      </trkpt>
      <trkpt lat="25.06904787383973598480224609375" lon="118.49432366900146007537841796875">
        <ele>0</ele>
        <time>2019-02-03T09:29:50.000Z</time>
        <extensions>
          <ns3:TrackPointExtension>
            <ns3:cad>90</ns3:cad>
          </ns3:TrackPointExtension>
        </extensions>
      </trkpt>
      <trkpt lat="25.068929605185985565185546875" lon="118.49430841393768787384033203125">
        <ele>0</ele>
        <time>2019-02-03T09:29:55.000Z</time>
        <extensions>
          <ns3:TrackPointExtension>
            <ns3:cad>90</ns3:cad>
          </ns3:TrackPointExtension>
        </extensions>
      </trkpt>
      <trkpt lat="25.06876942701637744903564453125" lon="118.49429315887391567230224609375">
        <ele>0</ele>
        <time>2019-02-03T09:30:00.000Z</time>
        <extensions>
          <ns3:TrackPointExtension>
            <ns3:cad>90</ns3:cad>
          </ns3:TrackPointExtension>
        </extensions>
      </trkpt>
      <trkpt lat="25.06865878589451313018798828125" lon="118.49427790381014347076416015625">
        <ele>0</ele>
        <time>2019-02-03T09:30:05.000Z</time>
        <extensions>
          <ns3:TrackPointExtension>
            <ns3:cad>84</ns3:cad>
          </ns3:TrackPointExtension>
        </extensions>
      </trkpt>
      <trkpt lat="25.06849282421171665191650390625" lon="118.494285531342029571533203125">
        <ele>0</ele>
        <time>2019-02-03T09:30:10.000Z</time>
        <extensions>
          <ns3:TrackPointExtension>
            <ns3:cad>84</ns3:cad>
          </ns3:TrackPointExtension>
        </extensions>
      </trkpt>
      <trkpt lat="25.06838033907115459442138671875" lon="118.4943007864058017730712890625">
        <ele>0</ele>
        <time>2019-02-03T09:30:15.000Z</time>
        <extensions>
          <ns3:TrackPointExtension>
            <ns3:cad>90</ns3:cad>
          </ns3:TrackPointExtension>
        </extensions>
      </trkpt>
      <trkpt lat="25.06821052171289920806884765625" lon="118.494316041469573974609375">
        <ele>0</ele>
        <time>2019-02-03T09:30:20.000Z</time>
        <extensions>
          <ns3:TrackPointExtension>
            <ns3:cad>90</ns3:cad>
          </ns3:TrackPointExtension>
        </extensions>
      </trkpt>
      <trkpt lat="25.068096108734607696533203125" lon="118.49432366900146007537841796875">
        <ele>0</ele>
        <time>2019-02-03T09:30:25.000Z</time>
        <extensions>
          <ns3:TrackPointExtension>
            <ns3:cad>90</ns3:cad>
          </ns3:TrackPointExtension>
        </extensions>
      </trkpt>
      <trkpt lat="25.06792637519538402557373046875" lon="118.49435417912900447845458984375">
        <ele>0</ele>
        <time>2019-02-03T09:30:30.000Z</time>
        <extensions>
          <ns3:TrackPointExtension>
            <ns3:cad>90</ns3:cad>
          </ns3:TrackPointExtension>
        </extensions>
      </trkpt>
      <trkpt lat="25.06780617870390415191650390625" lon="118.49436943419277667999267578125">
        <ele>0</ele>
        <time>2019-02-03T09:30:35.000Z</time>
        <extensions>
          <ns3:TrackPointExtension>
            <ns3:cad>90</ns3:cad>
          </ns3:TrackPointExtension>
        </extensions>
      </trkpt>
      <trkpt lat="25.06761356256902217864990234375" lon="118.4943618066608905792236328125">
        <ele>0</ele>
        <time>2019-02-03T09:30:40.000Z</time>
        <extensions>
          <ns3:TrackPointExtension>
            <ns3:cad>84</ns3:cad>
          </ns3:TrackPointExtension>
        </extensions>
      </trkpt>
      <trkpt lat="25.06752773188054561614990234375" lon="118.4942702762782573699951171875">
        <ele>0</ele>
        <time>2019-02-03T09:30:45.000Z</time>
        <extensions>
          <ns3:TrackPointExtension>
            <ns3:cad>90</ns3:cad>
          </ns3:TrackPointExtension>
        </extensions>
      </trkpt>
      <trkpt lat="25.06761926226317882537841796875" lon="118.4940872155129909515380859375">
        <ele>0</ele>
        <time>2019-02-03T09:30:50.000Z</time>
        <extensions>
          <ns3:TrackPointExtension>
            <ns3:cad>96</ns3:cad>
          </ns3:TrackPointExtension>
        </extensions>
      </trkpt>
      <trkpt lat="25.06769553758203983306884765625" lon="118.4939879737794399261474609375">
        <ele>0</ele>
        <time>2019-02-03T09:30:55.000Z</time>
        <extensions>
          <ns3:TrackPointExtension>
            <ns3:cad>90</ns3:cad>
          </ns3:TrackPointExtension>
        </extensions>
      </trkpt>
      <trkpt lat="25.06780617870390415191650390625" lon="118.49382779560983180999755859375">
        <ele>0</ele>
        <time>2019-02-03T09:31:00.000Z</time>
        <extensions>
          <ns3:TrackPointExtension>
            <ns3:cad>90</ns3:cad>
          </ns3:TrackPointExtension>
        </extensions>
      </trkpt>
      <trkpt lat="25.06789016537368297576904296875" lon="118.49373626522719860076904296875">
        <ele>0</ele>
        <time>2019-02-03T09:31:05.000Z</time>
        <extensions>
          <ns3:TrackPointExtension>
            <ns3:cad>90</ns3:cad>
          </ns3:TrackPointExtension>
        </extensions>
      </trkpt>
      <trkpt lat="25.0680045783519744873046875" lon="118.493598885834217071533203125">
        <ele>0</ele>
        <time>2019-02-03T09:31:10.000Z</time>
        <extensions>
          <ns3:TrackPointExtension>
            <ns3:cad>90</ns3:cad>
          </ns3:TrackPointExtension>
        </extensions>
      </trkpt>
      <trkpt lat="25.06806559860706329345703125" lon="118.4934921003878116607666015625">
        <ele>0</ele>
        <time>2019-02-03T09:31:15.000Z</time>
        <extensions>
          <ns3:TrackPointExtension>
            <ns3:cad>90</ns3:cad>
          </ns3:TrackPointExtension>
        </extensions>
      </trkpt>
      <trkpt lat="25.068145729601383209228515625" lon="118.49333946593105792999267578125">
        <ele>0</ele>
        <time>2019-02-03T09:31:20.000Z</time>
        <extensions>
          <ns3:TrackPointExtension>
            <ns3:cad>90</ns3:cad>
          </ns3:TrackPointExtension>
        </extensions>
      </trkpt>
      <trkpt lat="25.06820105016231536865234375" lon="118.49322505295276641845703125">
        <ele>0</ele>
        <time>2019-02-03T09:31:25.000Z</time>
        <extensions>
          <ns3:TrackPointExtension>
            <ns3:cad>96</ns3:cad>
          </ns3:TrackPointExtension>
        </extensions>
      </trkpt>
      <trkpt lat="25.06824488751590251922607421875" lon="118.49304961971938610076904296875">
        <ele>0</ele>
        <time>2019-02-03T09:31:30.000Z</time>
        <extensions>
          <ns3:TrackPointExtension>
            <ns3:cad>96</ns3:cad>
          </ns3:TrackPointExtension>
        </extensions>
      </trkpt>
      <trkpt lat="25.0683116912841796875" lon="118.49295037798583507537841796875">
        <ele>0</ele>
        <time>2019-02-03T09:31:35.000Z</time>
        <extensions>
          <ns3:TrackPointExtension>
            <ns3:cad>90</ns3:cad>
          </ns3:TrackPointExtension>
        </extensions>
      </trkpt>
      <trkpt lat="25.06839173845946788787841796875" lon="118.492790199816226959228515625">
        <ele>0</ele>
        <time>2019-02-03T09:31:40.000Z</time>
        <extensions>
          <ns3:TrackPointExtension>
            <ns3:cad>96</ns3:cad>
          </ns3:TrackPointExtension>
        </extensions>
      </trkpt>
      <trkpt lat="25.0684337317943572998046875" lon="118.49268333055078983306884765625">
        <ele>0</ele>
        <time>2019-02-03T09:31:45.000Z</time>
        <extensions>
          <ns3:TrackPointExtension>
            <ns3:cad>60</ns3:cad>
          </ns3:TrackPointExtension>
        </extensions>
      </trkpt>
      <trkpt lat="25.0684986077249050140380859375" lon="118.4925841726362705230712890625">
        <ele>0</ele>
        <time>2019-02-03T09:31:50.000Z</time>
        <extensions>
          <ns3:TrackPointExtension>
            <ns3:cad>84</ns3:cad>
          </ns3:TrackPointExtension>
        </extensions>
      </trkpt>
      <trkpt lat="25.06852333433926105499267578125" lon="118.49254603497684001922607421875">
        <ele>0</ele>
        <time>2019-02-03T09:31:55.000Z</time>
        <extensions>
          <ns3:TrackPointExtension>
            <ns3:cad>96</ns3:cad>
          </ns3:TrackPointExtension>
        </extensions>
      </trkpt>
      <trkpt lat="25.068599693477153778076171875" lon="118.492385856807231903076171875">
        <ele>0</ele>
        <time>2019-02-03T09:32:00.000Z</time>
        <extensions>
          <ns3:TrackPointExtension>
            <ns3:cad>90</ns3:cad>
          </ns3:TrackPointExtension>
        </extensions>
      </trkpt>
      <trkpt lat="25.06855770014226436614990234375" lon="118.4922713600099086761474609375">
        <ele>0</ele>
        <time>2019-02-03T09:32:05.000Z</time>
        <extensions>
          <ns3:TrackPointExtension>
            <ns3:cad>90</ns3:cad>
          </ns3:TrackPointExtension>
        </extensions>
      </trkpt>
      <trkpt lat="25.06840129382908344268798828125" lon="118.49215694703161716461181640625">
        <ele>0</ele>
        <time>2019-02-03T09:32:10.000Z</time>
        <extensions>
          <ns3:TrackPointExtension>
            <ns3:cad>96</ns3:cad>
          </ns3:TrackPointExtension>
        </extensions>
      </trkpt>
      <trkpt lat="25.0682773254811763763427734375" lon="118.492103554308414459228515625">
        <ele>0</ele>
        <time>2019-02-03T09:32:15.000Z</time>
        <extensions>
          <ns3:TrackPointExtension>
            <ns3:cad>96</ns3:cad>
          </ns3:TrackPointExtension>
        </extensions>
      </trkpt>
      <trkpt lat="25.068096108734607696533203125" lon="118.49201202392578125">
        <ele>0</ele>
        <time>2019-02-03T09:32:20.000Z</time>
        <extensions>
          <ns3:TrackPointExtension>
            <ns3:cad>96</ns3:cad>
          </ns3:TrackPointExtension>
        </extensions>
      </trkpt>
      <trkpt lat="25.06798169575631618499755859375" lon="118.491943292319774627685546875">
        <ele>0</ele>
        <time>2019-02-03T09:32:25.000Z</time>
        <extensions>
          <ns3:TrackPointExtension>
            <ns3:cad>96</ns3:cad>
          </ns3:TrackPointExtension>
        </extensions>
      </trkpt>
      <trkpt lat="25.067813806235790252685546875" lon="118.49182887934148311614990234375">
        <ele>0</ele>
        <time>2019-02-03T09:32:30.000Z</time>
        <extensions>
          <ns3:TrackPointExtension>
            <ns3:cad>96</ns3:cad>
          </ns3:TrackPointExtension>
        </extensions>
      </trkpt>
      <trkpt lat="25.0677070207893848419189453125" lon="118.49175260402262210845947265625">
        <ele>0</ele>
        <time>2019-02-03T09:32:35.000Z</time>
        <extensions>
          <ns3:TrackPointExtension>
            <ns3:cad>66</ns3:cad>
          </ns3:TrackPointExtension>
        </extensions>
      </trkpt>
      <trkpt lat="25.067752785980701446533203125" lon="118.4917754866182804107666015625">
        <ele>0</ele>
        <time>2019-02-03T09:32:40.000Z</time>
        <extensions>
          <ns3:TrackPointExtension>
            <ns3:cad>12</ns3:cad>
          </ns3:TrackPointExtension>
        </extensions>
      </trkpt>
      <trkpt lat="25.06776426918804645538330078125" lon="118.49176785908639430999755859375">
        <ele>0</ele>
        <time>2019-02-03T09:32:45.000Z</time>
        <extensions>
          <ns3:TrackPointExtension/>
        </extensions>
      </trkpt>
      <trkpt lat="25.06777566857635974884033203125" lon="118.49176785908639430999755859375">
        <ele>0</ele>
        <time>2019-02-03T09:32:50.000Z</time>
        <extensions>
          <ns3:TrackPointExtension>
            <ns3:cad>84</ns3:cad>
          </ns3:TrackPointExtension>
        </extensions>
      </trkpt>
      <trkpt lat="25.0677070207893848419189453125" lon="118.49172209389507770538330078125">
        <ele>0</ele>
        <time>2019-02-03T09:32:55.000Z</time>
        <extensions>
          <ns3:TrackPointExtension>
            <ns3:cad>90</ns3:cad>
          </ns3:TrackPointExtension>
        </extensions>
      </trkpt>
      <trkpt lat="25.06754684261977672576904296875" lon="118.49162285216152667999267578125">
        <ele>0</ele>
        <time>2019-02-03T09:33:00.000Z</time>
        <extensions>
          <ns3:TrackPointExtension>
            <ns3:cad>90</ns3:cad>
          </ns3:TrackPointExtension>
        </extensions>
      </trkpt>
      <trkpt lat="25.0674247182905673980712890625" lon="118.49154657684266567230224609375">
        <ele>0</ele>
        <time>2019-02-03T09:33:05.000Z</time>
        <extensions>
          <ns3:TrackPointExtension>
            <ns3:cad>90</ns3:cad>
          </ns3:TrackPointExtension>
        </extensions>
      </trkpt>
      <trkpt lat="25.067237801849842071533203125" lon="118.4914016537368297576904296875">
        <ele>0</ele>
        <time>2019-02-03T09:33:10.000Z</time>
        <extensions>
          <ns3:TrackPointExtension>
            <ns3:cad>90</ns3:cad>
          </ns3:TrackPointExtension>
        </extensions>
      </trkpt>
      <trkpt lat="25.0671119056642055511474609375" lon="118.49132537841796875">
        <ele>0</ele>
        <time>2019-02-03T09:33:15.000Z</time>
        <extensions>
          <ns3:TrackPointExtension>
            <ns3:cad>96</ns3:cad>
          </ns3:TrackPointExtension>
        </extensions>
      </trkpt>
      <trkpt lat="25.06694979965686798095703125" lon="118.4912108816206455230712890625">
        <ele>0</ele>
        <time>2019-02-03T09:33:20.000Z</time>
        <extensions>
          <ns3:TrackPointExtension>
            <ns3:cad>96</ns3:cad>
          </ns3:TrackPointExtension>
        </extensions>
      </trkpt>
      <trkpt lat="25.0668487139046192169189453125" lon="118.491134606301784515380859375">
        <ele>0</ele>
        <time>2019-02-03T09:33:25.000Z</time>
        <extensions>
          <ns3:TrackPointExtension>
            <ns3:cad>90</ns3:cad>
          </ns3:TrackPointExtension>
        </extensions>
      </trkpt>
      <trkpt lat="25.06670379079878330230712890625" lon="118.49105070345103740692138671875">
        <ele>0</ele>
        <time>2019-02-03T09:33:30.000Z</time>
        <extensions>
          <ns3:TrackPointExtension>
            <ns3:cad>90</ns3:cad>
          </ns3:TrackPointExtension>
        </extensions>
      </trkpt>
      <trkpt lat="25.06660454906523227691650390625" lon="118.491012565791606903076171875">
        <ele>0</ele>
        <time>2019-02-03T09:33:35.000Z</time>
        <extensions>
          <ns3:TrackPointExtension>
            <ns3:cad>90</ns3:cad>
          </ns3:TrackPointExtension>
        </extensions>
      </trkpt>
      <trkpt lat="25.0664596259593963623046875" lon="118.49095146171748638153076171875">
        <ele>0</ele>
        <time>2019-02-03T09:33:40.000Z</time>
        <extensions>
          <ns3:TrackPointExtension>
            <ns3:cad>90</ns3:cad>
          </ns3:TrackPointExtension>
        </extensions>
      </trkpt>
      <trkpt lat="25.0663642399013042449951171875" lon="118.49092095158994197845458984375">
        <ele>0</ele>
        <time>2019-02-03T09:33:45.000Z</time>
        <extensions>
          <ns3:TrackPointExtension>
            <ns3:cad>84</ns3:cad>
          </ns3:TrackPointExtension>
        </extensions>
      </trkpt>
      <trkpt lat="25.06622694432735443115234375" lon="118.490974344313144683837890625">
        <ele>0</ele>
        <time>2019-02-03T09:33:50.000Z</time>
        <extensions>
          <ns3:TrackPointExtension>
            <ns3:cad>90</ns3:cad>
          </ns3:TrackPointExtension>
        </extensions>
      </trkpt>
      <trkpt lat="25.0661429576575756072998046875" lon="118.49103544838726520538330078125">
        <ele>0</ele>
        <time>2019-02-03T09:33:55.000Z</time>
        <extensions>
          <ns3:TrackPointExtension>
            <ns3:cad>84</ns3:cad>
          </ns3:TrackPointExtension>
        </extensions>
      </trkpt>
      <trkpt lat="25.0660514272749423980712890625" lon="118.4911803714931011199951171875">
        <ele>0</ele>
        <time>2019-02-03T09:34:00.000Z</time>
        <extensions>
          <ns3:TrackPointExtension>
            <ns3:cad>90</ns3:cad>
          </ns3:TrackPointExtension>
        </extensions>
      </trkpt>
      <trkpt lat="25.0660152174532413482666015625" lon="118.49128715693950653076171875">
        <ele>0</ele>
        <time>2019-02-03T09:34:05.000Z</time>
        <extensions>
          <ns3:TrackPointExtension>
            <ns3:cad>84</ns3:cad>
          </ns3:TrackPointExtension>
        </extensions>
      </trkpt>
      <trkpt lat="25.06600758992135524749755859375" lon="118.4914626739919185638427734375">
        <ele>0</ele>
        <time>2019-02-03T09:34:10.000Z</time>
        <extensions>
          <ns3:TrackPointExtension>
            <ns3:cad>90</ns3:cad>
          </ns3:TrackPointExtension>
        </extensions>
      </trkpt>
      <trkpt lat="25.0660095177590847015380859375" lon="118.491599969565868377685546875">
        <ele>0</ele>
        <time>2019-02-03T09:34:15.000Z</time>
        <extensions>
          <ns3:TrackPointExtension>
            <ns3:cad>90</ns3:cad>
          </ns3:TrackPointExtension>
        </extensions>
      </trkpt>
      <trkpt lat="25.06596182473003864288330078125" lon="118.49176785908639430999755859375">
        <ele>0</ele>
        <time>2019-02-03T09:34:20.000Z</time>
        <extensions>
          <ns3:TrackPointExtension>
            <ns3:cad>90</ns3:cad>
          </ns3:TrackPointExtension>
        </extensions>
      </trkpt>
      <trkpt lat="25.065900720655918121337890625" lon="118.49185176193714141845703125">
        <ele>0</ele>
        <time>2019-02-03T09:34:25.000Z</time>
        <extensions>
          <ns3:TrackPointExtension>
            <ns3:cad>90</ns3:cad>
          </ns3:TrackPointExtension>
        </extensions>
      </trkpt>
      <trkpt lat="25.06577105261385440826416015625" lon="118.49195091985166072845458984375">
        <ele>0</ele>
        <time>2019-02-03T09:34:30.000Z</time>
        <extensions>
          <ns3:TrackPointExtension>
            <ns3:cad>90</ns3:cad>
          </ns3:TrackPointExtension>
        </extensions>
      </trkpt>
      <trkpt lat="25.06566426716744899749755859375" lon="118.49199668504297733306884765625">
        <ele>0</ele>
        <time>2019-02-03T09:34:35.000Z</time>
        <extensions>
          <ns3:TrackPointExtension>
            <ns3:cad>90</ns3:cad>
          </ns3:TrackPointExtension>
        </extensions>
      </trkpt>
      <trkpt lat="25.06550400517880916595458984375" lon="118.4920577891170978546142578125">
        <ele>0</ele>
        <time>2019-02-03T09:34:40.000Z</time>
        <extensions>
          <ns3:TrackPointExtension>
            <ns3:cad>90</ns3:cad>
          </ns3:TrackPointExtension>
        </extensions>
      </trkpt>
      <trkpt lat="25.065410546958446502685546875" lon="118.492103554308414459228515625">
        <ele>0</ele>
        <time>2019-02-03T09:34:45.000Z</time>
        <extensions>
          <ns3:TrackPointExtension>
            <ns3:cad>84</ns3:cad>
          </ns3:TrackPointExtension>
        </extensions>
      </trkpt>
      <trkpt lat="25.0652675516903400421142578125" lon="118.49201202392578125">
        <ele>0</ele>
        <time>2019-02-03T09:34:50.000Z</time>
        <extensions>
          <ns3:TrackPointExtension>
            <ns3:cad>84</ns3:cad>
          </ns3:TrackPointExtension>
        </extensions>
      </trkpt>
      <trkpt lat="25.0652675516903400421142578125" lon="118.49201202392578125">
        <ele>0</ele>
        <time>2019-02-03T09:34:55.000Z</time>
        <extensions>
          <ns3:TrackPointExtension/>
        </extensions>
      </trkpt>
    </trkseg>
  </trk>
</gpx>
