<gpx xmlns:ns3="http://www.garmin.com/xmlschemas/TrackPointExtension/v1" xmlns="http://www.topografix.com/GPX/1/1" xmlns:xsi="http://www.w3.org/2001/XMLSchema-instance" xmlns:ns2="http://www.garmin.com/xmlschemas/GpxExtensions/v3" creator="Garmin Connect" version="1.1" xsi:schemaLocation="http://www.topografix.com/GPX/1/1 http://www.topografix.com/GPX/11.xsd">
  <extensions>
<distance>5210.0</distance>
<average_hr>0.0</average_hr>
<average_speed>2.802999973297119</average_speed>
<start_time>2020-07-31T11:29:24+00:00</start_time>
<end_time>2020-07-31T12:00:23+00:00</end_time>
<moving_time></moving_time>
<elapsed_time>1859.0</elapsed_time>
</extensions>
<metadata>
    <link href="connect.garmin.com">
      <text>Garmin Connect</text>
    </link>
    <time>2020-07-31T11:29:24.000Z</time>
  </metadata>
  <trk>
    <name>街道路跑</name>
    <type>street_running</type>
    <trkseg/>
  </trk>
</gpx>
