<gpx xmlns:ns3="http://www.garmin.com/xmlschemas/TrackPointExtension/v1" xmlns="http://www.topografix.com/GPX/1/1" xmlns:xsi="http://www.w3.org/2001/XMLSchema-instance" xmlns:ns2="http://www.garmin.com/xmlschemas/GpxExtensions/v3" creator="Garmin Connect" version="1.1" xsi:schemaLocation="http://www.topografix.com/GPX/1/1 http://www.topografix.com/GPX/11.xsd">
  <extensions>
<distance>4240.0</distance>
<average_hr>0.0</average_hr>
<average_speed>2.253000020980835</average_speed>
<start_time>2018-03-26T13:30:57+00:00</start_time>
<end_time>2018-03-26T14:02:19+00:00</end_time>
<moving_time></moving_time>
<elapsed_time>1882.0</elapsed_time>
</extensions>
<metadata>
    <link href="connect.garmin.com">
      <text>Garmin Connect</text>
    </link>
    <time>2018-03-26T13:30:57.000Z</time>
  </metadata>
  <trk>
    <name>室内跑步</name>
    <type>indoor_running</type>
    <trkseg/>
  </trk>
</gpx>
