<gpx xmlns:ns3="http://www.garmin.com/xmlschemas/TrackPointExtension/v1" xmlns="http://www.topografix.com/GPX/1/1" xmlns:xsi="http://www.w3.org/2001/XMLSchema-instance" xmlns:ns2="http://www.garmin.com/xmlschemas/GpxExtensions/v3" creator="Garmin Connect" version="1.1" xsi:schemaLocation="http://www.topografix.com/GPX/1/1 http://www.topografix.com/GPX/11.xsd">
  <extensions>
<distance>5015.0</distance>
<average_hr>141.0</average_hr>
<average_speed>2.802000045776367</average_speed>
<start_time>2022-07-17T22:07:54+00:00</start_time>
<end_time>2022-07-17T22:37:44+00:00</end_time>
<moving_time>1060.0</moving_time>
<elapsed_time>1790.0</elapsed_time>
</extensions>
<metadata>
    <link href="connect.garmin.com">
      <text>Garmin Connect</text>
    </link>
    <time>2022-07-17T22:07:54.000Z</time>
  </metadata>
  <trk>
    <name>厦门市 街道路跑</name>
    <type>street_running</type>
    <trkseg>
      <trkpt lat="24.49735061265528202056884765625" lon="118.14295194111764430999755859375">
        <ele>27.200000762939453125</ele>
        <time>2022-07-17T22:07:54.000Z</time>
        <extensions>
          <ns3:TrackPointExtension>
            <ns3:hr>83</ns3:hr>
          </ns3:TrackPointExtension>
        </extensions>
      </trkpt>
      <trkpt lat="24.49735061265528202056884765625" lon="118.14295194111764430999755859375">
        <ele>27.200000762939453125</ele>
        <time>2022-07-17T22:07:59.000Z</time>
        <extensions>
          <ns3:TrackPointExtension>
            <ns3:hr>86</ns3:hr>
            <ns3:cad>84</ns3:cad>
          </ns3:TrackPointExtension>
        </extensions>
      </trkpt>
      <trkpt lat="24.4973659515380859375" lon="118.14293668605387210845947265625">
        <ele>27.200000762939453125</ele>
        <time>2022-07-17T22:08:04.000Z</time>
        <extensions>
          <ns3:TrackPointExtension>
            <ns3:hr>88</ns3:hr>
            <ns3:cad>84</ns3:cad>
          </ns3:TrackPointExtension>
        </extensions>
      </trkpt>
      <trkpt lat="24.48668095283210277557373046875" lon="118.1400527246296405792236328125">
        <ele>28.3999996185302734375</ele>
        <time>2022-07-17T22:08:09.000Z</time>
        <extensions>
          <ns3:TrackPointExtension>
            <ns3:hr>90</ns3:hr>
            <ns3:cad>84</ns3:cad>
          </ns3:TrackPointExtension>
        </extensions>
      </trkpt>
      <trkpt lat="24.48655505664646625518798828125" lon="118.140006959438323974609375">
        <ele>29</ele>
        <time>2022-07-17T22:08:14.000Z</time>
        <extensions>
          <ns3:TrackPointExtension>
            <ns3:hr>98</ns3:hr>
            <ns3:cad>84</ns3:cad>
          </ns3:TrackPointExtension>
        </extensions>
      </trkpt>
      <trkpt lat="24.4864615984261035919189453125" lon="118.1399917043745517730712890625">
        <ele>29.6000003814697265625</ele>
        <time>2022-07-17T22:08:19.000Z</time>
        <extensions>
          <ns3:TrackPointExtension>
            <ns3:hr>99</ns3:hr>
            <ns3:cad>84</ns3:cad>
          </ns3:TrackPointExtension>
        </extensions>
      </trkpt>
      <trkpt lat="24.48634902946650981903076171875" lon="118.13998407684266567230224609375">
        <ele>30.6000003814697265625</ele>
        <time>2022-07-17T22:08:24.000Z</time>
        <extensions>
          <ns3:TrackPointExtension>
            <ns3:hr>107</ns3:hr>
            <ns3:cad>84</ns3:cad>
          </ns3:TrackPointExtension>
        </extensions>
      </trkpt>
      <trkpt lat="24.48623654432594776153564453125" lon="118.140006959438323974609375">
        <ele>31.799999237060546875</ele>
        <time>2022-07-17T22:08:29.000Z</time>
        <extensions>
          <ns3:TrackPointExtension>
            <ns3:hr>117</ns3:hr>
            <ns3:cad>84</ns3:cad>
          </ns3:TrackPointExtension>
        </extensions>
      </trkpt>
      <trkpt lat="24.48612975887954235076904296875" lon="118.14006797969341278076171875">
        <ele>33</ele>
        <time>2022-07-17T22:08:34.000Z</time>
        <extensions>
          <ns3:TrackPointExtension>
            <ns3:hr>118</ns3:hr>
            <ns3:cad>84</ns3:cad>
          </ns3:TrackPointExtension>
        </extensions>
      </trkpt>
      <trkpt lat="24.48604962788522243499755859375" lon="118.14015959389507770538330078125">
        <ele>33.40000152587890625</ele>
        <time>2022-07-17T22:08:39.000Z</time>
        <extensions>
          <ns3:TrackPointExtension>
            <ns3:hr>119</ns3:hr>
            <ns3:cad>84</ns3:cad>
          </ns3:TrackPointExtension>
        </extensions>
      </trkpt>
      <trkpt lat="24.48598860763013362884521484375" lon="118.14025112427771091461181640625">
        <ele>34</ele>
        <time>2022-07-17T22:08:44.000Z</time>
        <extensions>
          <ns3:TrackPointExtension>
            <ns3:hr>121</ns3:hr>
            <ns3:cad>84</ns3:cad>
          </ns3:TrackPointExtension>
        </extensions>
      </trkpt>
      <trkpt lat="24.4859161041676998138427734375" lon="118.14032739959657192230224609375">
        <ele>34.200000762939453125</ele>
        <time>2022-07-17T22:08:49.000Z</time>
        <extensions>
          <ns3:TrackPointExtension>
            <ns3:hr>123</ns3:hr>
            <ns3:cad>84</ns3:cad>
          </ns3:TrackPointExtension>
        </extensions>
      </trkpt>
      <trkpt lat="24.485820718109607696533203125" lon="118.1403960473835468292236328125">
        <ele>35.200000762939453125</ele>
        <time>2022-07-17T22:08:54.000Z</time>
        <extensions>
          <ns3:TrackPointExtension>
            <ns3:hr>125</ns3:hr>
            <ns3:cad>84</ns3:cad>
          </ns3:TrackPointExtension>
        </extensions>
      </trkpt>
      <trkpt lat="24.4854983501136302947998046875" lon="118.1458587013185024261474609375">
        <ele>34</ele>
        <time>2022-07-17T22:08:59.000Z</time>
        <extensions>
          <ns3:TrackPointExtension>
            <ns3:hr>126</ns3:hr>
            <ns3:cad>84</ns3:cad>
          </ns3:TrackPointExtension>
        </extensions>
      </trkpt>
      <trkpt lat="24.48547362349927425384521484375" lon="118.1458892114460468292236328125">
        <ele>34.40000152587890625</ele>
        <time>2022-07-17T22:09:04.000Z</time>
        <extensions>
          <ns3:TrackPointExtension>
            <ns3:hr>126</ns3:hr>
            <ns3:cad>84</ns3:cad>
          </ns3:TrackPointExtension>
        </extensions>
      </trkpt>
      <trkpt lat="24.4854564405977725982666015625" lon="118.1459579430520534515380859375">
        <ele>34.799999237060546875</ele>
        <time>2022-07-17T22:09:09.000Z</time>
        <extensions>
          <ns3:TrackPointExtension>
            <ns3:hr>127</ns3:hr>
            <ns3:cad>84</ns3:cad>
          </ns3:TrackPointExtension>
        </extensions>
      </trkpt>
      <trkpt lat="24.4854507409036159515380859375" lon="118.1460647284984588623046875">
        <ele>36.799999237060546875</ele>
        <time>2022-07-17T22:09:14.000Z</time>
        <extensions>
          <ns3:TrackPointExtension>
            <ns3:hr>129</ns3:hr>
            <ns3:cad>84</ns3:cad>
          </ns3:TrackPointExtension>
        </extensions>
      </trkpt>
      <trkpt lat="24.4854621402919292449951171875" lon="118.146186769008636474609375">
        <ele>39</ele>
        <time>2022-07-17T22:09:19.000Z</time>
        <extensions>
          <ns3:TrackPointExtension>
            <ns3:hr>130</ns3:hr>
            <ns3:cad>84</ns3:cad>
          </ns3:TrackPointExtension>
        </extensions>
      </trkpt>
      <trkpt lat="24.48549457825720310211181640625" lon="118.14630889333784580230712890625">
        <ele>40</ele>
        <time>2022-07-17T22:09:24.000Z</time>
        <extensions>
          <ns3:TrackPointExtension>
            <ns3:hr>130</ns3:hr>
            <ns3:cad>84</ns3:cad>
          </ns3:TrackPointExtension>
        </extensions>
      </trkpt>
      <trkpt lat="24.48554034344851970672607421875" lon="118.1464233063161373138427734375">
        <ele>41</ele>
        <time>2022-07-17T22:09:29.000Z</time>
        <extensions>
          <ns3:TrackPointExtension>
            <ns3:hr>132</ns3:hr>
            <ns3:cad>84</ns3:cad>
          </ns3:TrackPointExtension>
        </extensions>
      </trkpt>
      <trkpt lat="24.48558610863983631134033203125" lon="118.14653771929442882537841796875">
        <ele>41.799999237060546875</ele>
        <time>2022-07-17T22:09:34.000Z</time>
        <extensions>
          <ns3:TrackPointExtension>
            <ns3:hr>134</ns3:hr>
            <ns3:cad>84</ns3:cad>
          </ns3:TrackPointExtension>
        </extensions>
      </trkpt>
      <trkpt lat="24.48562047444283962249755859375" lon="118.14665221609175205230712890625">
        <ele>40.799999237060546875</ele>
        <time>2022-07-17T22:09:39.000Z</time>
        <extensions>
          <ns3:TrackPointExtension>
            <ns3:hr>136</ns3:hr>
            <ns3:cad>84</ns3:cad>
          </ns3:TrackPointExtension>
        </extensions>
      </trkpt>
      <trkpt lat="24.48565098457038402557373046875" lon="118.14678951166570186614990234375">
        <ele>40</ele>
        <time>2022-07-17T22:09:44.000Z</time>
        <extensions>
          <ns3:TrackPointExtension>
            <ns3:hr>137</ns3:hr>
            <ns3:cad>84</ns3:cad>
          </ns3:TrackPointExtension>
        </extensions>
      </trkpt>
      <trkpt lat="24.4856948219239711761474609375" lon="118.14693443477153778076171875">
        <ele>39.200000762939453125</ele>
        <time>2022-07-17T22:09:49.000Z</time>
        <extensions>
          <ns3:TrackPointExtension>
            <ns3:hr>138</ns3:hr>
            <ns3:cad>84</ns3:cad>
          </ns3:TrackPointExtension>
        </extensions>
      </trkpt>
      <trkpt lat="24.4857444427907466888427734375" lon="118.147064186632633209228515625">
        <ele>38.59999847412109375</ele>
        <time>2022-07-17T22:09:54.000Z</time>
        <extensions>
          <ns3:TrackPointExtension>
            <ns3:hr>137</ns3:hr>
            <ns3:cad>84</ns3:cad>
          </ns3:TrackPointExtension>
        </extensions>
      </trkpt>
      <trkpt lat="24.4857806526124477386474609375" lon="118.14719385467469692230224609375">
        <ele>38.40000152587890625</ele>
        <time>2022-07-17T22:09:59.000Z</time>
        <extensions>
          <ns3:TrackPointExtension>
            <ns3:hr>136</ns3:hr>
            <ns3:cad>84</ns3:cad>
          </ns3:TrackPointExtension>
        </extensions>
      </trkpt>
      <trkpt lat="24.48581879027187824249267578125" lon="118.14732360653579235076904296875">
        <ele>38.40000152587890625</ele>
        <time>2022-07-17T22:10:04.000Z</time>
        <extensions>
          <ns3:TrackPointExtension>
            <ns3:hr>133</ns3:hr>
            <ns3:cad>84</ns3:cad>
          </ns3:TrackPointExtension>
        </extensions>
      </trkpt>
      <trkpt lat="24.4858855940401554107666015625" lon="118.147407509386539459228515625">
        <ele>37.40000152587890625</ele>
        <time>2022-07-17T22:10:09.000Z</time>
        <extensions>
          <ns3:TrackPointExtension>
            <ns3:hr>137</ns3:hr>
            <ns3:cad>84</ns3:cad>
          </ns3:TrackPointExtension>
        </extensions>
      </trkpt>
      <trkpt lat="24.4859771244227886199951171875" lon="118.14744564704596996307373046875">
        <ele>36.200000762939453125</ele>
        <time>2022-07-17T22:10:14.000Z</time>
        <extensions>
          <ns3:TrackPointExtension>
            <ns3:hr>136</ns3:hr>
            <ns3:cad>84</ns3:cad>
          </ns3:TrackPointExtension>
        </extensions>
      </trkpt>
      <trkpt lat="24.48608013801276683807373046875" lon="118.14744564704596996307373046875">
        <ele>35.40000152587890625</ele>
        <time>2022-07-17T22:10:19.000Z</time>
        <extensions>
          <ns3:TrackPointExtension>
            <ns3:hr>134</ns3:hr>
            <ns3:cad>84</ns3:cad>
          </ns3:TrackPointExtension>
        </extensions>
      </trkpt>
      <trkpt lat="24.48618315160274505615234375" lon="118.14744564704596996307373046875">
        <ele>35</ele>
        <time>2022-07-17T22:10:24.000Z</time>
        <extensions>
          <ns3:TrackPointExtension>
            <ns3:hr>136</ns3:hr>
            <ns3:cad>84</ns3:cad>
          </ns3:TrackPointExtension>
        </extensions>
      </trkpt>
      <trkpt lat="24.486293792724609375" lon="118.1474380195140838623046875">
        <ele>34.59999847412109375</ele>
        <time>2022-07-17T22:10:29.000Z</time>
        <extensions>
          <ns3:TrackPointExtension>
            <ns3:hr>135</ns3:hr>
            <ns3:cad>84</ns3:cad>
          </ns3:TrackPointExtension>
        </extensions>
      </trkpt>
      <trkpt lat="24.4864119775593280792236328125" lon="118.14743039198219776153564453125">
        <ele>34.200000762939453125</ele>
        <time>2022-07-17T22:10:34.000Z</time>
        <extensions>
          <ns3:TrackPointExtension>
            <ns3:hr>136</ns3:hr>
            <ns3:cad>84</ns3:cad>
          </ns3:TrackPointExtension>
        </extensions>
      </trkpt>
      <trkpt lat="24.4865417294204235076904296875" lon="118.14744564704596996307373046875">
        <ele>33.59999847412109375</ele>
        <time>2022-07-17T22:10:39.000Z</time>
        <extensions>
          <ns3:TrackPointExtension>
            <ns3:hr>136</ns3:hr>
            <ns3:cad>84</ns3:cad>
          </ns3:TrackPointExtension>
        </extensions>
      </trkpt>
      <trkpt lat="24.486667625606060028076171875" lon="118.14746090210974216461181640625">
        <ele>33.200000762939453125</ele>
        <time>2022-07-17T22:10:44.000Z</time>
        <extensions>
          <ns3:TrackPointExtension>
            <ns3:hr>135</ns3:hr>
            <ns3:cad>84</ns3:cad>
          </ns3:TrackPointExtension>
        </extensions>
      </trkpt>
      <trkpt lat="24.48678203858435153961181640625" lon="118.14747615717351436614990234375">
        <ele>32.200000762939453125</ele>
        <time>2022-07-17T22:10:49.000Z</time>
        <extensions>
          <ns3:TrackPointExtension>
            <ns3:hr>135</ns3:hr>
            <ns3:cad>84</ns3:cad>
          </ns3:TrackPointExtension>
        </extensions>
      </trkpt>
      <trkpt lat="24.48688312433660030364990234375" lon="118.147529549896717071533203125">
        <ele>31.799999237060546875</ele>
        <time>2022-07-17T22:10:54.000Z</time>
        <extensions>
          <ns3:TrackPointExtension>
            <ns3:hr>135</ns3:hr>
            <ns3:cad>84</ns3:cad>
          </ns3:TrackPointExtension>
        </extensions>
      </trkpt>
      <trkpt lat="24.48697465471923351287841796875" lon="118.14761345274746417999267578125">
        <ele>31.3999996185302734375</ele>
        <time>2022-07-17T22:10:59.000Z</time>
        <extensions>
          <ns3:TrackPointExtension>
            <ns3:hr>136</ns3:hr>
            <ns3:cad>84</ns3:cad>
          </ns3:TrackPointExtension>
        </extensions>
      </trkpt>
      <trkpt lat="24.487052857875823974609375" lon="118.14769743941724300384521484375">
        <ele>31.200000762939453125</ele>
        <time>2022-07-17T22:11:04.000Z</time>
        <extensions>
          <ns3:TrackPointExtension>
            <ns3:hr>136</ns3:hr>
            <ns3:cad>84</ns3:cad>
          </ns3:TrackPointExtension>
        </extensions>
      </trkpt>
      <trkpt lat="24.4871291331946849822998046875" lon="118.14778896979987621307373046875">
        <ele>30.799999237060546875</ele>
        <time>2022-07-17T22:11:09.000Z</time>
        <extensions>
          <ns3:TrackPointExtension>
            <ns3:hr>142</ns3:hr>
            <ns3:cad>84</ns3:cad>
          </ns3:TrackPointExtension>
        </extensions>
      </trkpt>
      <trkpt lat="24.487224519252777099609375" lon="118.14786524511873722076416015625">
        <ele>30.200000762939453125</ele>
        <time>2022-07-17T22:11:14.000Z</time>
        <extensions>
          <ns3:TrackPointExtension>
            <ns3:hr>142</ns3:hr>
            <ns3:cad>84</ns3:cad>
          </ns3:TrackPointExtension>
        </extensions>
      </trkpt>
      <trkpt lat="24.48734278790652751922607421875" lon="118.1478881277143955230712890625">
        <ele>29.200000762939453125</ele>
        <time>2022-07-17T22:11:19.000Z</time>
        <extensions>
          <ns3:TrackPointExtension>
            <ns3:hr>141</ns3:hr>
            <ns3:cad>84</ns3:cad>
          </ns3:TrackPointExtension>
        </extensions>
      </trkpt>
      <trkpt lat="24.48747438378632068634033203125" lon="118.14784236252307891845703125">
        <ele>28.3999996185302734375</ele>
        <time>2022-07-17T22:11:24.000Z</time>
        <extensions>
          <ns3:TrackPointExtension>
            <ns3:hr>140</ns3:hr>
            <ns3:cad>84</ns3:cad>
          </ns3:TrackPointExtension>
        </extensions>
      </trkpt>
      <trkpt lat="24.487598352134227752685546875" lon="118.14775845967233180999755859375">
        <ele>27</ele>
        <time>2022-07-17T22:11:29.000Z</time>
        <extensions>
          <ns3:TrackPointExtension>
            <ns3:hr>140</ns3:hr>
            <ns3:cad>84</ns3:cad>
          </ns3:TrackPointExtension>
        </extensions>
      </trkpt>
      <trkpt lat="24.48770136572420597076416015625" lon="118.14768218435347080230712890625">
        <ele>25.6000003814697265625</ele>
        <time>2022-07-17T22:11:34.000Z</time>
        <extensions>
          <ns3:TrackPointExtension>
            <ns3:hr>140</ns3:hr>
            <ns3:cad>78</ns3:cad>
          </ns3:TrackPointExtension>
        </extensions>
      </trkpt>
      <trkpt lat="24.48778149671852588653564453125" lon="118.1476363353431224822998046875">
        <ele>25.200000762939453125</ele>
        <time>2022-07-17T22:11:39.000Z</time>
        <extensions>
          <ns3:TrackPointExtension>
            <ns3:hr>96</ns3:hr>
          </ns3:TrackPointExtension>
        </extensions>
      </trkpt>
      <trkpt lat="24.487869255244731903076171875" lon="118.14762870781123638153076171875">
        <ele>24.3999996185302734375</ele>
        <time>2022-07-17T22:11:44.000Z</time>
        <extensions>
          <ns3:TrackPointExtension>
            <ns3:hr>100</ns3:hr>
          </ns3:TrackPointExtension>
        </extensions>
      </trkpt>
      <trkpt lat="24.48796841315925121307373046875" lon="118.1476363353431224822998046875">
        <ele>23.799999237060546875</ele>
        <time>2022-07-17T22:11:49.000Z</time>
        <extensions>
          <ns3:TrackPointExtension>
            <ns3:hr>108</ns3:hr>
          </ns3:TrackPointExtension>
        </extensions>
      </trkpt>
      <trkpt lat="24.48807142674922943115234375" lon="118.14766692928969860076904296875">
        <ele>23.6000003814697265625</ele>
        <time>2022-07-17T22:11:54.000Z</time>
        <extensions>
          <ns3:TrackPointExtension>
            <ns3:hr>111</ns3:hr>
            <ns3:cad>84</ns3:cad>
          </ns3:TrackPointExtension>
        </extensions>
      </trkpt>
      <trkpt lat="24.48818206787109375" lon="118.1477050669491291046142578125">
        <ele>23.200000762939453125</ele>
        <time>2022-07-17T22:11:59.000Z</time>
        <extensions>
          <ns3:TrackPointExtension>
            <ns3:hr>111</ns3:hr>
            <ns3:cad>84</ns3:cad>
          </ns3:TrackPointExtension>
        </extensions>
      </trkpt>
      <trkpt lat="24.488309808075428009033203125" lon="118.14774320460855960845947265625">
        <ele>22.3999996185302734375</ele>
        <time>2022-07-17T22:12:04.000Z</time>
        <extensions>
          <ns3:TrackPointExtension>
            <ns3:hr>111</ns3:hr>
            <ns3:cad>84</ns3:cad>
          </ns3:TrackPointExtension>
        </extensions>
      </trkpt>
      <trkpt lat="24.4884357042610645294189453125" lon="118.14777371473610401153564453125">
        <ele>21.3999996185302734375</ele>
        <time>2022-07-17T22:12:09.000Z</time>
        <extensions>
          <ns3:TrackPointExtension>
            <ns3:hr>111</ns3:hr>
            <ns3:cad>84</ns3:cad>
          </ns3:TrackPointExtension>
        </extensions>
      </trkpt>
      <trkpt lat="24.48854827322065830230712890625" lon="118.1477965973317623138427734375">
        <ele>21</ele>
        <time>2022-07-17T22:12:14.000Z</time>
        <extensions>
          <ns3:TrackPointExtension>
            <ns3:hr>111</ns3:hr>
            <ns3:cad>84</ns3:cad>
          </ns3:TrackPointExtension>
        </extensions>
      </trkpt>
      <trkpt lat="24.48865883052349090576171875" lon="118.14780422486364841461181640625">
        <ele>21</ele>
        <time>2022-07-17T22:12:19.000Z</time>
        <extensions>
          <ns3:TrackPointExtension>
            <ns3:hr>111</ns3:hr>
            <ns3:cad>84</ns3:cad>
          </ns3:TrackPointExtension>
        </extensions>
      </trkpt>
      <trkpt lat="24.48877139948308467864990234375" lon="118.14781947992742061614990234375">
        <ele>21</ele>
        <time>2022-07-17T22:12:24.000Z</time>
        <extensions>
          <ns3:TrackPointExtension>
            <ns3:hr>111</ns3:hr>
            <ns3:cad>84</ns3:cad>
          </ns3:TrackPointExtension>
        </extensions>
      </trkpt>
      <trkpt lat="24.48887818492949008941650390625" lon="118.14788050018250942230224609375">
        <ele>20.6000003814697265625</ele>
        <time>2022-07-17T22:12:29.000Z</time>
        <extensions>
          <ns3:TrackPointExtension>
            <ns3:hr>111</ns3:hr>
            <ns3:cad>84</ns3:cad>
          </ns3:TrackPointExtension>
        </extensions>
      </trkpt>
      <trkpt lat="24.4889868982136249542236328125" lon="118.14796440303325653076171875">
        <ele>20</ele>
        <time>2022-07-17T22:12:34.000Z</time>
        <extensions>
          <ns3:TrackPointExtension>
            <ns3:hr>111</ns3:hr>
            <ns3:cad>84</ns3:cad>
          </ns3:TrackPointExtension>
        </extensions>
      </trkpt>
      <trkpt lat="24.48910516686737537384033203125" lon="118.14804076217114925384521484375">
        <ele>19.3999996185302734375</ele>
        <time>2022-07-17T22:12:39.000Z</time>
        <extensions>
          <ns3:TrackPointExtension>
            <ns3:hr>111</ns3:hr>
            <ns3:cad>84</ns3:cad>
          </ns3:TrackPointExtension>
        </extensions>
      </trkpt>
      <trkpt lat="24.48923676274716854095458984375" lon="118.148094154894351959228515625">
        <ele>18.6000003814697265625</ele>
        <time>2022-07-17T22:12:44.000Z</time>
        <extensions>
          <ns3:TrackPointExtension>
            <ns3:hr>112</ns3:hr>
            <ns3:cad>84</ns3:cad>
          </ns3:TrackPointExtension>
        </extensions>
      </trkpt>
      <trkpt lat="24.4893741421401500701904296875" lon="118.14811703749001026153564453125">
        <ele>18</ele>
        <time>2022-07-17T22:12:49.000Z</time>
        <extensions>
          <ns3:TrackPointExtension>
            <ns3:hr>120</ns3:hr>
            <ns3:cad>90</ns3:cad>
          </ns3:TrackPointExtension>
        </extensions>
      </trkpt>
      <trkpt lat="24.48951713740825653076171875" lon="118.1481246650218963623046875">
        <ele>18</ele>
        <time>2022-07-17T22:12:54.000Z</time>
        <extensions>
          <ns3:TrackPointExtension>
            <ns3:hr>122</ns3:hr>
            <ns3:cad>90</ns3:cad>
          </ns3:TrackPointExtension>
        </extensions>
      </trkpt>
      <trkpt lat="24.4896564446389675140380859375" lon="118.148155175149440765380859375">
        <ele>18.200000762939453125</ele>
        <time>2022-07-17T22:12:59.000Z</time>
        <extensions>
          <ns3:TrackPointExtension>
            <ns3:hr>124</ns3:hr>
            <ns3:cad>90</ns3:cad>
          </ns3:TrackPointExtension>
        </extensions>
      </trkpt>
      <trkpt lat="24.4897841848433017730712890625" lon="118.14822382293641567230224609375">
        <ele>18</ele>
        <time>2022-07-17T22:13:04.000Z</time>
        <extensions>
          <ns3:TrackPointExtension>
            <ns3:hr>125</ns3:hr>
            <ns3:cad>90</ns3:cad>
          </ns3:TrackPointExtension>
        </extensions>
      </trkpt>
      <trkpt lat="24.489904381334781646728515625" lon="118.1483612023293972015380859375">
        <ele>18</ele>
        <time>2022-07-17T22:13:09.000Z</time>
        <extensions>
          <ns3:TrackPointExtension>
            <ns3:hr>125</ns3:hr>
            <ns3:cad>90</ns3:cad>
          </ns3:TrackPointExtension>
        </extensions>
      </trkpt>
      <trkpt lat="24.489904381334781646728515625" lon="118.1483612023293972015380859375">
        <ele>18</ele>
        <time>2022-07-17T22:13:14.000Z</time>
        <extensions>
          <ns3:TrackPointExtension>
            <ns3:hr>125</ns3:hr>
            <ns3:cad>90</ns3:cad>
          </ns3:TrackPointExtension>
        </extensions>
      </trkpt>
      <trkpt lat="24.489904381334781646728515625" lon="118.1483612023293972015380859375">
        <ele>18</ele>
        <time>2022-07-17T22:13:19.000Z</time>
        <extensions>
          <ns3:TrackPointExtension>
            <ns3:hr>127</ns3:hr>
            <ns3:cad>90</ns3:cad>
          </ns3:TrackPointExtension>
        </extensions>
      </trkpt>
      <trkpt lat="24.489904381334781646728515625" lon="118.1483612023293972015380859375">
        <ele>18</ele>
        <time>2022-07-17T22:13:24.000Z</time>
        <extensions>
          <ns3:TrackPointExtension>
            <ns3:hr>128</ns3:hr>
            <ns3:cad>90</ns3:cad>
          </ns3:TrackPointExtension>
        </extensions>
      </trkpt>
      <trkpt lat="24.489904381334781646728515625" lon="118.1483612023293972015380859375">
        <ele>18</ele>
        <time>2022-07-17T22:13:29.000Z</time>
        <extensions>
          <ns3:TrackPointExtension>
            <ns3:hr>127</ns3:hr>
            <ns3:cad>90</ns3:cad>
          </ns3:TrackPointExtension>
        </extensions>
      </trkpt>
      <trkpt lat="24.489904381334781646728515625" lon="118.1483612023293972015380859375">
        <ele>18</ele>
        <time>2022-07-17T22:13:34.000Z</time>
        <extensions>
          <ns3:TrackPointExtension>
            <ns3:hr>131</ns3:hr>
            <ns3:cad>90</ns3:cad>
          </ns3:TrackPointExtension>
        </extensions>
      </trkpt>
      <trkpt lat="24.489904381334781646728515625" lon="118.1483612023293972015380859375">
        <ele>18</ele>
        <time>2022-07-17T22:13:39.000Z</time>
        <extensions>
          <ns3:TrackPointExtension>
            <ns3:hr>132</ns3:hr>
            <ns3:cad>90</ns3:cad>
          </ns3:TrackPointExtension>
        </extensions>
      </trkpt>
      <trkpt lat="24.489904381334781646728515625" lon="118.1483612023293972015380859375">
        <ele>18</ele>
        <time>2022-07-17T22:13:44.000Z</time>
        <extensions>
          <ns3:TrackPointExtension>
            <ns3:hr>134</ns3:hr>
            <ns3:cad>90</ns3:cad>
          </ns3:TrackPointExtension>
        </extensions>
      </trkpt>
      <trkpt lat="24.489904381334781646728515625" lon="118.1483612023293972015380859375">
        <ele>18</ele>
        <time>2022-07-17T22:13:49.000Z</time>
        <extensions>
          <ns3:TrackPointExtension>
            <ns3:hr>138</ns3:hr>
            <ns3:cad>90</ns3:cad>
          </ns3:TrackPointExtension>
        </extensions>
      </trkpt>
      <trkpt lat="24.489904381334781646728515625" lon="118.1483612023293972015380859375">
        <ele>18</ele>
        <time>2022-07-17T22:13:54.000Z</time>
        <extensions>
          <ns3:TrackPointExtension>
            <ns3:hr>137</ns3:hr>
            <ns3:cad>90</ns3:cad>
          </ns3:TrackPointExtension>
        </extensions>
      </trkpt>
      <trkpt lat="24.489904381334781646728515625" lon="118.1483612023293972015380859375">
        <ele>18</ele>
        <time>2022-07-17T22:13:59.000Z</time>
        <extensions>
          <ns3:TrackPointExtension>
            <ns3:hr>138</ns3:hr>
            <ns3:cad>90</ns3:cad>
          </ns3:TrackPointExtension>
        </extensions>
      </trkpt>
      <trkpt lat="24.489904381334781646728515625" lon="118.1483612023293972015380859375">
        <ele>18</ele>
        <time>2022-07-17T22:14:04.000Z</time>
        <extensions>
          <ns3:TrackPointExtension>
            <ns3:hr>139</ns3:hr>
            <ns3:cad>90</ns3:cad>
          </ns3:TrackPointExtension>
        </extensions>
      </trkpt>
      <trkpt lat="24.489904381334781646728515625" lon="118.1483612023293972015380859375">
        <ele>18</ele>
        <time>2022-07-17T22:14:09.000Z</time>
        <extensions>
          <ns3:TrackPointExtension>
            <ns3:hr>139</ns3:hr>
            <ns3:cad>90</ns3:cad>
          </ns3:TrackPointExtension>
        </extensions>
      </trkpt>
      <trkpt lat="24.489904381334781646728515625" lon="118.1483612023293972015380859375">
        <ele>18</ele>
        <time>2022-07-17T22:14:14.000Z</time>
        <extensions>
          <ns3:TrackPointExtension>
            <ns3:hr>139</ns3:hr>
            <ns3:cad>90</ns3:cad>
          </ns3:TrackPointExtension>
        </extensions>
      </trkpt>
      <trkpt lat="24.489904381334781646728515625" lon="118.1483612023293972015380859375">
        <ele>18</ele>
        <time>2022-07-17T22:14:19.000Z</time>
        <extensions>
          <ns3:TrackPointExtension>
            <ns3:hr>141</ns3:hr>
            <ns3:cad>90</ns3:cad>
          </ns3:TrackPointExtension>
        </extensions>
      </trkpt>
      <trkpt lat="24.489904381334781646728515625" lon="118.1483612023293972015380859375">
        <ele>18</ele>
        <time>2022-07-17T22:14:24.000Z</time>
        <extensions>
          <ns3:TrackPointExtension>
            <ns3:hr>141</ns3:hr>
            <ns3:cad>90</ns3:cad>
          </ns3:TrackPointExtension>
        </extensions>
      </trkpt>
      <trkpt lat="24.489904381334781646728515625" lon="118.1483612023293972015380859375">
        <ele>18</ele>
        <time>2022-07-17T22:14:29.000Z</time>
        <extensions>
          <ns3:TrackPointExtension>
            <ns3:hr>143</ns3:hr>
            <ns3:cad>90</ns3:cad>
          </ns3:TrackPointExtension>
        </extensions>
      </trkpt>
      <trkpt lat="24.489904381334781646728515625" lon="118.1483612023293972015380859375">
        <ele>18</ele>
        <time>2022-07-17T22:14:34.000Z</time>
        <extensions>
          <ns3:TrackPointExtension>
            <ns3:hr>140</ns3:hr>
            <ns3:cad>90</ns3:cad>
          </ns3:TrackPointExtension>
        </extensions>
      </trkpt>
      <trkpt lat="24.489904381334781646728515625" lon="118.1483612023293972015380859375">
        <ele>18</ele>
        <time>2022-07-17T22:14:39.000Z</time>
        <extensions>
          <ns3:TrackPointExtension>
            <ns3:hr>139</ns3:hr>
            <ns3:cad>90</ns3:cad>
          </ns3:TrackPointExtension>
        </extensions>
      </trkpt>
      <trkpt lat="24.489904381334781646728515625" lon="118.1483612023293972015380859375">
        <ele>18</ele>
        <time>2022-07-17T22:14:44.000Z</time>
        <extensions>
          <ns3:TrackPointExtension>
            <ns3:hr>140</ns3:hr>
            <ns3:cad>90</ns3:cad>
          </ns3:TrackPointExtension>
        </extensions>
      </trkpt>
      <trkpt lat="24.489904381334781646728515625" lon="118.1483612023293972015380859375">
        <ele>18</ele>
        <time>2022-07-17T22:14:49.000Z</time>
        <extensions>
          <ns3:TrackPointExtension>
            <ns3:hr>142</ns3:hr>
            <ns3:cad>90</ns3:cad>
          </ns3:TrackPointExtension>
        </extensions>
      </trkpt>
      <trkpt lat="24.4899139367043972015380859375" lon="118.1483612023293972015380859375">
        <ele>18.200000762939453125</ele>
        <time>2022-07-17T22:14:54.000Z</time>
        <extensions>
          <ns3:TrackPointExtension>
            <ns3:hr>142</ns3:hr>
            <ns3:cad>90</ns3:cad>
          </ns3:TrackPointExtension>
        </extensions>
      </trkpt>
      <trkpt lat="24.48999213986098766326904296875" lon="118.1483917124569416046142578125">
        <ele>18.3999996185302734375</ele>
        <time>2022-07-17T22:14:59.000Z</time>
        <extensions>
          <ns3:TrackPointExtension>
            <ns3:hr>139</ns3:hr>
            <ns3:cad>90</ns3:cad>
          </ns3:TrackPointExtension>
        </extensions>
      </trkpt>
      <trkpt lat="24.49008174240589141845703125" lon="118.1483917124569416046142578125">
        <ele>18.799999237060546875</ele>
        <time>2022-07-17T22:15:04.000Z</time>
        <extensions>
          <ns3:TrackPointExtension>
            <ns3:hr>140</ns3:hr>
            <ns3:cad>90</ns3:cad>
          </ns3:TrackPointExtension>
        </extensions>
      </trkpt>
      <trkpt lat="24.490161873400211334228515625" lon="118.14833060838282108306884765625">
        <ele>19</ele>
        <time>2022-07-17T22:15:09.000Z</time>
        <extensions>
          <ns3:TrackPointExtension>
            <ns3:hr>140</ns3:hr>
            <ns3:cad>90</ns3:cad>
          </ns3:TrackPointExtension>
        </extensions>
      </trkpt>
      <trkpt lat="24.49024007655680179595947265625" lon="118.14823907800018787384033203125">
        <ele>19.200000762939453125</ele>
        <time>2022-07-17T22:15:14.000Z</time>
        <extensions>
          <ns3:TrackPointExtension>
            <ns3:hr>141</ns3:hr>
            <ns3:cad>90</ns3:cad>
          </ns3:TrackPointExtension>
        </extensions>
      </trkpt>
      <trkpt lat="24.490320123732089996337890625" lon="118.1481246650218963623046875">
        <ele>19.6000003814697265625</ele>
        <time>2022-07-17T22:15:19.000Z</time>
        <extensions>
          <ns3:TrackPointExtension>
            <ns3:hr>141</ns3:hr>
            <ns3:cad>90</ns3:cad>
          </ns3:TrackPointExtension>
        </extensions>
      </trkpt>
      <trkpt lat="24.49038692750036716461181640625" lon="118.14800262451171875">
        <ele>19.799999237060546875</ele>
        <time>2022-07-17T22:15:24.000Z</time>
        <extensions>
          <ns3:TrackPointExtension>
            <ns3:hr>142</ns3:hr>
            <ns3:cad>90</ns3:cad>
          </ns3:TrackPointExtension>
        </extensions>
      </trkpt>
      <trkpt lat="24.4904460199177265167236328125" lon="118.14788050018250942230224609375">
        <ele>20</ele>
        <time>2022-07-17T22:15:29.000Z</time>
        <extensions>
          <ns3:TrackPointExtension>
            <ns3:hr>142</ns3:hr>
            <ns3:cad>90</ns3:cad>
          </ns3:TrackPointExtension>
        </extensions>
      </trkpt>
      <trkpt lat="24.490516595542430877685546875" lon="118.1477660872042179107666015625">
        <ele>20</ele>
        <time>2022-07-17T22:15:34.000Z</time>
        <extensions>
          <ns3:TrackPointExtension>
            <ns3:hr>141</ns3:hr>
            <ns3:cad>90</ns3:cad>
          </ns3:TrackPointExtension>
        </extensions>
      </trkpt>
      <trkpt lat="24.49059672653675079345703125" lon="118.14764396287500858306884765625">
        <ele>20.6000003814697265625</ele>
        <time>2022-07-17T22:15:39.000Z</time>
        <extensions>
          <ns3:TrackPointExtension>
            <ns3:hr>144</ns3:hr>
            <ns3:cad>90</ns3:cad>
          </ns3:TrackPointExtension>
        </extensions>
      </trkpt>
      <trkpt lat="24.4906673021614551544189453125" lon="118.14750666730105876922607421875">
        <ele>20.3999996185302734375</ele>
        <time>2022-07-17T22:15:44.000Z</time>
        <extensions>
          <ns3:TrackPointExtension>
            <ns3:hr>142</ns3:hr>
            <ns3:cad>90</ns3:cad>
          </ns3:TrackPointExtension>
        </extensions>
      </trkpt>
      <trkpt lat="24.49072455056011676788330078125" lon="118.14738462679088115692138671875">
        <ele>20.200000762939453125</ele>
        <time>2022-07-17T22:15:49.000Z</time>
        <extensions>
          <ns3:TrackPointExtension>
            <ns3:hr>141</ns3:hr>
            <ns3:cad>90</ns3:cad>
          </ns3:TrackPointExtension>
        </extensions>
      </trkpt>
      <trkpt lat="24.49079127050936222076416015625" lon="118.14727012999355792999267578125">
        <ele>20.200000762939453125</ele>
        <time>2022-07-17T22:15:54.000Z</time>
        <extensions>
          <ns3:TrackPointExtension>
            <ns3:hr>143</ns3:hr>
            <ns3:cad>90</ns3:cad>
          </ns3:TrackPointExtension>
        </extensions>
      </trkpt>
      <trkpt lat="24.49087140150368213653564453125" lon="118.14716334454715251922607421875">
        <ele>20.3999996185302734375</ele>
        <time>2022-07-17T22:15:59.000Z</time>
        <extensions>
          <ns3:TrackPointExtension>
            <ns3:hr>146</ns3:hr>
            <ns3:cad>90</ns3:cad>
          </ns3:TrackPointExtension>
        </extensions>
      </trkpt>
      <trkpt lat="24.4909439049661159515380859375" lon="118.14702604897320270538330078125">
        <ele>20</ele>
        <time>2022-07-17T22:16:04.000Z</time>
        <extensions>
          <ns3:TrackPointExtension>
            <ns3:hr>144</ns3:hr>
            <ns3:cad>90</ns3:cad>
          </ns3:TrackPointExtension>
        </extensions>
      </trkpt>
      <trkpt lat="24.4910106249153614044189453125" lon="118.14688104204833507537841796875">
        <ele>20.6000003814697265625</ele>
        <time>2022-07-17T22:16:09.000Z</time>
        <extensions>
          <ns3:TrackPointExtension>
            <ns3:hr>146</ns3:hr>
            <ns3:cad>90</ns3:cad>
          </ns3:TrackPointExtension>
        </extensions>
      </trkpt>
      <trkpt lat="24.49107550084590911865234375" lon="118.1467361189424991607666015625">
        <ele>20.6000003814697265625</ele>
        <time>2022-07-17T22:16:14.000Z</time>
        <extensions>
          <ns3:TrackPointExtension>
            <ns3:hr>144</ns3:hr>
            <ns3:cad>90</ns3:cad>
          </ns3:TrackPointExtension>
        </extensions>
      </trkpt>
      <trkpt lat="24.49114029295742511749267578125" lon="118.14659873954951763153076171875">
        <ele>20.3999996185302734375</ele>
        <time>2022-07-17T22:16:19.000Z</time>
        <extensions>
          <ns3:TrackPointExtension>
            <ns3:hr>144</ns3:hr>
            <ns3:cad>90</ns3:cad>
          </ns3:TrackPointExtension>
        </extensions>
      </trkpt>
      <trkpt lat="24.4912223517894744873046875" lon="118.14650720916688442230224609375">
        <ele>20</ele>
        <time>2022-07-17T22:16:24.000Z</time>
        <extensions>
          <ns3:TrackPointExtension>
            <ns3:hr>145</ns3:hr>
            <ns3:cad>90</ns3:cad>
          </ns3:TrackPointExtension>
        </extensions>
      </trkpt>
      <trkpt lat="24.49132536537945270538330078125" lon="118.14650720916688442230224609375">
        <ele>19.799999237060546875</ele>
        <time>2022-07-17T22:16:29.000Z</time>
        <extensions>
          <ns3:TrackPointExtension>
            <ns3:hr>142</ns3:hr>
            <ns3:cad>90</ns3:cad>
          </ns3:TrackPointExtension>
        </extensions>
      </trkpt>
      <trkpt lat="24.4914397783577442169189453125" lon="118.146530091762542724609375">
        <ele>19.3999996185302734375</ele>
        <time>2022-07-17T22:16:34.000Z</time>
        <extensions>
          <ns3:TrackPointExtension>
            <ns3:hr>144</ns3:hr>
            <ns3:cad>90</ns3:cad>
          </ns3:TrackPointExtension>
        </extensions>
      </trkpt>
      <trkpt lat="24.4915561191737651824951171875" lon="118.1465453468263149261474609375">
        <ele>19</ele>
        <time>2022-07-17T22:16:39.000Z</time>
        <extensions>
          <ns3:TrackPointExtension>
            <ns3:hr>144</ns3:hr>
            <ns3:cad>90</ns3:cad>
          </ns3:TrackPointExtension>
        </extensions>
      </trkpt>
      <trkpt lat="24.49165913276374340057373046875" lon="118.146560601890087127685546875">
        <ele>18.6000003814697265625</ele>
        <time>2022-07-17T22:16:44.000Z</time>
        <extensions>
          <ns3:TrackPointExtension>
            <ns3:hr>144</ns3:hr>
            <ns3:cad>90</ns3:cad>
          </ns3:TrackPointExtension>
        </extensions>
      </trkpt>
      <trkpt lat="24.49175451882183551788330078125" lon="118.14659111201763153076171875">
        <ele>18.200000762939453125</ele>
        <time>2022-07-17T22:16:49.000Z</time>
        <extensions>
          <ns3:TrackPointExtension>
            <ns3:hr>143</ns3:hr>
            <ns3:cad>90</ns3:cad>
          </ns3:TrackPointExtension>
        </extensions>
      </trkpt>
      <trkpt lat="24.491859376430511474609375" lon="118.146621622145175933837890625">
        <ele>18</ele>
        <time>2022-07-17T22:16:54.000Z</time>
        <extensions>
          <ns3:TrackPointExtension>
            <ns3:hr>142</ns3:hr>
            <ns3:cad>90</ns3:cad>
          </ns3:TrackPointExtension>
        </extensions>
      </trkpt>
      <trkpt lat="24.49197194539010524749755859375" lon="118.14665221609175205230712890625">
        <ele>18</ele>
        <time>2022-07-17T22:16:59.000Z</time>
        <extensions>
          <ns3:TrackPointExtension>
            <ns3:hr>140</ns3:hr>
            <ns3:cad>90</ns3:cad>
          </ns3:TrackPointExtension>
        </extensions>
      </trkpt>
      <trkpt lat="24.49209205806255340576171875" lon="118.14668272621929645538330078125">
        <ele>17.6000003814697265625</ele>
        <time>2022-07-17T22:17:04.000Z</time>
        <extensions>
          <ns3:TrackPointExtension>
            <ns3:hr>141</ns3:hr>
            <ns3:cad>90</ns3:cad>
          </ns3:TrackPointExtension>
        </extensions>
      </trkpt>
      <trkpt lat="24.4922161102294921875" lon="118.146720863878726959228515625">
        <ele>17.3999996185302734375</ele>
        <time>2022-07-17T22:17:09.000Z</time>
        <extensions>
          <ns3:TrackPointExtension>
            <ns3:hr>138</ns3:hr>
            <ns3:cad>84</ns3:cad>
          </ns3:TrackPointExtension>
        </extensions>
      </trkpt>
      <trkpt lat="24.4923381507396697998046875" lon="118.1467513740062713623046875">
        <ele>17</ele>
        <time>2022-07-17T22:17:14.000Z</time>
        <extensions>
          <ns3:TrackPointExtension>
            <ns3:hr>138</ns3:hr>
            <ns3:cad>84</ns3:cad>
          </ns3:TrackPointExtension>
        </extensions>
      </trkpt>
      <trkpt lat="24.49246781878173351287841796875" lon="118.14677425660192966461181640625">
        <ele>17.3999996185302734375</ele>
        <time>2022-07-17T22:17:19.000Z</time>
        <extensions>
          <ns3:TrackPointExtension>
            <ns3:hr>140</ns3:hr>
            <ns3:cad>84</ns3:cad>
          </ns3:TrackPointExtension>
        </extensions>
      </trkpt>
      <trkpt lat="24.492675773799419403076171875" lon="118.146873414516448974609375">
        <ele>18</ele>
        <time>2022-07-17T22:17:24.000Z</time>
        <extensions>
          <ns3:TrackPointExtension>
            <ns3:hr>142</ns3:hr>
            <ns3:cad>84</ns3:cad>
          </ns3:TrackPointExtension>
        </extensions>
      </trkpt>
      <trkpt lat="24.492675773799419403076171875" lon="118.146873414516448974609375">
        <ele>18</ele>
        <time>2022-07-17T22:17:29.000Z</time>
        <extensions>
          <ns3:TrackPointExtension>
            <ns3:hr>144</ns3:hr>
            <ns3:cad>84</ns3:cad>
          </ns3:TrackPointExtension>
        </extensions>
      </trkpt>
      <trkpt lat="24.492675773799419403076171875" lon="118.146873414516448974609375">
        <ele>18</ele>
        <time>2022-07-17T22:17:34.000Z</time>
        <extensions>
          <ns3:TrackPointExtension>
            <ns3:hr>144</ns3:hr>
            <ns3:cad>84</ns3:cad>
          </ns3:TrackPointExtension>
        </extensions>
      </trkpt>
      <trkpt lat="24.492675773799419403076171875" lon="118.146873414516448974609375">
        <ele>18</ele>
        <time>2022-07-17T22:17:39.000Z</time>
        <extensions>
          <ns3:TrackPointExtension>
            <ns3:hr>145</ns3:hr>
            <ns3:cad>84</ns3:cad>
          </ns3:TrackPointExtension>
        </extensions>
      </trkpt>
      <trkpt lat="24.492675773799419403076171875" lon="118.146873414516448974609375">
        <ele>18</ele>
        <time>2022-07-17T22:17:44.000Z</time>
        <extensions>
          <ns3:TrackPointExtension>
            <ns3:hr>145</ns3:hr>
            <ns3:cad>84</ns3:cad>
          </ns3:TrackPointExtension>
        </extensions>
      </trkpt>
      <trkpt lat="24.492675773799419403076171875" lon="118.146873414516448974609375">
        <ele>18</ele>
        <time>2022-07-17T22:17:49.000Z</time>
        <extensions>
          <ns3:TrackPointExtension>
            <ns3:hr>144</ns3:hr>
            <ns3:cad>84</ns3:cad>
          </ns3:TrackPointExtension>
        </extensions>
      </trkpt>
      <trkpt lat="24.492675773799419403076171875" lon="118.146873414516448974609375">
        <ele>18</ele>
        <time>2022-07-17T22:17:54.000Z</time>
        <extensions>
          <ns3:TrackPointExtension>
            <ns3:hr>145</ns3:hr>
            <ns3:cad>84</ns3:cad>
          </ns3:TrackPointExtension>
        </extensions>
      </trkpt>
      <trkpt lat="24.492675773799419403076171875" lon="118.146873414516448974609375">
        <ele>18</ele>
        <time>2022-07-17T22:17:59.000Z</time>
        <extensions>
          <ns3:TrackPointExtension>
            <ns3:hr>146</ns3:hr>
            <ns3:cad>84</ns3:cad>
          </ns3:TrackPointExtension>
        </extensions>
      </trkpt>
      <trkpt lat="24.492675773799419403076171875" lon="118.146873414516448974609375">
        <ele>18</ele>
        <time>2022-07-17T22:18:04.000Z</time>
        <extensions>
          <ns3:TrackPointExtension>
            <ns3:hr>145</ns3:hr>
            <ns3:cad>84</ns3:cad>
          </ns3:TrackPointExtension>
        </extensions>
      </trkpt>
      <trkpt lat="24.492675773799419403076171875" lon="118.146873414516448974609375">
        <ele>18</ele>
        <time>2022-07-17T22:18:09.000Z</time>
        <extensions>
          <ns3:TrackPointExtension>
            <ns3:hr>146</ns3:hr>
            <ns3:cad>84</ns3:cad>
          </ns3:TrackPointExtension>
        </extensions>
      </trkpt>
      <trkpt lat="24.49269480071961879730224609375" lon="118.146842904388904571533203125">
        <ele>18.200000762939453125</ele>
        <time>2022-07-17T22:18:14.000Z</time>
        <extensions>
          <ns3:TrackPointExtension>
            <ns3:hr>145</ns3:hr>
            <ns3:cad>84</ns3:cad>
          </ns3:TrackPointExtension>
        </extensions>
      </trkpt>
      <trkpt lat="24.492797814309597015380859375" lon="118.14675900153815746307373046875">
        <ele>18.6000003814697265625</ele>
        <time>2022-07-17T22:18:19.000Z</time>
        <extensions>
          <ns3:TrackPointExtension>
            <ns3:hr>147</ns3:hr>
            <ns3:cad>84</ns3:cad>
          </ns3:TrackPointExtension>
        </extensions>
      </trkpt>
      <trkpt lat="24.49289127252995967864990234375" lon="118.14669035375118255615234375">
        <ele>18.799999237060546875</ele>
        <time>2022-07-17T22:18:24.000Z</time>
        <extensions>
          <ns3:TrackPointExtension>
            <ns3:hr>149</ns3:hr>
            <ns3:cad>84</ns3:cad>
          </ns3:TrackPointExtension>
        </extensions>
      </trkpt>
      <trkpt lat="24.492969475686550140380859375" lon="118.14659111201763153076171875">
        <ele>19</ele>
        <time>2022-07-17T22:18:29.000Z</time>
        <extensions>
          <ns3:TrackPointExtension>
            <ns3:hr>151</ns3:hr>
            <ns3:cad>84</ns3:cad>
          </ns3:TrackPointExtension>
        </extensions>
      </trkpt>
      <trkpt lat="24.4930152408778667449951171875" lon="118.1464538164436817169189453125">
        <ele>19.200000762939453125</ele>
        <time>2022-07-17T22:18:34.000Z</time>
        <extensions>
          <ns3:TrackPointExtension>
            <ns3:hr>151</ns3:hr>
            <ns3:cad>84</ns3:cad>
          </ns3:TrackPointExtension>
        </extensions>
      </trkpt>
      <trkpt lat="24.4930457510054111480712890625" lon="118.1463012658059597015380859375">
        <ele>19.3999996185302734375</ele>
        <time>2022-07-17T22:18:39.000Z</time>
        <extensions>
          <ns3:TrackPointExtension>
            <ns3:hr>151</ns3:hr>
            <ns3:cad>84</ns3:cad>
          </ns3:TrackPointExtension>
        </extensions>
      </trkpt>
      <trkpt lat="24.4930705614387989044189453125" lon="118.14614863134920597076416015625">
        <ele>19.3999996185302734375</ele>
        <time>2022-07-17T22:18:44.000Z</time>
        <extensions>
          <ns3:TrackPointExtension>
            <ns3:hr>150</ns3:hr>
            <ns3:cad>84</ns3:cad>
          </ns3:TrackPointExtension>
        </extensions>
      </trkpt>
      <trkpt lat="24.49308581650257110595703125" lon="118.14599608071148395538330078125">
        <ele>20</ele>
        <time>2022-07-17T22:18:49.000Z</time>
        <extensions>
          <ns3:TrackPointExtension>
            <ns3:hr>152</ns3:hr>
            <ns3:cad>84</ns3:cad>
          </ns3:TrackPointExtension>
        </extensions>
      </trkpt>
      <trkpt lat="24.493104927241802215576171875" lon="118.14583581872284412384033203125">
        <ele>20.200000762939453125</ele>
        <time>2022-07-17T22:18:54.000Z</time>
        <extensions>
          <ns3:TrackPointExtension>
            <ns3:hr>151</ns3:hr>
            <ns3:cad>84</ns3:cad>
          </ns3:TrackPointExtension>
        </extensions>
      </trkpt>
      <trkpt lat="24.493146836757659912109375" lon="118.145690895617008209228515625">
        <ele>21.200000762939453125</ele>
        <time>2022-07-17T22:18:59.000Z</time>
        <extensions>
          <ns3:TrackPointExtension>
            <ns3:hr>153</ns3:hr>
            <ns3:cad>84</ns3:cad>
          </ns3:TrackPointExtension>
        </extensions>
      </trkpt>
      <trkpt lat="24.49320978485047817230224609375" lon="118.14555351622402667999267578125">
        <ele>22.3999996185302734375</ele>
        <time>2022-07-17T22:19:04.000Z</time>
        <extensions>
          <ns3:TrackPointExtension>
            <ns3:hr>153</ns3:hr>
            <ns3:cad>84</ns3:cad>
          </ns3:TrackPointExtension>
        </extensions>
      </trkpt>
      <trkpt lat="24.4932727329432964324951171875" lon="118.1454238481819629669189453125">
        <ele>23.3999996185302734375</ele>
        <time>2022-07-17T22:19:09.000Z</time>
        <extensions>
          <ns3:TrackPointExtension>
            <ns3:hr>152</ns3:hr>
            <ns3:cad>84</ns3:cad>
          </ns3:TrackPointExtension>
        </extensions>
      </trkpt>
      <trkpt lat="24.493324197828769683837890625" lon="118.1453018076717853546142578125">
        <ele>24.6000003814697265625</ele>
        <time>2022-07-17T22:19:14.000Z</time>
        <extensions>
          <ns3:TrackPointExtension>
            <ns3:hr>152</ns3:hr>
            <ns3:cad>90</ns3:cad>
          </ns3:TrackPointExtension>
        </extensions>
      </trkpt>
      <trkpt lat="24.4933471642434597015380859375" lon="118.14517968334257602691650390625">
        <ele>25</ele>
        <time>2022-07-17T22:19:19.000Z</time>
        <extensions>
          <ns3:TrackPointExtension>
            <ns3:hr>152</ns3:hr>
            <ns3:cad>90</ns3:cad>
          </ns3:TrackPointExtension>
        </extensions>
      </trkpt>
      <trkpt lat="24.49333953671157360076904296875" lon="118.1450500153005123138427734375">
        <ele>24.799999237060546875</ele>
        <time>2022-07-17T22:19:24.000Z</time>
        <extensions>
          <ns3:TrackPointExtension>
            <ns3:hr>151</ns3:hr>
            <ns3:cad>90</ns3:cad>
          </ns3:TrackPointExtension>
        </extensions>
      </trkpt>
      <trkpt lat="24.4933471642434597015380859375" lon="118.1449127197265625">
        <ele>24.3999996185302734375</ele>
        <time>2022-07-17T22:19:29.000Z</time>
        <extensions>
          <ns3:TrackPointExtension>
            <ns3:hr>151</ns3:hr>
            <ns3:cad>90</ns3:cad>
          </ns3:TrackPointExtension>
        </extensions>
      </trkpt>
      <trkpt lat="24.49338714592158794403076171875" lon="118.144782967865467071533203125">
        <ele>24.3999996185302734375</ele>
        <time>2022-07-17T22:19:34.000Z</time>
        <extensions>
          <ns3:TrackPointExtension>
            <ns3:hr>150</ns3:hr>
            <ns3:cad>90</ns3:cad>
          </ns3:TrackPointExtension>
        </extensions>
      </trkpt>
      <trkpt lat="24.49341195635497570037841796875" lon="118.144660927355289459228515625">
        <ele>23.6000003814697265625</ele>
        <time>2022-07-17T22:19:39.000Z</time>
        <extensions>
          <ns3:TrackPointExtension>
            <ns3:hr>148</ns3:hr>
            <ns3:cad>90</ns3:cad>
          </ns3:TrackPointExtension>
        </extensions>
      </trkpt>
      <trkpt lat="24.493410028517246246337890625" lon="118.14453117549419403076171875">
        <ele>22.799999237060546875</ele>
        <time>2022-07-17T22:19:44.000Z</time>
        <extensions>
          <ns3:TrackPointExtension>
            <ns3:hr>148</ns3:hr>
            <ns3:cad>90</ns3:cad>
          </ns3:TrackPointExtension>
        </extensions>
      </trkpt>
      <trkpt lat="24.4934138841927051544189453125" lon="118.144378624856472015380859375">
        <ele>22.3999996185302734375</ele>
        <time>2022-07-17T22:19:49.000Z</time>
        <extensions>
          <ns3:TrackPointExtension>
            <ns3:hr>148</ns3:hr>
            <ns3:cad>90</ns3:cad>
          </ns3:TrackPointExtension>
        </extensions>
      </trkpt>
      <trkpt lat="24.49344062246382236480712890625" lon="118.14422607421875">
        <ele>22.200000762939453125</ele>
        <time>2022-07-17T22:19:54.000Z</time>
        <extensions>
          <ns3:TrackPointExtension>
            <ns3:hr>146</ns3:hr>
            <ns3:cad>90</ns3:cad>
          </ns3:TrackPointExtension>
        </extensions>
      </trkpt>
      <trkpt lat="24.49349778704345226287841796875" lon="118.14408869482576847076416015625">
        <ele>22</ele>
        <time>2022-07-17T22:19:59.000Z</time>
        <extensions>
          <ns3:TrackPointExtension>
            <ns3:hr>148</ns3:hr>
            <ns3:cad>90</ns3:cad>
          </ns3:TrackPointExtension>
        </extensions>
      </trkpt>
      <trkpt lat="24.4935550354421138763427734375" lon="118.1439590267837047576904296875">
        <ele>22.3999996185302734375</ele>
        <time>2022-07-17T22:20:04.000Z</time>
        <extensions>
          <ns3:TrackPointExtension>
            <ns3:hr>148</ns3:hr>
            <ns3:cad>90</ns3:cad>
          </ns3:TrackPointExtension>
        </extensions>
      </trkpt>
      <trkpt lat="24.49360272847115993499755859375" lon="118.1438292749226093292236328125">
        <ele>23</ele>
        <time>2022-07-17T22:20:09.000Z</time>
        <extensions>
          <ns3:TrackPointExtension>
            <ns3:hr>148</ns3:hr>
            <ns3:cad>90</ns3:cad>
          </ns3:TrackPointExtension>
        </extensions>
      </trkpt>
      <trkpt lat="24.4936522655189037322998046875" lon="118.14369960688054561614990234375">
        <ele>23.799999237060546875</ele>
        <time>2022-07-17T22:20:14.000Z</time>
        <extensions>
          <ns3:TrackPointExtension>
            <ns3:hr>149</ns3:hr>
            <ns3:cad>90</ns3:cad>
          </ns3:TrackPointExtension>
        </extensions>
      </trkpt>
      <trkpt lat="24.493705742061138153076171875" lon="118.14356231130659580230712890625">
        <ele>23.799999237060546875</ele>
        <time>2022-07-17T22:20:19.000Z</time>
        <extensions>
          <ns3:TrackPointExtension>
            <ns3:hr>146</ns3:hr>
            <ns3:cad>84</ns3:cad>
          </ns3:TrackPointExtension>
        </extensions>
      </trkpt>
      <trkpt lat="24.493747651576995849609375" lon="118.1434249319136142730712890625">
        <ele>23.200000762939453125</ele>
        <time>2022-07-17T22:20:24.000Z</time>
        <extensions>
          <ns3:TrackPointExtension>
            <ns3:hr>145</ns3:hr>
            <ns3:cad>84</ns3:cad>
          </ns3:TrackPointExtension>
        </extensions>
      </trkpt>
      <trkpt lat="24.49378964491188526153564453125" lon="118.14328000880777835845947265625">
        <ele>23.6000003814697265625</ele>
        <time>2022-07-17T22:20:29.000Z</time>
        <extensions>
          <ns3:TrackPointExtension>
            <ns3:hr>143</ns3:hr>
            <ns3:cad>84</ns3:cad>
          </ns3:TrackPointExtension>
        </extensions>
      </trkpt>
      <trkpt lat="24.493827782571315765380859375" lon="118.143127374351024627685546875">
        <ele>23.799999237060546875</ele>
        <time>2022-07-17T22:20:34.000Z</time>
        <extensions>
          <ns3:TrackPointExtension>
            <ns3:hr>146</ns3:hr>
            <ns3:cad>84</ns3:cad>
          </ns3:TrackPointExtension>
        </extensions>
      </trkpt>
      <trkpt lat="24.4938487373292446136474609375" lon="118.1429900787770748138427734375">
        <ele>24</ele>
        <time>2022-07-17T22:20:39.000Z</time>
        <extensions>
          <ns3:TrackPointExtension>
            <ns3:hr>144</ns3:hr>
            <ns3:cad>84</ns3:cad>
          </ns3:TrackPointExtension>
        </extensions>
      </trkpt>
      <trkpt lat="24.49386977590620517730712890625" lon="118.14286041073501110076904296875">
        <ele>24.799999237060546875</ele>
        <time>2022-07-17T22:20:44.000Z</time>
        <extensions>
          <ns3:TrackPointExtension>
            <ns3:hr>141</ns3:hr>
            <ns3:cad>84</ns3:cad>
          </ns3:TrackPointExtension>
        </extensions>
      </trkpt>
      <trkpt lat="24.49389643035829067230224609375" lon="118.14273065887391567230224609375">
        <ele>25.200000762939453125</ele>
        <time>2022-07-17T22:20:49.000Z</time>
        <extensions>
          <ns3:TrackPointExtension>
            <ns3:hr>140</ns3:hr>
            <ns3:cad>84</ns3:cad>
          </ns3:TrackPointExtension>
        </extensions>
      </trkpt>
      <trkpt lat="24.4939288683235645294189453125" lon="118.142600990831851959228515625">
        <ele>26</ele>
        <time>2022-07-17T22:20:54.000Z</time>
        <extensions>
          <ns3:TrackPointExtension>
            <ns3:hr>142</ns3:hr>
            <ns3:cad>84</ns3:cad>
          </ns3:TrackPointExtension>
        </extensions>
      </trkpt>
      <trkpt lat="24.4939650781452655792236328125" lon="118.14247123897075653076171875">
        <ele>26</ele>
        <time>2022-07-17T22:20:59.000Z</time>
        <extensions>
          <ns3:TrackPointExtension>
            <ns3:hr>143</ns3:hr>
            <ns3:cad>84</ns3:cad>
          </ns3:TrackPointExtension>
        </extensions>
      </trkpt>
      <trkpt lat="24.4940089993178844451904296875" lon="118.14237208105623722076416015625">
        <ele>26</ele>
        <time>2022-07-17T22:21:04.000Z</time>
        <extensions>
          <ns3:TrackPointExtension>
            <ns3:hr>142</ns3:hr>
            <ns3:cad>84</ns3:cad>
          </ns3:TrackPointExtension>
        </extensions>
      </trkpt>
      <trkpt lat="24.4940395094454288482666015625" lon="118.142257668077945709228515625">
        <ele>26.200000762939453125</ele>
        <time>2022-07-17T22:21:09.000Z</time>
        <extensions>
          <ns3:TrackPointExtension>
            <ns3:hr>140</ns3:hr>
            <ns3:cad>84</ns3:cad>
          </ns3:TrackPointExtension>
        </extensions>
      </trkpt>
      <trkpt lat="24.49406239204108715057373046875" lon="118.14213554374873638153076171875">
        <ele>26.799999237060546875</ele>
        <time>2022-07-17T22:21:14.000Z</time>
        <extensions>
          <ns3:TrackPointExtension>
            <ns3:hr>142</ns3:hr>
            <ns3:cad>84</ns3:cad>
          </ns3:TrackPointExtension>
        </extensions>
      </trkpt>
      <trkpt lat="24.49409290216863155364990234375" lon="118.14201350323855876922607421875">
        <ele>27</ele>
        <time>2022-07-17T22:21:19.000Z</time>
        <extensions>
          <ns3:TrackPointExtension>
            <ns3:hr>142</ns3:hr>
            <ns3:cad>84</ns3:cad>
          </ns3:TrackPointExtension>
        </extensions>
      </trkpt>
      <trkpt lat="24.494134895503520965576171875" lon="118.14190671779215335845947265625">
        <ele>26.799999237060546875</ele>
        <time>2022-07-17T22:21:24.000Z</time>
        <extensions>
          <ns3:TrackPointExtension>
            <ns3:hr>140</ns3:hr>
            <ns3:cad>84</ns3:cad>
          </ns3:TrackPointExtension>
        </extensions>
      </trkpt>
      <trkpt lat="24.49418828822672367095947265625" lon="118.1417998485267162322998046875">
        <ele>26.6000003814697265625</ele>
        <time>2022-07-17T22:21:29.000Z</time>
        <extensions>
          <ns3:TrackPointExtension>
            <ns3:hr>142</ns3:hr>
            <ns3:cad>84</ns3:cad>
          </ns3:TrackPointExtension>
        </extensions>
      </trkpt>
      <trkpt lat="24.4942721910774707794189453125" lon="118.141723573207855224609375">
        <ele>26.6000003814697265625</ele>
        <time>2022-07-17T22:21:34.000Z</time>
        <extensions>
          <ns3:TrackPointExtension>
            <ns3:hr>143</ns3:hr>
            <ns3:cad>84</ns3:cad>
          </ns3:TrackPointExtension>
        </extensions>
      </trkpt>
      <trkpt lat="24.4943828321993350982666015625" lon="118.14168543554842472076416015625">
        <ele>27.200000762939453125</ele>
        <time>2022-07-17T22:21:39.000Z</time>
        <extensions>
          <ns3:TrackPointExtension>
            <ns3:hr>142</ns3:hr>
            <ns3:cad>84</ns3:cad>
          </ns3:TrackPointExtension>
        </extensions>
      </trkpt>
      <trkpt lat="24.49450872838497161865234375" lon="118.141693063080310821533203125">
        <ele>28</ele>
        <time>2022-07-17T22:21:44.000Z</time>
        <extensions>
          <ns3:TrackPointExtension>
            <ns3:hr>118</ns3:hr>
            <ns3:cad>54</ns3:cad>
          </ns3:TrackPointExtension>
        </extensions>
      </trkpt>
      <trkpt lat="24.49462884105741977691650390625" lon="118.14170069061219692230224609375">
        <ele>28.3999996185302734375</ele>
        <time>2022-07-17T22:21:49.000Z</time>
        <extensions>
          <ns3:TrackPointExtension>
            <ns3:hr>120</ns3:hr>
            <ns3:cad>78</ns3:cad>
          </ns3:TrackPointExtension>
        </extensions>
      </trkpt>
      <trkpt lat="24.494747109711170196533203125" lon="118.141723573207855224609375">
        <ele>28.6000003814697265625</ele>
        <time>2022-07-17T22:21:54.000Z</time>
        <extensions>
          <ns3:TrackPointExtension>
            <ns3:hr>122</ns3:hr>
            <ns3:cad>84</ns3:cad>
          </ns3:TrackPointExtension>
        </extensions>
      </trkpt>
      <trkpt lat="24.494882561266422271728515625" lon="118.1417693383991718292236328125">
        <ele>28.799999237060546875</ele>
        <time>2022-07-17T22:21:59.000Z</time>
        <extensions>
          <ns3:TrackPointExtension>
            <ns3:hr>126</ns3:hr>
            <ns3:cad>90</ns3:cad>
          </ns3:TrackPointExtension>
        </extensions>
      </trkpt>
      <trkpt lat="24.49502178467810153961181640625" lon="118.14183044247329235076904296875">
        <ele>28.200000762939453125</ele>
        <time>2022-07-17T22:22:04.000Z</time>
        <extensions>
          <ns3:TrackPointExtension>
            <ns3:hr>128</ns3:hr>
            <ns3:cad>84</ns3:cad>
          </ns3:TrackPointExtension>
        </extensions>
      </trkpt>
      <trkpt lat="24.49515338055789470672607421875" lon="118.1418990902602672576904296875">
        <ele>28</ele>
        <time>2022-07-17T22:22:09.000Z</time>
        <extensions>
          <ns3:TrackPointExtension>
            <ns3:hr>129</ns3:hr>
            <ns3:cad>84</ns3:cad>
          </ns3:TrackPointExtension>
        </extensions>
      </trkpt>
      <trkpt lat="24.49526972137391567230224609375" lon="118.14192197285592555999755859375">
        <ele>27.6000003814697265625</ele>
        <time>2022-07-17T22:22:14.000Z</time>
        <extensions>
          <ns3:TrackPointExtension>
            <ns3:hr>131</ns3:hr>
            <ns3:cad>84</ns3:cad>
          </ns3:TrackPointExtension>
        </extensions>
      </trkpt>
      <trkpt lat="24.49535940773785114288330078125" lon="118.1419296003878116607666015625">
        <ele>27.6000003814697265625</ele>
        <time>2022-07-17T22:22:19.000Z</time>
        <extensions>
          <ns3:TrackPointExtension>
            <ns3:hr>136</ns3:hr>
            <ns3:cad>84</ns3:cad>
          </ns3:TrackPointExtension>
        </extensions>
      </trkpt>
      <trkpt lat="24.49544138275086879730224609375" lon="118.1419601105153560638427734375">
        <ele>27.799999237060546875</ele>
        <time>2022-07-17T22:22:24.000Z</time>
        <extensions>
          <ns3:TrackPointExtension>
            <ns3:hr>138</ns3:hr>
            <ns3:cad>84</ns3:cad>
          </ns3:TrackPointExtension>
        </extensions>
      </trkpt>
      <trkpt lat="24.49553106911480426788330078125" lon="118.14201350323855876922607421875">
        <ele>27.3999996185302734375</ele>
        <time>2022-07-17T22:22:29.000Z</time>
        <extensions>
          <ns3:TrackPointExtension>
            <ns3:hr>141</ns3:hr>
            <ns3:cad>84</ns3:cad>
          </ns3:TrackPointExtension>
        </extensions>
      </trkpt>
      <trkpt lat="24.495641626417636871337890625" lon="118.142066895961761474609375">
        <ele>26.799999237060546875</ele>
        <time>2022-07-17T22:22:34.000Z</time>
        <extensions>
          <ns3:TrackPointExtension>
            <ns3:hr>142</ns3:hr>
            <ns3:cad>90</ns3:cad>
          </ns3:TrackPointExtension>
        </extensions>
      </trkpt>
      <trkpt lat="24.49577515013515949249267578125" lon="118.14210503362119197845458984375">
        <ele>25.6000003814697265625</ele>
        <time>2022-07-17T22:22:39.000Z</time>
        <extensions>
          <ns3:TrackPointExtension>
            <ns3:hr>142</ns3:hr>
            <ns3:cad>90</ns3:cad>
          </ns3:TrackPointExtension>
        </extensions>
      </trkpt>
      <trkpt lat="24.49592015706002712249755859375" lon="118.14212028868496417999267578125">
        <ele>24.200000762939453125</ele>
        <time>2022-07-17T22:22:44.000Z</time>
        <extensions>
          <ns3:TrackPointExtension>
            <ns3:hr>143</ns3:hr>
            <ns3:cad>90</ns3:cad>
          </ns3:TrackPointExtension>
        </extensions>
      </trkpt>
      <trkpt lat="24.49606315232813358306884765625" lon="118.1421431712806224822998046875">
        <ele>23.200000762939453125</ele>
        <time>2022-07-17T22:22:49.000Z</time>
        <extensions>
          <ns3:TrackPointExtension>
            <ns3:hr>144</ns3:hr>
            <ns3:cad>90</ns3:cad>
          </ns3:TrackPointExtension>
        </extensions>
      </trkpt>
      <trkpt lat="24.496206231415271759033203125" lon="118.1421661376953125">
        <ele>23.3999996185302734375</ele>
        <time>2022-07-17T22:22:54.000Z</time>
        <extensions>
          <ns3:TrackPointExtension>
            <ns3:hr>143</ns3:hr>
            <ns3:cad>84</ns3:cad>
          </ns3:TrackPointExtension>
        </extensions>
      </trkpt>
      <trkpt lat="24.496353082358837127685546875" lon="118.14218902029097080230712890625">
        <ele>23.3999996185302734375</ele>
        <time>2022-07-17T22:22:59.000Z</time>
        <extensions>
          <ns3:TrackPointExtension>
            <ns3:hr>144</ns3:hr>
            <ns3:cad>84</ns3:cad>
          </ns3:TrackPointExtension>
        </extensions>
      </trkpt>
      <trkpt lat="24.49649230577051639556884765625" lon="118.14221953041851520538330078125">
        <ele>23.6000003814697265625</ele>
        <time>2022-07-17T22:23:04.000Z</time>
        <extensions>
          <ns3:TrackPointExtension>
            <ns3:hr>144</ns3:hr>
            <ns3:cad>90</ns3:cad>
          </ns3:TrackPointExtension>
        </extensions>
      </trkpt>
      <trkpt lat="24.49661820195615291595458984375" lon="118.1422729231417179107666015625">
        <ele>23.799999237060546875</ele>
        <time>2022-07-17T22:23:09.000Z</time>
        <extensions>
          <ns3:TrackPointExtension>
            <ns3:hr>145</ns3:hr>
            <ns3:cad>84</ns3:cad>
          </ns3:TrackPointExtension>
        </extensions>
      </trkpt>
      <trkpt lat="24.49673269875347614288330078125" lon="118.1423339433968067169189453125">
        <ele>24</ele>
        <time>2022-07-17T22:23:14.000Z</time>
        <extensions>
          <ns3:TrackPointExtension>
            <ns3:hr>143</ns3:hr>
            <ns3:cad>84</ns3:cad>
          </ns3:TrackPointExtension>
        </extensions>
      </trkpt>
      <trkpt lat="24.49683378450572490692138671875" lon="118.1423949636518955230712890625">
        <ele>24.3999996185302734375</ele>
        <time>2022-07-17T22:23:19.000Z</time>
        <extensions>
          <ns3:TrackPointExtension>
            <ns3:hr>143</ns3:hr>
            <ns3:cad>84</ns3:cad>
          </ns3:TrackPointExtension>
        </extensions>
      </trkpt>
      <trkpt lat="24.49693101458251476287841796875" lon="118.14244835637509822845458984375">
        <ele>24.799999237060546875</ele>
        <time>2022-07-17T22:23:24.000Z</time>
        <extensions>
          <ns3:TrackPointExtension>
            <ns3:hr>141</ns3:hr>
            <ns3:cad>84</ns3:cad>
          </ns3:TrackPointExtension>
        </extensions>
      </trkpt>
      <trkpt lat="24.497039727866649627685546875" lon="118.14249412156641483306884765625">
        <ele>24.799999237060546875</ele>
        <time>2022-07-17T22:23:29.000Z</time>
        <extensions>
          <ns3:TrackPointExtension>
            <ns3:hr>141</ns3:hr>
            <ns3:cad>84</ns3:cad>
          </ns3:TrackPointExtension>
        </extensions>
      </trkpt>
      <trkpt lat="24.49715799652040004730224609375" lon="118.14254759810864925384521484375">
        <ele>25.200000762939453125</ele>
        <time>2022-07-17T22:23:34.000Z</time>
        <extensions>
          <ns3:TrackPointExtension>
            <ns3:hr>142</ns3:hr>
            <ns3:cad>84</ns3:cad>
          </ns3:TrackPointExtension>
        </extensions>
      </trkpt>
      <trkpt lat="24.49728774838149547576904296875" lon="118.1425857357680797576904296875">
        <ele>25.6000003814697265625</ele>
        <time>2022-07-17T22:23:39.000Z</time>
        <extensions>
          <ns3:TrackPointExtension>
            <ns3:hr>139</ns3:hr>
            <ns3:cad>84</ns3:cad>
          </ns3:TrackPointExtension>
        </extensions>
      </trkpt>
      <trkpt lat="24.49741548858582973480224609375" lon="118.1426162458956241607666015625">
        <ele>25.799999237060546875</ele>
        <time>2022-07-17T22:23:44.000Z</time>
        <extensions>
          <ns3:TrackPointExtension>
            <ns3:hr>140</ns3:hr>
            <ns3:cad>84</ns3:cad>
          </ns3:TrackPointExtension>
        </extensions>
      </trkpt>
      <trkpt lat="24.49753568507730960845947265625" lon="118.14265438355505466461181640625">
        <ele>25.200000762939453125</ele>
        <time>2022-07-17T22:23:49.000Z</time>
        <extensions>
          <ns3:TrackPointExtension>
            <ns3:hr>140</ns3:hr>
            <ns3:cad>84</ns3:cad>
          </ns3:TrackPointExtension>
        </extensions>
      </trkpt>
      <trkpt lat="24.49764247052371501922607421875" lon="118.1427077762782573699951171875">
        <ele>24.799999237060546875</ele>
        <time>2022-07-17T22:23:54.000Z</time>
        <extensions>
          <ns3:TrackPointExtension>
            <ns3:hr>139</ns3:hr>
            <ns3:cad>84</ns3:cad>
          </ns3:TrackPointExtension>
        </extensions>
      </trkpt>
      <trkpt lat="24.497739784419536590576171875" lon="118.14277642406523227691650390625">
        <ele>24.3999996185302734375</ele>
        <time>2022-07-17T22:23:59.000Z</time>
        <extensions>
          <ns3:TrackPointExtension>
            <ns3:hr>139</ns3:hr>
            <ns3:cad>84</ns3:cad>
          </ns3:TrackPointExtension>
        </extensions>
      </trkpt>
      <trkpt lat="24.49783894233405590057373046875" lon="118.142852783203125">
        <ele>24.200000762939453125</ele>
        <time>2022-07-17T22:24:04.000Z</time>
        <extensions>
          <ns3:TrackPointExtension>
            <ns3:hr>137</ns3:hr>
            <ns3:cad>84</ns3:cad>
          </ns3:TrackPointExtension>
        </extensions>
      </trkpt>
      <trkpt lat="24.49794572778046131134033203125" lon="118.14290617592632770538330078125">
        <ele>24</ele>
        <time>2022-07-17T22:24:09.000Z</time>
        <extensions>
          <ns3:TrackPointExtension>
            <ns3:hr>136</ns3:hr>
            <ns3:cad>84</ns3:cad>
          </ns3:TrackPointExtension>
        </extensions>
      </trkpt>
      <trkpt lat="24.4980430416762828826904296875" lon="118.14293668605387210845947265625">
        <ele>24.6000003814697265625</ele>
        <time>2022-07-17T22:24:14.000Z</time>
        <extensions>
          <ns3:TrackPointExtension>
            <ns3:hr>136</ns3:hr>
            <ns3:cad>84</ns3:cad>
          </ns3:TrackPointExtension>
        </extensions>
      </trkpt>
      <trkpt lat="24.49813264422118663787841796875" lon="118.1429595686495304107666015625">
        <ele>25</ele>
        <time>2022-07-17T22:24:19.000Z</time>
        <extensions>
          <ns3:TrackPointExtension>
            <ns3:hr>139</ns3:hr>
            <ns3:cad>84</ns3:cad>
          </ns3:TrackPointExtension>
        </extensions>
      </trkpt>
      <trkpt lat="24.49823565781116485595703125" lon="118.14298245124518871307373046875">
        <ele>25.3999996185302734375</ele>
        <time>2022-07-17T22:24:24.000Z</time>
        <extensions>
          <ns3:TrackPointExtension>
            <ns3:hr>140</ns3:hr>
            <ns3:cad>84</ns3:cad>
          </ns3:TrackPointExtension>
        </extensions>
      </trkpt>
      <trkpt lat="24.49835769832134246826171875" lon="118.14301296137273311614990234375">
        <ele>25.3999996185302734375</ele>
        <time>2022-07-17T22:24:29.000Z</time>
        <extensions>
          <ns3:TrackPointExtension>
            <ns3:hr>140</ns3:hr>
            <ns3:cad>84</ns3:cad>
          </ns3:TrackPointExtension>
        </extensions>
      </trkpt>
      <trkpt lat="24.49848552234470844268798828125" lon="118.143066354095935821533203125">
        <ele>25.6000003814697265625</ele>
        <time>2022-07-17T22:24:34.000Z</time>
        <extensions>
          <ns3:TrackPointExtension>
            <ns3:hr>140</ns3:hr>
            <ns3:cad>84</ns3:cad>
          </ns3:TrackPointExtension>
        </extensions>
      </trkpt>
      <trkpt lat="24.4985942356288433074951171875" lon="118.14316551201045513153076171875">
        <ele>25.6000003814697265625</ele>
        <time>2022-07-17T22:24:39.000Z</time>
        <extensions>
          <ns3:TrackPointExtension>
            <ns3:hr>142</ns3:hr>
            <ns3:cad>84</ns3:cad>
          </ns3:TrackPointExtension>
        </extensions>
      </trkpt>
      <trkpt lat="24.4986438564956188201904296875" lon="118.143287636339664459228515625">
        <ele>26.200000762939453125</ele>
        <time>2022-07-17T22:24:44.000Z</time>
        <extensions>
          <ns3:TrackPointExtension>
            <ns3:hr>142</ns3:hr>
            <ns3:cad>84</ns3:cad>
          </ns3:TrackPointExtension>
        </extensions>
      </trkpt>
      <trkpt lat="24.49863807298243045806884765625" lon="118.1433944217860698699951171875">
        <ele>27</ele>
        <time>2022-07-17T22:24:49.000Z</time>
        <extensions>
          <ns3:TrackPointExtension>
            <ns3:hr>142</ns3:hr>
            <ns3:cad>84</ns3:cad>
          </ns3:TrackPointExtension>
        </extensions>
      </trkpt>
      <trkpt lat="24.49861519038677215576171875" lon="118.1434859521687030792236328125">
        <ele>27.6000003814697265625</ele>
        <time>2022-07-17T22:24:54.000Z</time>
        <extensions>
          <ns3:TrackPointExtension>
            <ns3:hr>142</ns3:hr>
            <ns3:cad>84</ns3:cad>
          </ns3:TrackPointExtension>
        </extensions>
      </trkpt>
      <trkpt lat="24.49860756285488605499267578125" lon="118.14357756637036800384521484375">
        <ele>27.6000003814697265625</ele>
        <time>2022-07-17T22:24:59.000Z</time>
        <extensions>
          <ns3:TrackPointExtension>
            <ns3:hr>142</ns3:hr>
            <ns3:cad>84</ns3:cad>
          </ns3:TrackPointExtension>
        </extensions>
      </trkpt>
      <trkpt lat="24.498598091304302215576171875" lon="118.14369960688054561614990234375">
        <ele>28</ele>
        <time>2022-07-17T22:25:04.000Z</time>
        <extensions>
          <ns3:TrackPointExtension>
            <ns3:hr>142</ns3:hr>
            <ns3:cad>84</ns3:cad>
          </ns3:TrackPointExtension>
        </extensions>
      </trkpt>
      <trkpt lat="24.49857135303318500518798828125" lon="118.14385215751826763153076171875">
        <ele>28.200000762939453125</ele>
        <time>2022-07-17T22:25:09.000Z</time>
        <extensions>
          <ns3:TrackPointExtension>
            <ns3:hr>142</ns3:hr>
            <ns3:cad>84</ns3:cad>
          </ns3:TrackPointExtension>
        </extensions>
      </trkpt>
      <trkpt lat="24.49855039827525615692138671875" lon="118.14399716444313526153564453125">
        <ele>27.799999237060546875</ele>
        <time>2022-07-17T22:25:14.000Z</time>
        <extensions>
          <ns3:TrackPointExtension>
            <ns3:hr>142</ns3:hr>
            <ns3:cad>84</ns3:cad>
          </ns3:TrackPointExtension>
        </extensions>
      </trkpt>
      <trkpt lat="24.49855039827525615692138671875" lon="118.144126832485198974609375">
        <ele>27.3999996185302734375</ele>
        <time>2022-07-17T22:25:19.000Z</time>
        <extensions>
          <ns3:TrackPointExtension>
            <ns3:hr>142</ns3:hr>
            <ns3:cad>84</ns3:cad>
          </ns3:TrackPointExtension>
        </extensions>
      </trkpt>
      <trkpt lat="24.4985637255012989044189453125" lon="118.144256584346294403076171875">
        <ele>26.799999237060546875</ele>
        <time>2022-07-17T22:25:24.000Z</time>
        <extensions>
          <ns3:TrackPointExtension>
            <ns3:hr>142</ns3:hr>
            <ns3:cad>84</ns3:cad>
          </ns3:TrackPointExtension>
        </extensions>
      </trkpt>
      <trkpt lat="24.4985637255012989044189453125" lon="118.144378624856472015380859375">
        <ele>26.200000762939453125</ele>
        <time>2022-07-17T22:25:29.000Z</time>
        <extensions>
          <ns3:TrackPointExtension>
            <ns3:hr>142</ns3:hr>
            <ns3:cad>84</ns3:cad>
          </ns3:TrackPointExtension>
        </extensions>
      </trkpt>
      <trkpt lat="24.49854277074337005615234375" lon="118.1445159204304218292236328125">
        <ele>25.799999237060546875</ele>
        <time>2022-07-17T22:25:34.000Z</time>
        <extensions>
          <ns3:TrackPointExtension>
            <ns3:hr>142</ns3:hr>
            <ns3:cad>84</ns3:cad>
          </ns3:TrackPointExtension>
        </extensions>
      </trkpt>
      <trkpt lat="24.49851988814771175384521484375" lon="118.14465329982340335845947265625">
        <ele>25.3999996185302734375</ele>
        <time>2022-07-17T22:25:39.000Z</time>
        <extensions>
          <ns3:TrackPointExtension>
            <ns3:hr>142</ns3:hr>
            <ns3:cad>84</ns3:cad>
          </ns3:TrackPointExtension>
        </extensions>
      </trkpt>
      <trkpt lat="24.49850463308393955230712890625" lon="118.14480585046112537384033203125">
        <ele>24.200000762939453125</ele>
        <time>2022-07-17T22:25:44.000Z</time>
        <extensions>
          <ns3:TrackPointExtension>
            <ns3:hr>142</ns3:hr>
            <ns3:cad>84</ns3:cad>
          </ns3:TrackPointExtension>
        </extensions>
      </trkpt>
      <trkpt lat="24.49849314987659454345703125" lon="118.14496611244976520538330078125">
        <ele>24</ele>
        <time>2022-07-17T22:25:49.000Z</time>
        <extensions>
          <ns3:TrackPointExtension>
            <ns3:hr>142</ns3:hr>
            <ns3:cad>84</ns3:cad>
          </ns3:TrackPointExtension>
        </extensions>
      </trkpt>
      <trkpt lat="24.49845501221716403961181640625" lon="118.1451415456831455230712890625">
        <ele>24</ele>
        <time>2022-07-17T22:25:54.000Z</time>
        <extensions>
          <ns3:TrackPointExtension>
            <ns3:hr>142</ns3:hr>
            <ns3:cad>84</ns3:cad>
          </ns3:TrackPointExtension>
        </extensions>
      </trkpt>
      <trkpt lat="24.49840731918811798095703125" lon="118.1453018076717853546142578125">
        <ele>24</ele>
        <time>2022-07-17T22:25:59.000Z</time>
        <extensions>
          <ns3:TrackPointExtension>
            <ns3:hr>142</ns3:hr>
            <ns3:cad>84</ns3:cad>
          </ns3:TrackPointExtension>
        </extensions>
      </trkpt>
      <trkpt lat="24.49835962615907192230224609375" lon="118.14543147571384906768798828125">
        <ele>24.6000003814697265625</ele>
        <time>2022-07-17T22:26:04.000Z</time>
        <extensions>
          <ns3:TrackPointExtension>
            <ns3:hr>142</ns3:hr>
            <ns3:cad>84</ns3:cad>
          </ns3:TrackPointExtension>
        </extensions>
      </trkpt>
      <trkpt lat="24.49827949516475200653076171875" lon="118.145530633628368377685546875">
        <ele>25.200000762939453125</ele>
        <time>2022-07-17T22:26:09.000Z</time>
        <extensions>
          <ns3:TrackPointExtension>
            <ns3:hr>142</ns3:hr>
            <ns3:cad>84</ns3:cad>
          </ns3:TrackPointExtension>
        </extensions>
      </trkpt>
      <trkpt lat="24.4981650821864604949951171875" lon="118.145599365234375">
        <ele>25.799999237060546875</ele>
        <time>2022-07-17T22:26:14.000Z</time>
        <extensions>
          <ns3:TrackPointExtension>
            <ns3:hr>142</ns3:hr>
            <ns3:cad>84</ns3:cad>
          </ns3:TrackPointExtension>
        </extensions>
      </trkpt>
      <trkpt lat="24.49803725816309452056884765625" lon="118.14562224783003330230712890625">
        <ele>25.799999237060546875</ele>
        <time>2022-07-17T22:26:19.000Z</time>
        <extensions>
          <ns3:TrackPointExtension>
            <ns3:hr>142</ns3:hr>
            <ns3:cad>84</ns3:cad>
          </ns3:TrackPointExtension>
        </extensions>
      </trkpt>
      <trkpt lat="24.497911445796489715576171875" lon="118.14560699276626110076904296875">
        <ele>25.799999237060546875</ele>
        <time>2022-07-17T22:26:24.000Z</time>
        <extensions>
          <ns3:TrackPointExtension>
            <ns3:hr>142</ns3:hr>
            <ns3:cad>84</ns3:cad>
          </ns3:TrackPointExtension>
        </extensions>
      </trkpt>
      <trkpt lat="24.497800804674625396728515625" lon="118.14558402635157108306884765625">
        <ele>25.6000003814697265625</ele>
        <time>2022-07-17T22:26:29.000Z</time>
        <extensions>
          <ns3:TrackPointExtension>
            <ns3:hr>142</ns3:hr>
            <ns3:cad>84</ns3:cad>
          </ns3:TrackPointExtension>
        </extensions>
      </trkpt>
      <trkpt lat="24.4976997189223766326904296875" lon="118.14556114375591278076171875">
        <ele>25.200000762939453125</ele>
        <time>2022-07-17T22:26:34.000Z</time>
        <extensions>
          <ns3:TrackPointExtension>
            <ns3:hr>142</ns3:hr>
            <ns3:cad>84</ns3:cad>
          </ns3:TrackPointExtension>
        </extensions>
      </trkpt>
      <trkpt lat="24.49760240502655506134033203125" lon="118.1455458886921405792236328125">
        <ele>25</ele>
        <time>2022-07-17T22:26:39.000Z</time>
        <extensions>
          <ns3:TrackPointExtension>
            <ns3:hr>142</ns3:hr>
            <ns3:cad>84</ns3:cad>
          </ns3:TrackPointExtension>
        </extensions>
      </trkpt>
      <trkpt lat="24.4975089468061923980712890625" lon="118.14552300609648227691650390625">
        <ele>25</ele>
        <time>2022-07-17T22:26:44.000Z</time>
        <extensions>
          <ns3:TrackPointExtension>
            <ns3:hr>142</ns3:hr>
            <ns3:cad>84</ns3:cad>
          </ns3:TrackPointExtension>
        </extensions>
      </trkpt>
      <trkpt lat="24.49740978889167308807373046875" lon="118.14549249596893787384033203125">
        <ele>25</ele>
        <time>2022-07-17T22:26:49.000Z</time>
        <extensions>
          <ns3:TrackPointExtension>
            <ns3:hr>142</ns3:hr>
            <ns3:cad>84</ns3:cad>
          </ns3:TrackPointExtension>
        </extensions>
      </trkpt>
      <trkpt lat="24.497297219932079315185546875" lon="118.1454543583095073699951171875">
        <ele>25</ele>
        <time>2022-07-17T22:26:54.000Z</time>
        <extensions>
          <ns3:TrackPointExtension>
            <ns3:hr>142</ns3:hr>
            <ns3:cad>84</ns3:cad>
          </ns3:TrackPointExtension>
        </extensions>
      </trkpt>
      <trkpt lat="24.49717325158417224884033203125" lon="118.14540096558630466461181640625">
        <ele>25</ele>
        <time>2022-07-17T22:26:59.000Z</time>
        <extensions>
          <ns3:TrackPointExtension>
            <ns3:hr>142</ns3:hr>
            <ns3:cad>84</ns3:cad>
          </ns3:TrackPointExtension>
        </extensions>
      </trkpt>
      <trkpt lat="24.497053138911724090576171875" lon="118.14533994533121585845947265625">
        <ele>24.799999237060546875</ele>
        <time>2022-07-17T22:27:04.000Z</time>
        <extensions>
          <ns3:TrackPointExtension>
            <ns3:hr>142</ns3:hr>
            <ns3:cad>84</ns3:cad>
          </ns3:TrackPointExtension>
        </extensions>
      </trkpt>
      <trkpt lat="24.496929086744785308837890625" lon="118.1453018076717853546142578125">
        <ele>24.6000003814697265625</ele>
        <time>2022-07-17T22:27:09.000Z</time>
        <extensions>
          <ns3:TrackPointExtension>
            <ns3:hr>142</ns3:hr>
            <ns3:cad>84</ns3:cad>
          </ns3:TrackPointExtension>
        </extensions>
      </trkpt>
      <trkpt lat="24.496807046234607696533203125" lon="118.14527892507612705230712890625">
        <ele>24.6000003814697265625</ele>
        <time>2022-07-17T22:27:14.000Z</time>
        <extensions>
          <ns3:TrackPointExtension>
            <ns3:hr>142</ns3:hr>
            <ns3:cad>84</ns3:cad>
          </ns3:TrackPointExtension>
        </extensions>
      </trkpt>
      <trkpt lat="24.49670403264462947845458984375" lon="118.14524070359766483306884765625">
        <ele>24.3999996185302734375</ele>
        <time>2022-07-17T22:27:19.000Z</time>
        <extensions>
          <ns3:TrackPointExtension>
            <ns3:hr>142</ns3:hr>
            <ns3:cad>84</ns3:cad>
          </ns3:TrackPointExtension>
        </extensions>
      </trkpt>
      <trkpt lat="24.49661250226199626922607421875" lon="118.1452025659382343292236328125">
        <ele>24.200000762939453125</ele>
        <time>2022-07-17T22:27:24.000Z</time>
        <extensions>
          <ns3:TrackPointExtension>
            <ns3:hr>142</ns3:hr>
            <ns3:cad>84</ns3:cad>
          </ns3:TrackPointExtension>
        </extensions>
      </trkpt>
      <trkpt lat="24.49651141650974750518798828125" lon="118.14517968334257602691650390625">
        <ele>24.200000762939453125</ele>
        <time>2022-07-17T22:27:29.000Z</time>
        <extensions>
          <ns3:TrackPointExtension>
            <ns3:hr>142</ns3:hr>
            <ns3:cad>84</ns3:cad>
          </ns3:TrackPointExtension>
        </extensions>
      </trkpt>
      <trkpt lat="24.49639700353145599365234375" lon="118.1451415456831455230712890625">
        <ele>24</ele>
        <time>2022-07-17T22:27:34.000Z</time>
        <extensions>
          <ns3:TrackPointExtension>
            <ns3:hr>142</ns3:hr>
            <ns3:cad>84</ns3:cad>
          </ns3:TrackPointExtension>
        </extensions>
      </trkpt>
      <trkpt lat="24.49626917950809001922607421875" lon="118.14508815295994281768798828125">
        <ele>24</ele>
        <time>2022-07-17T22:27:39.000Z</time>
        <extensions>
          <ns3:TrackPointExtension>
            <ns3:hr>142</ns3:hr>
            <ns3:cad>84</ns3:cad>
          </ns3:TrackPointExtension>
        </extensions>
      </trkpt>
      <trkpt lat="24.4961356557905673980712890625" lon="118.14502713270485401153564453125">
        <ele>22</ele>
        <time>2022-07-17T22:27:44.000Z</time>
        <extensions>
          <ns3:TrackPointExtension>
            <ns3:hr>142</ns3:hr>
            <ns3:cad>84</ns3:cad>
          </ns3:TrackPointExtension>
        </extensions>
      </trkpt>
      <trkpt lat="24.496034570038318634033203125" lon="118.144943229854106903076171875">
        <ele>20.3999996185302734375</ele>
        <time>2022-07-17T22:27:49.000Z</time>
        <extensions>
          <ns3:TrackPointExtension>
            <ns3:hr>142</ns3:hr>
            <ns3:cad>84</ns3:cad>
          </ns3:TrackPointExtension>
        </extensions>
      </trkpt>
      <trkpt lat="24.49599073268473148345947265625" lon="118.144813477993011474609375">
        <ele>19.3999996185302734375</ele>
        <time>2022-07-17T22:27:54.000Z</time>
        <extensions>
          <ns3:TrackPointExtension>
            <ns3:hr>142</ns3:hr>
            <ns3:cad>84</ns3:cad>
          </ns3:TrackPointExtension>
        </extensions>
      </trkpt>
      <trkpt lat="24.495973549783229827880859375" lon="118.1446761824190616607666015625">
        <ele>20.799999237060546875</ele>
        <time>2022-07-17T22:27:59.000Z</time>
        <extensions>
          <ns3:TrackPointExtension>
            <ns3:hr>142</ns3:hr>
            <ns3:cad>84</ns3:cad>
          </ns3:TrackPointExtension>
        </extensions>
      </trkpt>
      <trkpt lat="24.49596022255718708038330078125" lon="118.1445464305579662322998046875">
        <ele>22.200000762939453125</ele>
        <time>2022-07-17T22:28:04.000Z</time>
        <extensions>
          <ns3:TrackPointExtension>
            <ns3:hr>142</ns3:hr>
            <ns3:cad>84</ns3:cad>
          </ns3:TrackPointExtension>
        </extensions>
      </trkpt>
      <trkpt lat="24.49595443904399871826171875" lon="118.14441676251590251922607421875">
        <ele>23.6000003814697265625</ele>
        <time>2022-07-17T22:28:09.000Z</time>
        <extensions>
          <ns3:TrackPointExtension>
            <ns3:hr>142</ns3:hr>
            <ns3:cad>84</ns3:cad>
          </ns3:TrackPointExtension>
        </extensions>
      </trkpt>
    </trkseg>
  </trk>
</gpx>
