<gpx xmlns:ns3="http://www.garmin.com/xmlschemas/TrackPointExtension/v1" xmlns="http://www.topografix.com/GPX/1/1" xmlns:xsi="http://www.w3.org/2001/XMLSchema-instance" xmlns:ns2="http://www.garmin.com/xmlschemas/GpxExtensions/v3" creator="Garmin Connect" version="1.1" xsi:schemaLocation="http://www.topografix.com/GPX/1/1 http://www.topografix.com/GPX/11.xsd">
  <extensions>
<distance>2014.0</distance>
<average_hr>0.0</average_hr>
<average_speed>1.6710000038146973</average_speed>
<start_time>2018-08-02T12:56:35+00:00</start_time>
<end_time>2018-08-02T13:16:40+00:00</end_time>
<moving_time>1190.0</moving_time>
<elapsed_time>1205.0</elapsed_time>
</extensions>
<metadata>
    <link href="connect.garmin.com">
      <text>Garmin Connect</text>
    </link>
    <time>2018-08-02T12:56:35.000Z</time>
  </metadata>
  <trk>
    <name>厦门市 街道路跑</name>
    <type>street_running</type>
    <trkseg>
      <trkpt lat="24.49781983159482479095458984375" lon="118.14447778277099132537841796875">
        <ele>29.799999237060546875</ele>
        <time>2018-08-02T12:56:35.000Z</time>
        <extensions>
          <ns3:TrackPointExtension/>
        </extensions>
      </trkpt>
      <trkpt lat="24.49781983159482479095458984375" lon="118.14447778277099132537841796875">
        <ele>29.799999237060546875</ele>
        <time>2018-08-02T12:56:40.000Z</time>
        <extensions>
          <ns3:TrackPointExtension>
            <ns3:cad>120</ns3:cad>
          </ns3:TrackPointExtension>
        </extensions>
      </trkpt>
      <trkpt lat="24.49781983159482479095458984375" lon="118.14447778277099132537841796875">
        <ele>29.799999237060546875</ele>
        <time>2018-08-02T12:56:45.000Z</time>
        <extensions>
          <ns3:TrackPointExtension>
            <ns3:cad>84</ns3:cad>
          </ns3:TrackPointExtension>
        </extensions>
      </trkpt>
      <trkpt lat="24.49777792207896709442138671875" lon="118.1444854103028774261474609375">
        <ele>30.200000762939453125</ele>
        <time>2018-08-02T12:56:50.000Z</time>
        <extensions>
          <ns3:TrackPointExtension>
            <ns3:cad>84</ns3:cad>
          </ns3:TrackPointExtension>
        </extensions>
      </trkpt>
      <trkpt lat="24.4977454841136932373046875" lon="118.1444549001753330230712890625">
        <ele>30.3999996185302734375</ele>
        <time>2018-08-02T12:56:55.000Z</time>
        <extensions>
          <ns3:TrackPointExtension>
            <ns3:cad>84</ns3:cad>
          </ns3:TrackPointExtension>
        </extensions>
      </trkpt>
      <trkpt lat="24.4977111183106899261474609375" lon="118.14447778277099132537841796875">
        <ele>30.6000003814697265625</ele>
        <time>2018-08-02T12:57:00.000Z</time>
        <extensions>
          <ns3:TrackPointExtension>
            <ns3:cad>84</ns3:cad>
          </ns3:TrackPointExtension>
        </extensions>
      </trkpt>
      <trkpt lat="24.4976749084889888763427734375" lon="118.1444549001753330230712890625">
        <ele>30.799999237060546875</ele>
        <time>2018-08-02T12:57:05.000Z</time>
        <extensions>
          <ns3:TrackPointExtension>
            <ns3:cad>84</ns3:cad>
          </ns3:TrackPointExtension>
        </extensions>
      </trkpt>
      <trkpt lat="24.49765202589333057403564453125" lon="118.144439645111560821533203125">
        <ele>31</ele>
        <time>2018-08-02T12:57:10.000Z</time>
        <extensions>
          <ns3:TrackPointExtension>
            <ns3:cad>90</ns3:cad>
          </ns3:TrackPointExtension>
        </extensions>
      </trkpt>
      <trkpt lat="24.49759863317012786865234375" lon="118.1444243900477886199951171875">
        <ele>30.799999237060546875</ele>
        <time>2018-08-02T12:57:15.000Z</time>
        <extensions>
          <ns3:TrackPointExtension>
            <ns3:cad>84</ns3:cad>
          </ns3:TrackPointExtension>
        </extensions>
      </trkpt>
      <trkpt lat="24.49756049551069736480712890625" lon="118.1444549001753330230712890625">
        <ele>30.6000003814697265625</ele>
        <time>2018-08-02T12:57:20.000Z</time>
        <extensions>
          <ns3:TrackPointExtension>
            <ns3:cad>84</ns3:cad>
          </ns3:TrackPointExtension>
        </extensions>
      </trkpt>
      <trkpt lat="24.49752043001353740692138671875" lon="118.14453880302608013153076171875">
        <ele>30.799999237060546875</ele>
        <time>2018-08-02T12:57:25.000Z</time>
        <extensions>
          <ns3:TrackPointExtension>
            <ns3:cad>84</ns3:cad>
          </ns3:TrackPointExtension>
        </extensions>
      </trkpt>
      <trkpt lat="24.49752612970769405364990234375" lon="118.144599907100200653076171875">
        <ele>30.6000003814697265625</ele>
        <time>2018-08-02T12:57:30.000Z</time>
        <extensions>
          <ns3:TrackPointExtension>
            <ns3:cad>78</ns3:cad>
          </ns3:TrackPointExtension>
        </extensions>
      </trkpt>
      <trkpt lat="24.497518502175807952880859375" lon="118.14469906501471996307373046875">
        <ele>29.6000003814697265625</ele>
        <time>2018-08-02T12:57:35.000Z</time>
        <extensions>
          <ns3:TrackPointExtension>
            <ns3:cad>84</ns3:cad>
          </ns3:TrackPointExtension>
        </extensions>
      </trkpt>
      <trkpt lat="24.49750701896846294403076171875" lon="118.14480585046112537384033203125">
        <ele>28.799999237060546875</ele>
        <time>2018-08-02T12:57:40.000Z</time>
        <extensions>
          <ns3:TrackPointExtension>
            <ns3:cad>90</ns3:cad>
          </ns3:TrackPointExtension>
        </extensions>
      </trkpt>
      <trkpt lat="24.4974422268569469451904296875" lon="118.144943229854106903076171875">
        <ele>27.799999237060546875</ele>
        <time>2018-08-02T12:57:45.000Z</time>
        <extensions>
          <ns3:TrackPointExtension>
            <ns3:cad>90</ns3:cad>
          </ns3:TrackPointExtension>
        </extensions>
      </trkpt>
      <trkpt lat="24.49742118827998638153076171875" lon="118.14497373998165130615234375">
        <ele>27.3999996185302734375</ele>
        <time>2018-08-02T12:57:50.000Z</time>
        <extensions>
          <ns3:TrackPointExtension>
            <ns3:cad>84</ns3:cad>
          </ns3:TrackPointExtension>
        </extensions>
      </trkpt>
      <trkpt lat="24.49737927876412868499755859375" lon="118.14510340802371501922607421875">
        <ele>26.200000762939453125</ele>
        <time>2018-08-02T12:57:55.000Z</time>
        <extensions>
          <ns3:TrackPointExtension>
            <ns3:cad>84</ns3:cad>
          </ns3:TrackPointExtension>
        </extensions>
      </trkpt>
      <trkpt lat="24.4973372854292392730712890625" lon="118.14521782100200653076171875">
        <ele>25.6000003814697265625</ele>
        <time>2018-08-02T12:58:00.000Z</time>
        <extensions>
          <ns3:TrackPointExtension>
            <ns3:cad>90</ns3:cad>
          </ns3:TrackPointExtension>
        </extensions>
      </trkpt>
      <trkpt lat="24.49732965789735317230224609375" lon="118.14537045545876026153564453125">
        <ele>25</ele>
        <time>2018-08-02T12:58:05.000Z</time>
        <extensions>
          <ns3:TrackPointExtension>
            <ns3:cad>90</ns3:cad>
          </ns3:TrackPointExtension>
        </extensions>
      </trkpt>
      <trkpt lat="24.4973429851233959197998046875" lon="118.14544673077762126922607421875">
        <ele>25</ele>
        <time>2018-08-02T12:58:10.000Z</time>
        <extensions>
          <ns3:TrackPointExtension>
            <ns3:cad>84</ns3:cad>
          </ns3:TrackPointExtension>
        </extensions>
      </trkpt>
      <trkpt lat="24.49740023352205753326416015625" lon="118.14550775103271007537841796875">
        <ele>25</ele>
        <time>2018-08-02T12:58:15.000Z</time>
        <extensions>
          <ns3:TrackPointExtension>
            <ns3:cad>78</ns3:cad>
          </ns3:TrackPointExtension>
        </extensions>
      </trkpt>
      <trkpt lat="24.49743644334375858306884765625" lon="118.1455763988196849822998046875">
        <ele>25</ele>
        <time>2018-08-02T12:58:20.000Z</time>
        <extensions>
          <ns3:TrackPointExtension>
            <ns3:cad>84</ns3:cad>
          </ns3:TrackPointExtension>
        </extensions>
      </trkpt>
      <trkpt lat="24.49749176390469074249267578125" lon="118.145591653883457183837890625">
        <ele>25</ele>
        <time>2018-08-02T12:58:25.000Z</time>
        <extensions>
          <ns3:TrackPointExtension>
            <ns3:cad>84</ns3:cad>
          </ns3:TrackPointExtension>
        </extensions>
      </trkpt>
      <trkpt lat="24.49758145026862621307373046875" lon="118.145599365234375">
        <ele>25</ele>
        <time>2018-08-02T12:58:30.000Z</time>
        <extensions>
          <ns3:TrackPointExtension>
            <ns3:cad>90</ns3:cad>
          </ns3:TrackPointExtension>
        </extensions>
      </trkpt>
      <trkpt lat="24.49764247052371501922607421875" lon="118.145599365234375">
        <ele>25</ele>
        <time>2018-08-02T12:58:35.000Z</time>
        <extensions>
          <ns3:TrackPointExtension>
            <ns3:cad>84</ns3:cad>
          </ns3:TrackPointExtension>
        </extensions>
      </trkpt>
      <trkpt lat="24.4977454841136932373046875" lon="118.1456451304256916046142578125">
        <ele>25.3999996185302734375</ele>
        <time>2018-08-02T12:58:40.000Z</time>
        <extensions>
          <ns3:TrackPointExtension>
            <ns3:cad>90</ns3:cad>
          </ns3:TrackPointExtension>
        </extensions>
      </trkpt>
      <trkpt lat="24.4978217594325542449951171875" lon="118.14566801302134990692138671875">
        <ele>25.6000003814697265625</ele>
        <time>2018-08-02T12:58:45.000Z</time>
        <extensions>
          <ns3:TrackPointExtension>
            <ns3:cad>84</ns3:cad>
          </ns3:TrackPointExtension>
        </extensions>
      </trkpt>
      <trkpt lat="24.49791521765291690826416015625" lon="118.14569852314889430999755859375">
        <ele>26</ele>
        <time>2018-08-02T12:58:50.000Z</time>
        <extensions>
          <ns3:TrackPointExtension>
            <ns3:cad>84</ns3:cad>
          </ns3:TrackPointExtension>
        </extensions>
      </trkpt>
      <trkpt lat="24.49797439388930797576904296875" lon="118.14569852314889430999755859375">
        <ele>26</ele>
        <time>2018-08-02T12:58:55.000Z</time>
        <extensions>
          <ns3:TrackPointExtension>
            <ns3:cad>84</ns3:cad>
          </ns3:TrackPointExtension>
        </extensions>
      </trkpt>
      <trkpt lat="24.49800490401685237884521484375" lon="118.14580530859529972076416015625">
        <ele>26.200000762939453125</ele>
        <time>2018-08-02T12:59:00.000Z</time>
        <extensions>
          <ns3:TrackPointExtension>
            <ns3:cad>84</ns3:cad>
          </ns3:TrackPointExtension>
        </extensions>
      </trkpt>
      <trkpt lat="24.4979877211153507232666015625" lon="118.145843446254730224609375">
        <ele>26.3999996185302734375</ele>
        <time>2018-08-02T12:59:05.000Z</time>
        <extensions>
          <ns3:TrackPointExtension>
            <ns3:cad>84</ns3:cad>
          </ns3:TrackPointExtension>
        </extensions>
      </trkpt>
      <trkpt lat="24.4979381002485752105712890625" lon="118.14591209404170513153076171875">
        <ele>26.799999237060546875</ele>
        <time>2018-08-02T12:59:10.000Z</time>
        <extensions>
          <ns3:TrackPointExtension>
            <ns3:cad>84</ns3:cad>
          </ns3:TrackPointExtension>
        </extensions>
      </trkpt>
      <trkpt lat="24.49793432839214801788330078125" lon="118.14594268798828125">
        <ele>27</ele>
        <time>2018-08-02T12:59:15.000Z</time>
        <extensions>
          <ns3:TrackPointExtension>
            <ns3:cad>84</ns3:cad>
          </ns3:TrackPointExtension>
        </extensions>
      </trkpt>
      <trkpt lat="24.49789233505725860595703125" lon="118.14605710096657276153564453125">
        <ele>26.799999237060546875</ele>
        <time>2018-08-02T12:59:20.000Z</time>
        <extensions>
          <ns3:TrackPointExtension>
            <ns3:cad>84</ns3:cad>
          </ns3:TrackPointExtension>
        </extensions>
      </trkpt>
      <trkpt lat="24.497867524623870849609375" lon="118.14607235603034496307373046875">
        <ele>26.799999237060546875</ele>
        <time>2018-08-02T12:59:25.000Z</time>
        <extensions>
          <ns3:TrackPointExtension>
            <ns3:cad>102</ns3:cad>
          </ns3:TrackPointExtension>
        </extensions>
      </trkpt>
      <trkpt lat="24.4978274591267108917236328125" lon="118.14619439654052257537841796875">
        <ele>26.6000003814697265625</ele>
        <time>2018-08-02T12:59:30.000Z</time>
        <extensions>
          <ns3:TrackPointExtension>
            <ns3:cad>84</ns3:cad>
          </ns3:TrackPointExtension>
        </extensions>
      </trkpt>
      <trkpt lat="24.49781983159482479095458984375" lon="118.1463012658059597015380859375">
        <ele>27</ele>
        <time>2018-08-02T12:59:35.000Z</time>
        <extensions>
          <ns3:TrackPointExtension>
            <ns3:cad>84</ns3:cad>
          </ns3:TrackPointExtension>
        </extensions>
      </trkpt>
      <trkpt lat="24.49780273251235485076904296875" lon="118.1464538164436817169189453125">
        <ele>28</ele>
        <time>2018-08-02T12:59:40.000Z</time>
        <extensions>
          <ns3:TrackPointExtension>
            <ns3:cad>84</ns3:cad>
          </ns3:TrackPointExtension>
        </extensions>
      </trkpt>
      <trkpt lat="24.497787393629550933837890625" lon="118.146499581634998321533203125">
        <ele>28.3999996185302734375</ele>
        <time>2018-08-02T12:59:45.000Z</time>
        <extensions>
          <ns3:TrackPointExtension>
            <ns3:cad>84</ns3:cad>
          </ns3:TrackPointExtension>
        </extensions>
      </trkpt>
      <trkpt lat="24.4977664388716220855712890625" lon="118.1465758569538593292236328125">
        <ele>28.200000762939453125</ele>
        <time>2018-08-02T12:59:50.000Z</time>
        <extensions>
          <ns3:TrackPointExtension>
            <ns3:cad>84</ns3:cad>
          </ns3:TrackPointExtension>
        </extensions>
      </trkpt>
      <trkpt lat="24.49774925597012042999267578125" lon="118.146621622145175933837890625">
        <ele>28</ele>
        <time>2018-08-02T12:59:55.000Z</time>
        <extensions>
          <ns3:TrackPointExtension>
            <ns3:cad>84</ns3:cad>
          </ns3:TrackPointExtension>
        </extensions>
      </trkpt>
      <trkpt lat="24.49773400090634822845458984375" lon="118.14677425660192966461181640625">
        <ele>28.6000003814697265625</ele>
        <time>2018-08-02T13:00:00.000Z</time>
        <extensions>
          <ns3:TrackPointExtension>
            <ns3:cad>84</ns3:cad>
          </ns3:TrackPointExtension>
        </extensions>
      </trkpt>
      <trkpt lat="24.49771304614841938018798828125" lon="118.1468581594526767730712890625">
        <ele>28.200000762939453125</ele>
        <time>2018-08-02T13:00:05.000Z</time>
        <extensions>
          <ns3:TrackPointExtension>
            <ns3:cad>84</ns3:cad>
          </ns3:TrackPointExtension>
        </extensions>
      </trkpt>
      <trkpt lat="24.49765202589333057403564453125" lon="118.1469496898353099822998046875">
        <ele>27.3999996185302734375</ele>
        <time>2018-08-02T13:00:10.000Z</time>
        <extensions>
          <ns3:TrackPointExtension>
            <ns3:cad>84</ns3:cad>
          </ns3:TrackPointExtension>
        </extensions>
      </trkpt>
      <trkpt lat="24.4976443983614444732666015625" lon="118.14698028378188610076904296875">
        <ele>27</ele>
        <time>2018-08-02T13:00:15.000Z</time>
        <extensions>
          <ns3:TrackPointExtension>
            <ns3:cad>72</ns3:cad>
          </ns3:TrackPointExtension>
        </extensions>
      </trkpt>
      <trkpt lat="24.4976138882339000701904296875" lon="118.1470794416964054107666015625">
        <ele>26.200000762939453125</ele>
        <time>2018-08-02T13:00:20.000Z</time>
        <extensions>
          <ns3:TrackPointExtension>
            <ns3:cad>84</ns3:cad>
          </ns3:TrackPointExtension>
        </extensions>
      </trkpt>
      <trkpt lat="24.49759284965693950653076171875" lon="118.14713283441960811614990234375">
        <ele>25.6000003814697265625</ele>
        <time>2018-08-02T13:00:25.000Z</time>
        <extensions>
          <ns3:TrackPointExtension>
            <ns3:cad>84</ns3:cad>
          </ns3:TrackPointExtension>
        </extensions>
      </trkpt>
      <trkpt lat="24.49757759459316730499267578125" lon="118.14722436480224132537841796875">
        <ele>24.6000003814697265625</ele>
        <time>2018-08-02T13:00:30.000Z</time>
        <extensions>
          <ns3:TrackPointExtension>
            <ns3:cad>84</ns3:cad>
          </ns3:TrackPointExtension>
        </extensions>
      </trkpt>
      <trkpt lat="24.4975585676729679107666015625" lon="118.14727775752544403076171875">
        <ele>24</ele>
        <time>2018-08-02T13:00:35.000Z</time>
        <extensions>
          <ns3:TrackPointExtension>
            <ns3:cad>84</ns3:cad>
          </ns3:TrackPointExtension>
        </extensions>
      </trkpt>
      <trkpt lat="24.49755094014108180999755859375" lon="118.147346489131450653076171875">
        <ele>23</ele>
        <time>2018-08-02T13:00:40.000Z</time>
        <extensions>
          <ns3:TrackPointExtension>
            <ns3:cad>84</ns3:cad>
          </ns3:TrackPointExtension>
        </extensions>
      </trkpt>
      <trkpt lat="24.49752612970769405364990234375" lon="118.14741513691842555999755859375">
        <ele>22.799999237060546875</ele>
        <time>2018-08-02T13:00:45.000Z</time>
        <extensions>
          <ns3:TrackPointExtension>
            <ns3:cad>84</ns3:cad>
          </ns3:TrackPointExtension>
        </extensions>
      </trkpt>
      <trkpt lat="24.4974879920482635498046875" lon="118.1475448049604892730712890625">
        <ele>22.6000003814697265625</ele>
        <time>2018-08-02T13:00:50.000Z</time>
        <extensions>
          <ns3:TrackPointExtension>
            <ns3:cad>84</ns3:cad>
          </ns3:TrackPointExtension>
        </extensions>
      </trkpt>
      <trkpt lat="24.49748036451637744903564453125" lon="118.14758294261991977691650390625">
        <ele>22.6000003814697265625</ele>
        <time>2018-08-02T13:00:55.000Z</time>
        <extensions>
          <ns3:TrackPointExtension>
            <ns3:cad>84</ns3:cad>
          </ns3:TrackPointExtension>
        </extensions>
      </trkpt>
      <trkpt lat="24.497432671487331390380859375" lon="118.147689811885356903076171875">
        <ele>23.200000762939453125</ele>
        <time>2018-08-02T13:01:00.000Z</time>
        <extensions>
          <ns3:TrackPointExtension>
            <ns3:cad>78</ns3:cad>
          </ns3:TrackPointExtension>
        </extensions>
      </trkpt>
      <trkpt lat="24.4973869062960147857666015625" lon="118.14775845967233180999755859375">
        <ele>23.799999237060546875</ele>
        <time>2018-08-02T13:01:05.000Z</time>
        <extensions>
          <ns3:TrackPointExtension>
            <ns3:cad>60</ns3:cad>
          </ns3:TrackPointExtension>
        </extensions>
      </trkpt>
      <trkpt lat="24.49737927876412868499755859375" lon="118.14789575524628162384033203125">
        <ele>25</ele>
        <time>2018-08-02T13:01:10.000Z</time>
        <extensions>
          <ns3:TrackPointExtension>
            <ns3:cad>72</ns3:cad>
          </ns3:TrackPointExtension>
        </extensions>
      </trkpt>
      <trkpt lat="24.49736972339451313018798828125" lon="118.147994913160800933837890625">
        <ele>24.6000003814697265625</ele>
        <time>2018-08-02T13:01:15.000Z</time>
        <extensions>
          <ns3:TrackPointExtension>
            <ns3:cad>66</ns3:cad>
          </ns3:TrackPointExtension>
        </extensions>
      </trkpt>
      <trkpt lat="24.497322030365467071533203125" lon="118.1481246650218963623046875">
        <ele>23.799999237060546875</ele>
        <time>2018-08-02T13:01:20.000Z</time>
        <extensions>
          <ns3:TrackPointExtension>
            <ns3:cad>54</ns3:cad>
          </ns3:TrackPointExtension>
        </extensions>
      </trkpt>
      <trkpt lat="24.4972571544349193572998046875" lon="118.1481704302132129669189453125">
        <ele>23.200000762939453125</ele>
        <time>2018-08-02T13:01:25.000Z</time>
        <extensions>
          <ns3:TrackPointExtension>
            <ns3:cad>90</ns3:cad>
          </ns3:TrackPointExtension>
        </extensions>
      </trkpt>
      <trkpt lat="24.4971542246639728546142578125" lon="118.14817805774509906768798828125">
        <ele>22.3999996185302734375</ele>
        <time>2018-08-02T13:01:30.000Z</time>
        <extensions>
          <ns3:TrackPointExtension>
            <ns3:cad>84</ns3:cad>
          </ns3:TrackPointExtension>
        </extensions>
      </trkpt>
      <trkpt lat="24.49708742089569568634033203125" lon="118.148155175149440765380859375">
        <ele>22.200000762939453125</ele>
        <time>2018-08-02T13:01:35.000Z</time>
        <extensions>
          <ns3:TrackPointExtension>
            <ns3:cad>66</ns3:cad>
          </ns3:TrackPointExtension>
        </extensions>
      </trkpt>
      <trkpt lat="24.49699203483760356903076171875" lon="118.14813229255378246307373046875">
        <ele>22.200000762939453125</ele>
        <time>2018-08-02T13:01:40.000Z</time>
        <extensions>
          <ns3:TrackPointExtension>
            <ns3:cad>66</ns3:cad>
          </ns3:TrackPointExtension>
        </extensions>
      </trkpt>
      <trkpt lat="24.4969329424202442169189453125" lon="118.14811703749001026153564453125">
        <ele>22.200000762939453125</ele>
        <time>2018-08-02T13:01:45.000Z</time>
        <extensions>
          <ns3:TrackPointExtension>
            <ns3:cad>84</ns3:cad>
          </ns3:TrackPointExtension>
        </extensions>
      </trkpt>
      <trkpt lat="24.49686236679553985595703125" lon="118.148094154894351959228515625">
        <ele>22.200000762939453125</ele>
        <time>2018-08-02T13:01:50.000Z</time>
        <extensions>
          <ns3:TrackPointExtension>
            <ns3:cad>90</ns3:cad>
          </ns3:TrackPointExtension>
        </extensions>
      </trkpt>
      <trkpt lat="24.496782235801219940185546875" lon="118.148094154894351959228515625">
        <ele>21.799999237060546875</ele>
        <time>2018-08-02T13:01:55.000Z</time>
        <extensions>
          <ns3:TrackPointExtension>
            <ns3:cad>90</ns3:cad>
          </ns3:TrackPointExtension>
        </extensions>
      </trkpt>
      <trkpt lat="24.49667352251708507537841796875" lon="118.1480788998305797576904296875">
        <ele>21.799999237060546875</ele>
        <time>2018-08-02T13:02:00.000Z</time>
        <extensions>
          <ns3:TrackPointExtension>
            <ns3:cad>84</ns3:cad>
          </ns3:TrackPointExtension>
        </extensions>
      </trkpt>
      <trkpt lat="24.49659154750406742095947265625" lon="118.1480788998305797576904296875">
        <ele>21.799999237060546875</ele>
        <time>2018-08-02T13:02:05.000Z</time>
        <extensions>
          <ns3:TrackPointExtension>
            <ns3:cad>84</ns3:cad>
          </ns3:TrackPointExtension>
        </extensions>
      </trkpt>
      <trkpt lat="24.49651141650974750518798828125" lon="118.14807127229869365692138671875">
        <ele>21.6000003814697265625</ele>
        <time>2018-08-02T13:02:10.000Z</time>
        <extensions>
          <ns3:TrackPointExtension>
            <ns3:cad>84</ns3:cad>
          </ns3:TrackPointExtension>
        </extensions>
      </trkpt>
      <trkpt lat="24.4964846782386302947998046875" lon="118.14805601723492145538330078125">
        <ele>21.3999996185302734375</ele>
        <time>2018-08-02T13:02:15.000Z</time>
        <extensions>
          <ns3:TrackPointExtension>
            <ns3:cad>78</ns3:cad>
          </ns3:TrackPointExtension>
        </extensions>
      </trkpt>
      <trkpt lat="24.49644084088504314422607421875" lon="118.147994913160800933837890625">
        <ele>21.6000003814697265625</ele>
        <time>2018-08-02T13:02:20.000Z</time>
        <extensions>
          <ns3:TrackPointExtension>
            <ns3:cad>78</ns3:cad>
          </ns3:TrackPointExtension>
        </extensions>
      </trkpt>
      <trkpt lat="24.49640463106334209442138671875" lon="118.1479796580970287322998046875">
        <ele>21.3999996185302734375</ele>
        <time>2018-08-02T13:02:25.000Z</time>
        <extensions>
          <ns3:TrackPointExtension>
            <ns3:cad>84</ns3:cad>
          </ns3:TrackPointExtension>
        </extensions>
      </trkpt>
      <trkpt lat="24.49632450006902217864990234375" lon="118.1479491479694843292236328125">
        <ele>21.200000762939453125</ele>
        <time>2018-08-02T13:02:30.000Z</time>
        <extensions>
          <ns3:TrackPointExtension>
            <ns3:cad>84</ns3:cad>
          </ns3:TrackPointExtension>
        </extensions>
      </trkpt>
      <trkpt lat="24.496255852282047271728515625" lon="118.147903382778167724609375">
        <ele>21</ele>
        <time>2018-08-02T13:02:35.000Z</time>
        <extensions>
          <ns3:TrackPointExtension>
            <ns3:cad>78</ns3:cad>
          </ns3:TrackPointExtension>
        </extensions>
      </trkpt>
      <trkpt lat="24.49621193110942840576171875" lon="118.147903382778167724609375">
        <ele>20.799999237060546875</ele>
        <time>2018-08-02T13:02:40.000Z</time>
        <extensions>
          <ns3:TrackPointExtension>
            <ns3:cad>78</ns3:cad>
          </ns3:TrackPointExtension>
        </extensions>
      </trkpt>
      <trkpt lat="24.49614713899791240692138671875" lon="118.14789575524628162384033203125">
        <ele>20.6000003814697265625</ele>
        <time>2018-08-02T13:02:45.000Z</time>
        <extensions>
          <ns3:TrackPointExtension>
            <ns3:cad>84</ns3:cad>
          </ns3:TrackPointExtension>
        </extensions>
      </trkpt>
      <trkpt lat="24.49605745263397693634033203125" lon="118.14791101031005382537841796875">
        <ele>20.200000762939453125</ele>
        <time>2018-08-02T13:02:50.000Z</time>
        <extensions>
          <ns3:TrackPointExtension>
            <ns3:cad>84</ns3:cad>
          </ns3:TrackPointExtension>
        </extensions>
      </trkpt>
      <trkpt lat="24.495998360216617584228515625" lon="118.147903382778167724609375">
        <ele>20</ele>
        <time>2018-08-02T13:02:55.000Z</time>
        <extensions>
          <ns3:TrackPointExtension>
            <ns3:cad>90</ns3:cad>
          </ns3:TrackPointExtension>
        </extensions>
      </trkpt>
      <trkpt lat="24.4959086738526821136474609375" lon="118.14788050018250942230224609375">
        <ele>20.200000762939453125</ele>
        <time>2018-08-02T13:03:00.000Z</time>
        <extensions>
          <ns3:TrackPointExtension>
            <ns3:cad>72</ns3:cad>
          </ns3:TrackPointExtension>
        </extensions>
      </trkpt>
      <trkpt lat="24.4958362542092800140380859375" lon="118.14786524511873722076416015625">
        <ele>20.200000762939453125</ele>
        <time>2018-08-02T13:03:05.000Z</time>
        <extensions>
          <ns3:TrackPointExtension>
            <ns3:cad>78</ns3:cad>
          </ns3:TrackPointExtension>
        </extensions>
      </trkpt>
      <trkpt lat="24.4957065023481845855712890625" lon="118.14786524511873722076416015625">
        <ele>20.200000762939453125</ele>
        <time>2018-08-02T13:03:10.000Z</time>
        <extensions>
          <ns3:TrackPointExtension>
            <ns3:cad>84</ns3:cad>
          </ns3:TrackPointExtension>
        </extensions>
      </trkpt>
      <trkpt lat="24.49564355425536632537841796875" lon="118.14783473499119281768798828125">
        <ele>20.200000762939453125</ele>
        <time>2018-08-02T13:03:15.000Z</time>
        <extensions>
          <ns3:TrackPointExtension>
            <ns3:cad>78</ns3:cad>
          </ns3:TrackPointExtension>
        </extensions>
      </trkpt>
      <trkpt lat="24.4955787621438503265380859375" lon="118.1477965973317623138427734375">
        <ele>20.3999996185302734375</ele>
        <time>2018-08-02T13:03:20.000Z</time>
        <extensions>
          <ns3:TrackPointExtension>
            <ns3:cad>78</ns3:cad>
          </ns3:TrackPointExtension>
        </extensions>
      </trkpt>
      <trkpt lat="24.495494775474071502685546875" lon="118.14777371473610401153564453125">
        <ele>20.3999996185302734375</ele>
        <time>2018-08-02T13:03:25.000Z</time>
        <extensions>
          <ns3:TrackPointExtension>
            <ns3:cad>84</ns3:cad>
          </ns3:TrackPointExtension>
        </extensions>
      </trkpt>
      <trkpt lat="24.4954681210219860076904296875" lon="118.14777371473610401153564453125">
        <ele>20.3999996185302734375</ele>
        <time>2018-08-02T13:03:30.000Z</time>
        <extensions>
          <ns3:TrackPointExtension>
            <ns3:cad>78</ns3:cad>
          </ns3:TrackPointExtension>
        </extensions>
      </trkpt>
      <trkpt lat="24.4953936897218227386474609375" lon="118.14774320460855960845947265625">
        <ele>20.3999996185302734375</ele>
        <time>2018-08-02T13:03:35.000Z</time>
        <extensions>
          <ns3:TrackPointExtension>
            <ns3:cad>84</ns3:cad>
          </ns3:TrackPointExtension>
        </extensions>
      </trkpt>
      <trkpt lat="24.4953517802059650421142578125" lon="118.14772032201290130615234375">
        <ele>20.3999996185302734375</ele>
        <time>2018-08-02T13:03:40.000Z</time>
        <extensions>
          <ns3:TrackPointExtension>
            <ns3:cad>84</ns3:cad>
          </ns3:TrackPointExtension>
        </extensions>
      </trkpt>
      <trkpt lat="24.49530023150146007537841796875" lon="118.1477050669491291046142578125">
        <ele>20.200000762939453125</ele>
        <time>2018-08-02T13:03:45.000Z</time>
        <extensions>
          <ns3:TrackPointExtension>
            <ns3:cad>84</ns3:cad>
          </ns3:TrackPointExtension>
        </extensions>
      </trkpt>
      <trkpt lat="24.4952468387782573699951171875" lon="118.1476745568215847015380859375">
        <ele>20.200000762939453125</ele>
        <time>2018-08-02T13:03:50.000Z</time>
        <extensions>
          <ns3:TrackPointExtension>
            <ns3:cad>78</ns3:cad>
          </ns3:TrackPointExtension>
        </extensions>
      </trkpt>
      <trkpt lat="24.4951667077839374542236328125" lon="118.14762870781123638153076171875">
        <ele>20</ele>
        <time>2018-08-02T13:03:55.000Z</time>
        <extensions>
          <ns3:TrackPointExtension>
            <ns3:cad>84</ns3:cad>
          </ns3:TrackPointExtension>
        </extensions>
      </trkpt>
      <trkpt lat="24.49510191567242145538330078125" lon="118.1476058252155780792236328125">
        <ele>20</ele>
        <time>2018-08-02T13:04:00.000Z</time>
        <extensions>
          <ns3:TrackPointExtension>
            <ns3:cad>78</ns3:cad>
          </ns3:TrackPointExtension>
        </extensions>
      </trkpt>
      <trkpt lat="24.4950694777071475982666015625" lon="118.14761345274746417999267578125">
        <ele>20</ele>
        <time>2018-08-02T13:04:05.000Z</time>
        <extensions>
          <ns3:TrackPointExtension>
            <ns3:cad>84</ns3:cad>
          </ns3:TrackPointExtension>
        </extensions>
      </trkpt>
      <trkpt lat="24.49502178467810153961181640625" lon="118.147590570151805877685546875">
        <ele>20</ele>
        <time>2018-08-02T13:04:10.000Z</time>
        <extensions>
          <ns3:TrackPointExtension>
            <ns3:cad>78</ns3:cad>
          </ns3:TrackPointExtension>
        </extensions>
      </trkpt>
      <trkpt lat="24.494943581521511077880859375" lon="118.147560060024261474609375">
        <ele>20</ele>
        <time>2018-08-02T13:04:15.000Z</time>
        <extensions>
          <ns3:TrackPointExtension>
            <ns3:cad>84</ns3:cad>
          </ns3:TrackPointExtension>
        </extensions>
      </trkpt>
      <trkpt lat="24.49488063342869281768798828125" lon="118.14753717742860317230224609375">
        <ele>20</ele>
        <time>2018-08-02T13:04:20.000Z</time>
        <extensions>
          <ns3:TrackPointExtension>
            <ns3:cad>78</ns3:cad>
          </ns3:TrackPointExtension>
        </extensions>
      </trkpt>
      <trkpt lat="24.49473378248512744903564453125" lon="118.14750666730105876922607421875">
        <ele>20.3999996185302734375</ele>
        <time>2018-08-02T13:04:25.000Z</time>
        <extensions>
          <ns3:TrackPointExtension>
            <ns3:cad>42</ns3:cad>
          </ns3:TrackPointExtension>
        </extensions>
      </trkpt>
      <trkpt lat="24.494697488844394683837890625" lon="118.14749903976917266845703125">
        <ele>20.3999996185302734375</ele>
        <time>2018-08-02T13:04:30.000Z</time>
        <extensions>
          <ns3:TrackPointExtension>
            <ns3:cad>60</ns3:cad>
          </ns3:TrackPointExtension>
        </extensions>
      </trkpt>
      <trkpt lat="24.4946155138313770294189453125" lon="118.14746090210974216461181640625">
        <ele>20.6000003814697265625</ele>
        <time>2018-08-02T13:04:35.000Z</time>
        <extensions>
          <ns3:TrackPointExtension>
            <ns3:cad>48</ns3:cad>
          </ns3:TrackPointExtension>
        </extensions>
      </trkpt>
      <trkpt lat="24.49455826543271541595458984375" lon="118.14746090210974216461181640625">
        <ele>20.799999237060546875</ele>
        <time>2018-08-02T13:04:40.000Z</time>
        <extensions>
          <ns3:TrackPointExtension>
            <ns3:cad>60</ns3:cad>
          </ns3:TrackPointExtension>
        </extensions>
      </trkpt>
      <trkpt lat="24.49448584578931331634521484375" lon="118.14741513691842555999755859375">
        <ele>21.200000762939453125</ele>
        <time>2018-08-02T13:04:45.000Z</time>
        <extensions>
          <ns3:TrackPointExtension>
            <ns3:cad>60</ns3:cad>
          </ns3:TrackPointExtension>
        </extensions>
      </trkpt>
      <trkpt lat="24.4944495521485805511474609375" lon="118.1473922543227672576904296875">
        <ele>21.3999996185302734375</ele>
        <time>2018-08-02T13:04:50.000Z</time>
        <extensions>
          <ns3:TrackPointExtension>
            <ns3:cad>36</ns3:cad>
          </ns3:TrackPointExtension>
        </extensions>
      </trkpt>
      <trkpt lat="24.4944247417151927947998046875" lon="118.1473617441952228546142578125">
        <ele>21.6000003814697265625</ele>
        <time>2018-08-02T13:04:55.000Z</time>
        <extensions>
          <ns3:TrackPointExtension>
            <ns3:cad>60</ns3:cad>
          </ns3:TrackPointExtension>
        </extensions>
      </trkpt>
      <trkpt lat="24.4943980872631072998046875" lon="118.147346489131450653076171875">
        <ele>21.799999237060546875</ele>
        <time>2018-08-02T13:05:00.000Z</time>
        <extensions>
          <ns3:TrackPointExtension>
            <ns3:cad>48</ns3:cad>
          </ns3:TrackPointExtension>
        </extensions>
      </trkpt>
      <trkpt lat="24.494392387568950653076171875" lon="118.1473312340676784515380859375">
        <ele>22</ele>
        <time>2018-08-02T13:05:05.000Z</time>
        <extensions>
          <ns3:TrackPointExtension>
            <ns3:cad>36</ns3:cad>
          </ns3:TrackPointExtension>
        </extensions>
      </trkpt>
      <trkpt lat="24.49438660405576229095458984375" lon="118.14731597900390625">
        <ele>22.200000762939453125</ele>
        <time>2018-08-02T13:05:10.000Z</time>
        <extensions>
          <ns3:TrackPointExtension/>
        </extensions>
      </trkpt>
      <trkpt lat="24.49438090436160564422607421875" lon="118.14730064012110233306884765625">
        <ele>22.3999996185302734375</ele>
        <time>2018-08-02T13:05:15.000Z</time>
        <extensions>
          <ns3:TrackPointExtension/>
        </extensions>
      </trkpt>
      <trkpt lat="24.49435609392821788787841796875" lon="118.14728538505733013153076171875">
        <ele>22.6000003814697265625</ele>
        <time>2018-08-02T13:05:20.000Z</time>
        <extensions>
          <ns3:TrackPointExtension>
            <ns3:cad>18</ns3:cad>
          </ns3:TrackPointExtension>
        </extensions>
      </trkpt>
      <trkpt lat="24.49433128349483013153076171875" lon="118.14727012999355792999267578125">
        <ele>22.799999237060546875</ele>
        <time>2018-08-02T13:05:25.000Z</time>
        <extensions>
          <ns3:TrackPointExtension>
            <ns3:cad>120</ns3:cad>
          </ns3:TrackPointExtension>
        </extensions>
      </trkpt>
      <trkpt lat="24.4942416809499263763427734375" lon="118.14727012999355792999267578125">
        <ele>22.3999996185302734375</ele>
        <time>2018-08-02T13:05:30.000Z</time>
        <extensions>
          <ns3:TrackPointExtension>
            <ns3:cad>84</ns3:cad>
          </ns3:TrackPointExtension>
        </extensions>
      </trkpt>
      <trkpt lat="24.49417873285710811614990234375" lon="118.1472625024616718292236328125">
        <ele>22.6000003814697265625</ele>
        <time>2018-08-02T13:05:35.000Z</time>
        <extensions>
          <ns3:TrackPointExtension>
            <ns3:cad>84</ns3:cad>
          </ns3:TrackPointExtension>
        </extensions>
      </trkpt>
      <trkpt lat="24.49411385692656040191650390625" lon="118.14725487492978572845458984375">
        <ele>22.799999237060546875</ele>
        <time>2018-08-02T13:05:40.000Z</time>
        <extensions>
          <ns3:TrackPointExtension>
            <ns3:cad>54</ns3:cad>
          </ns3:TrackPointExtension>
        </extensions>
      </trkpt>
      <trkpt lat="24.49408334679901599884033203125" lon="118.147247247397899627685546875">
        <ele>22.799999237060546875</ele>
        <time>2018-08-02T13:05:45.000Z</time>
        <extensions>
          <ns3:TrackPointExtension>
            <ns3:cad>60</ns3:cad>
          </ns3:TrackPointExtension>
        </extensions>
      </trkpt>
      <trkpt lat="24.49400321580469608306884765625" lon="118.14722436480224132537841796875">
        <ele>22.6000003814697265625</ele>
        <time>2018-08-02T13:05:50.000Z</time>
        <extensions>
          <ns3:TrackPointExtension>
            <ns3:cad>78</ns3:cad>
          </ns3:TrackPointExtension>
        </extensions>
      </trkpt>
      <trkpt lat="24.49393649585545063018798828125" lon="118.147216737270355224609375">
        <ele>22.200000762939453125</ele>
        <time>2018-08-02T13:05:55.000Z</time>
        <extensions>
          <ns3:TrackPointExtension>
            <ns3:cad>78</ns3:cad>
          </ns3:TrackPointExtension>
        </extensions>
      </trkpt>
      <trkpt lat="24.4938678480684757232666015625" lon="118.14720910973846912384033203125">
        <ele>21.799999237060546875</ele>
        <time>2018-08-02T13:06:00.000Z</time>
        <extensions>
          <ns3:TrackPointExtension>
            <ns3:cad>84</ns3:cad>
          </ns3:TrackPointExtension>
        </extensions>
      </trkpt>
      <trkpt lat="24.49380104430019855499267578125" lon="118.14716334454715251922607421875">
        <ele>21.3999996185302734375</ele>
        <time>2018-08-02T13:06:05.000Z</time>
        <extensions>
          <ns3:TrackPointExtension>
            <ns3:cad>84</ns3:cad>
          </ns3:TrackPointExtension>
        </extensions>
      </trkpt>
      <trkpt lat="24.49382015503942966461181640625" lon="118.14717859961092472076416015625">
        <ele>21.6000003814697265625</ele>
        <time>2018-08-02T13:06:10.000Z</time>
        <extensions>
          <ns3:TrackPointExtension>
            <ns3:cad>84</ns3:cad>
          </ns3:TrackPointExtension>
        </extensions>
      </trkpt>
      <trkpt lat="24.493766762316226959228515625" lon="118.14720910973846912384033203125">
        <ele>21.3999996185302734375</ele>
        <time>2018-08-02T13:06:15.000Z</time>
        <extensions>
          <ns3:TrackPointExtension>
            <ns3:cad>84</ns3:cad>
          </ns3:TrackPointExtension>
        </extensions>
      </trkpt>
      <trkpt lat="24.49368285946547985076904296875" lon="118.14720910973846912384033203125">
        <ele>21.200000762939453125</ele>
        <time>2018-08-02T13:06:20.000Z</time>
        <extensions>
          <ns3:TrackPointExtension>
            <ns3:cad>78</ns3:cad>
          </ns3:TrackPointExtension>
        </extensions>
      </trkpt>
      <trkpt lat="24.49362368322908878326416015625" lon="118.14720910973846912384033203125">
        <ele>21</ele>
        <time>2018-08-02T13:06:25.000Z</time>
        <extensions>
          <ns3:TrackPointExtension>
            <ns3:cad>78</ns3:cad>
          </ns3:TrackPointExtension>
        </extensions>
      </trkpt>
      <trkpt lat="24.49353215284645557403564453125" lon="118.14720910973846912384033203125">
        <ele>20.6000003814697265625</ele>
        <time>2018-08-02T13:06:30.000Z</time>
        <extensions>
          <ns3:TrackPointExtension>
            <ns3:cad>84</ns3:cad>
          </ns3:TrackPointExtension>
        </extensions>
      </trkpt>
      <trkpt lat="24.493448249995708465576171875" lon="118.14717859961092472076416015625">
        <ele>20.200000762939453125</ele>
        <time>2018-08-02T13:06:35.000Z</time>
        <extensions>
          <ns3:TrackPointExtension>
            <ns3:cad>78</ns3:cad>
          </ns3:TrackPointExtension>
        </extensions>
      </trkpt>
      <trkpt lat="24.4934138841927051544189453125" lon="118.1471709720790386199951171875">
        <ele>20</ele>
        <time>2018-08-02T13:06:40.000Z</time>
        <extensions>
          <ns3:TrackPointExtension>
            <ns3:cad>84</ns3:cad>
          </ns3:TrackPointExtension>
        </extensions>
      </trkpt>
      <trkpt lat="24.49337951838970184326171875" lon="118.14716334454715251922607421875">
        <ele>20</ele>
        <time>2018-08-02T13:06:45.000Z</time>
        <extensions>
          <ns3:TrackPointExtension>
            <ns3:cad>84</ns3:cad>
          </ns3:TrackPointExtension>
        </extensions>
      </trkpt>
      <trkpt lat="24.4932918436825275421142578125" lon="118.147125206887722015380859375">
        <ele>19.3999996185302734375</ele>
        <time>2018-08-02T13:06:50.000Z</time>
        <extensions>
          <ns3:TrackPointExtension>
            <ns3:cad>84</ns3:cad>
          </ns3:TrackPointExtension>
        </extensions>
      </trkpt>
      <trkpt lat="24.49319452978670597076416015625" lon="118.1470184214413166046142578125">
        <ele>19</ele>
        <time>2018-08-02T13:06:55.000Z</time>
        <extensions>
          <ns3:TrackPointExtension>
            <ns3:cad>84</ns3:cad>
          </ns3:TrackPointExtension>
        </extensions>
      </trkpt>
      <trkpt lat="24.49314876459538936614990234375" lon="118.146964944899082183837890625">
        <ele>19</ele>
        <time>2018-08-02T13:07:00.000Z</time>
        <extensions>
          <ns3:TrackPointExtension>
            <ns3:cad>72</ns3:cad>
          </ns3:TrackPointExtension>
        </extensions>
      </trkpt>
      <trkpt lat="24.49307248927652835845947265625" lon="118.14689629711210727691650390625">
        <ele>19</ele>
        <time>2018-08-02T13:07:05.000Z</time>
        <extensions>
          <ns3:TrackPointExtension>
            <ns3:cad>72</ns3:cad>
          </ns3:TrackPointExtension>
        </extensions>
      </trkpt>
      <trkpt lat="24.4930514506995677947998046875" lon="118.14680476672947406768798828125">
        <ele>19</ele>
        <time>2018-08-02T13:07:10.000Z</time>
        <extensions>
          <ns3:TrackPointExtension>
            <ns3:cad>84</ns3:cad>
          </ns3:TrackPointExtension>
        </extensions>
      </trkpt>
      <trkpt lat="24.4930648617446422576904296875" lon="118.14663696102797985076904296875">
        <ele>19</ele>
        <time>2018-08-02T13:07:15.000Z</time>
        <extensions>
          <ns3:TrackPointExtension>
            <ns3:cad>84</ns3:cad>
          </ns3:TrackPointExtension>
        </extensions>
      </trkpt>
      <trkpt lat="24.49307818897068500518798828125" lon="118.14653771929442882537841796875">
        <ele>19.3999996185302734375</ele>
        <time>2018-08-02T13:07:20.000Z</time>
        <extensions>
          <ns3:TrackPointExtension>
            <ns3:cad>84</ns3:cad>
          </ns3:TrackPointExtension>
        </extensions>
      </trkpt>
      <trkpt lat="24.4931010715663433074951171875" lon="118.1464233063161373138427734375">
        <ele>19.6000003814697265625</ele>
        <time>2018-08-02T13:07:25.000Z</time>
        <extensions>
          <ns3:TrackPointExtension>
            <ns3:cad>84</ns3:cad>
          </ns3:TrackPointExtension>
        </extensions>
      </trkpt>
      <trkpt lat="24.4931201823055744171142578125" lon="118.14634703099727630615234375">
        <ele>19.6000003814697265625</ele>
        <time>2018-08-02T13:07:30.000Z</time>
        <extensions>
          <ns3:TrackPointExtension>
            <ns3:cad>84</ns3:cad>
          </ns3:TrackPointExtension>
        </extensions>
      </trkpt>
      <trkpt lat="24.49316971935331821441650390625" lon="118.146217279136180877685546875">
        <ele>19.799999237060546875</ele>
        <time>2018-08-02T13:07:35.000Z</time>
        <extensions>
          <ns3:TrackPointExtension>
            <ns3:cad>84</ns3:cad>
          </ns3:TrackPointExtension>
        </extensions>
      </trkpt>
      <trkpt lat="24.49318313039839267730712890625" lon="118.14617914147675037384033203125">
        <ele>20</ele>
        <time>2018-08-02T13:07:40.000Z</time>
        <extensions>
          <ns3:TrackPointExtension>
            <ns3:cad>84</ns3:cad>
          </ns3:TrackPointExtension>
        </extensions>
      </trkpt>
      <trkpt lat="24.49322503991425037384033203125" lon="118.1460647284984588623046875">
        <ele>20.6000003814697265625</ele>
        <time>2018-08-02T13:07:45.000Z</time>
        <extensions>
          <ns3:TrackPointExtension>
            <ns3:cad>84</ns3:cad>
          </ns3:TrackPointExtension>
        </extensions>
      </trkpt>
      <trkpt lat="24.49323073960840702056884765625" lon="118.14602659083902835845947265625">
        <ele>20.799999237060546875</ele>
        <time>2018-08-02T13:07:50.000Z</time>
        <extensions>
          <ns3:TrackPointExtension>
            <ns3:cad>84</ns3:cad>
          </ns3:TrackPointExtension>
        </extensions>
      </trkpt>
      <trkpt lat="24.49325555004179477691650390625" lon="118.14590446650981903076171875">
        <ele>21.3999996185302734375</ele>
        <time>2018-08-02T13:07:55.000Z</time>
        <extensions>
          <ns3:TrackPointExtension>
            <ns3:cad>84</ns3:cad>
          </ns3:TrackPointExtension>
        </extensions>
      </trkpt>
      <trkpt lat="24.49327080510556697845458984375" lon="118.145843446254730224609375">
        <ele>21.6000003814697265625</ele>
        <time>2018-08-02T13:08:00.000Z</time>
        <extensions>
          <ns3:TrackPointExtension>
            <ns3:cad>84</ns3:cad>
          </ns3:TrackPointExtension>
        </extensions>
      </trkpt>
      <trkpt lat="24.4933032430708408355712890625" lon="118.1457366608083248138427734375">
        <ele>22.200000762939453125</ele>
        <time>2018-08-02T13:08:05.000Z</time>
        <extensions>
          <ns3:TrackPointExtension>
            <ns3:cad>84</ns3:cad>
          </ns3:TrackPointExtension>
        </extensions>
      </trkpt>
      <trkpt lat="24.4933337531983852386474609375" lon="118.14565275795757770538330078125">
        <ele>23</ele>
        <time>2018-08-02T13:08:10.000Z</time>
        <extensions>
          <ns3:TrackPointExtension>
            <ns3:cad>84</ns3:cad>
          </ns3:TrackPointExtension>
        </extensions>
      </trkpt>
      <trkpt lat="24.49334523640573024749755859375" lon="118.1455458886921405792236328125">
        <ele>23.3999996185302734375</ele>
        <time>2018-08-02T13:08:15.000Z</time>
        <extensions>
          <ns3:TrackPointExtension>
            <ns3:cad>84</ns3:cad>
          </ns3:TrackPointExtension>
        </extensions>
      </trkpt>
      <trkpt lat="24.4933585636317729949951171875" lon="118.145469613373279571533203125">
        <ele>23.799999237060546875</ele>
        <time>2018-08-02T13:08:20.000Z</time>
        <extensions>
          <ns3:TrackPointExtension>
            <ns3:cad>84</ns3:cad>
          </ns3:TrackPointExtension>
        </extensions>
      </trkpt>
      <trkpt lat="24.4933947734534740447998046875" lon="118.1453780829906463623046875">
        <ele>24.6000003814697265625</ele>
        <time>2018-08-02T13:08:25.000Z</time>
        <extensions>
          <ns3:TrackPointExtension>
            <ns3:cad>84</ns3:cad>
          </ns3:TrackPointExtension>
        </extensions>
      </trkpt>
      <trkpt lat="24.4934081844985485076904296875" lon="118.145286552608013153076171875">
        <ele>25</ele>
        <time>2018-08-02T13:08:30.000Z</time>
        <extensions>
          <ns3:TrackPointExtension>
            <ns3:cad>84</ns3:cad>
          </ns3:TrackPointExtension>
        </extensions>
      </trkpt>
      <trkpt lat="24.493459649384021759033203125" lon="118.1452330760657787322998046875">
        <ele>25</ele>
        <time>2018-08-02T13:08:35.000Z</time>
        <extensions>
          <ns3:TrackPointExtension>
            <ns3:cad>90</ns3:cad>
          </ns3:TrackPointExtension>
        </extensions>
      </trkpt>
      <trkpt lat="24.49347876012325286865234375" lon="118.14519493840634822845458984375">
        <ele>25</ele>
        <time>2018-08-02T13:08:40.000Z</time>
        <extensions>
          <ns3:TrackPointExtension>
            <ns3:cad>84</ns3:cad>
          </ns3:TrackPointExtension>
        </extensions>
      </trkpt>
      <trkpt lat="24.49351119808852672576904296875" lon="118.1450500153005123138427734375">
        <ele>25</ele>
        <time>2018-08-02T13:08:45.000Z</time>
        <extensions>
          <ns3:TrackPointExtension>
            <ns3:cad>84</ns3:cad>
          </ns3:TrackPointExtension>
        </extensions>
      </trkpt>
      <trkpt lat="24.49352829717099666595458984375" lon="118.14497373998165130615234375">
        <ele>25</ele>
        <time>2018-08-02T13:08:50.000Z</time>
        <extensions>
          <ns3:TrackPointExtension>
            <ns3:cad>90</ns3:cad>
          </ns3:TrackPointExtension>
        </extensions>
      </trkpt>
      <trkpt lat="24.49354355223476886749267578125" lon="118.1448287330567836761474609375">
        <ele>24.6000003814697265625</ele>
        <time>2018-08-02T13:08:55.000Z</time>
        <extensions>
          <ns3:TrackPointExtension>
            <ns3:cad>90</ns3:cad>
          </ns3:TrackPointExtension>
        </extensions>
      </trkpt>
      <trkpt lat="24.493545480072498321533203125" lon="118.14476008526980876922607421875">
        <ele>24.200000762939453125</ele>
        <time>2018-08-02T13:09:00.000Z</time>
        <extensions>
          <ns3:TrackPointExtension>
            <ns3:cad>84</ns3:cad>
          </ns3:TrackPointExtension>
        </extensions>
      </trkpt>
      <trkpt lat="24.49356266297399997711181640625" lon="118.1446151621639728546142578125">
        <ele>23.200000762939453125</ele>
        <time>2018-08-02T13:09:05.000Z</time>
        <extensions>
          <ns3:TrackPointExtension>
            <ns3:cad>90</ns3:cad>
          </ns3:TrackPointExtension>
        </extensions>
      </trkpt>
      <trkpt lat="24.493575990200042724609375" lon="118.14449303783476352691650390625">
        <ele>22.799999237060546875</ele>
        <time>2018-08-02T13:09:10.000Z</time>
        <extensions>
          <ns3:TrackPointExtension>
            <ns3:cad>90</ns3:cad>
          </ns3:TrackPointExtension>
        </extensions>
      </trkpt>
      <trkpt lat="24.493606500327587127685546875" lon="118.14437099732458591461181640625">
        <ele>22.200000762939453125</ele>
        <time>2018-08-02T13:09:15.000Z</time>
        <extensions>
          <ns3:TrackPointExtension>
            <ns3:cad>84</ns3:cad>
          </ns3:TrackPointExtension>
        </extensions>
      </trkpt>
      <trkpt lat="24.49361798353493213653564453125" lon="118.1443023495376110076904296875">
        <ele>22</ele>
        <time>2018-08-02T13:09:20.000Z</time>
        <extensions>
          <ns3:TrackPointExtension>
            <ns3:cad>84</ns3:cad>
          </ns3:TrackPointExtension>
        </extensions>
      </trkpt>
      <trkpt lat="24.49364463798701763153076171875" lon="118.1441725976765155792236328125">
        <ele>22</ele>
        <time>2018-08-02T13:09:25.000Z</time>
        <extensions>
          <ns3:TrackPointExtension>
            <ns3:cad>84</ns3:cad>
          </ns3:TrackPointExtension>
        </extensions>
      </trkpt>
      <trkpt lat="24.49368470348417758941650390625" lon="118.144096322357654571533203125">
        <ele>22.3999996185302734375</ele>
        <time>2018-08-02T13:09:30.000Z</time>
        <extensions>
          <ns3:TrackPointExtension>
            <ns3:cad>84</ns3:cad>
          </ns3:TrackPointExtension>
        </extensions>
      </trkpt>
      <trkpt lat="24.4937075860798358917236328125" lon="118.1440200470387935638427734375">
        <ele>22.799999237060546875</ele>
        <time>2018-08-02T13:09:35.000Z</time>
        <extensions>
          <ns3:TrackPointExtension>
            <ns3:cad>84</ns3:cad>
          </ns3:TrackPointExtension>
        </extensions>
      </trkpt>
      <trkpt lat="24.4937209971249103546142578125" lon="118.14394377171993255615234375">
        <ele>23</ele>
        <time>2018-08-02T13:09:40.000Z</time>
        <extensions>
          <ns3:TrackPointExtension>
            <ns3:cad>84</ns3:cad>
          </ns3:TrackPointExtension>
        </extensions>
      </trkpt>
      <trkpt lat="24.49374957941472530364990234375" lon="118.14383690245449542999267578125">
        <ele>23.6000003814697265625</ele>
        <time>2018-08-02T13:09:45.000Z</time>
        <extensions>
          <ns3:TrackPointExtension>
            <ns3:cad>84</ns3:cad>
          </ns3:TrackPointExtension>
        </extensions>
      </trkpt>
      <trkpt lat="24.493766762316226959228515625" lon="118.14380639232695102691650390625">
        <ele>23.799999237060546875</ele>
        <time>2018-08-02T13:09:50.000Z</time>
        <extensions>
          <ns3:TrackPointExtension>
            <ns3:cad>84</ns3:cad>
          </ns3:TrackPointExtension>
        </extensions>
      </trkpt>
      <trkpt lat="24.49381629936397075653076171875" lon="118.14371486194431781768798828125">
        <ele>24</ele>
        <time>2018-08-02T13:09:55.000Z</time>
        <extensions>
          <ns3:TrackPointExtension>
            <ns3:cad>84</ns3:cad>
          </ns3:TrackPointExtension>
        </extensions>
      </trkpt>
      <trkpt lat="24.493846893310546875" lon="118.14368435181677341461181640625">
        <ele>23.799999237060546875</ele>
        <time>2018-08-02T13:10:00.000Z</time>
        <extensions>
          <ns3:TrackPointExtension>
            <ns3:cad>48</ns3:cad>
          </ns3:TrackPointExtension>
        </extensions>
      </trkpt>
      <trkpt lat="24.49387161992490291595458984375" lon="118.14366909675300121307373046875">
        <ele>23.799999237060546875</ele>
        <time>2018-08-02T13:10:05.000Z</time>
        <extensions>
          <ns3:TrackPointExtension>
            <ns3:cad>30</ns3:cad>
          </ns3:TrackPointExtension>
        </extensions>
      </trkpt>
      <trkpt lat="24.49388503096997737884521484375" lon="118.14363858662545680999755859375">
        <ele>23.6000003814697265625</ele>
        <time>2018-08-02T13:10:10.000Z</time>
        <extensions>
          <ns3:TrackPointExtension>
            <ns3:cad>12</ns3:cad>
          </ns3:TrackPointExtension>
        </extensions>
      </trkpt>
      <trkpt lat="24.4938735477626323699951171875" lon="118.14362333156168460845947265625">
        <ele>23.6000003814697265625</ele>
        <time>2018-08-02T13:10:15.000Z</time>
        <extensions>
          <ns3:TrackPointExtension/>
        </extensions>
      </trkpt>
      <trkpt lat="24.4938621483743190765380859375" lon="118.1436157040297985076904296875">
        <ele>23.6000003814697265625</ele>
        <time>2018-08-02T13:10:20.000Z</time>
        <extensions>
          <ns3:TrackPointExtension/>
        </extensions>
      </trkpt>
      <trkpt lat="24.49383541010320186614990234375" lon="118.14362333156168460845947265625">
        <ele>23.6000003814697265625</ele>
        <time>2018-08-02T13:10:25.000Z</time>
        <extensions>
          <ns3:TrackPointExtension/>
        </extensions>
      </trkpt>
      <trkpt lat="24.493846893310546875" lon="118.1435851939022541046142578125">
        <ele>23.3999996185302734375</ele>
        <time>2018-08-02T13:10:30.000Z</time>
        <extensions>
          <ns3:TrackPointExtension>
            <ns3:cad>96</ns3:cad>
          </ns3:TrackPointExtension>
        </extensions>
      </trkpt>
      <trkpt lat="24.49382208287715911865234375" lon="118.14350883476436138153076171875">
        <ele>23.200000762939453125</ele>
        <time>2018-08-02T13:10:35.000Z</time>
        <extensions>
          <ns3:TrackPointExtension>
            <ns3:cad>90</ns3:cad>
          </ns3:TrackPointExtension>
        </extensions>
      </trkpt>
      <trkpt lat="24.49381629936397075653076171875" lon="118.143409676849842071533203125">
        <ele>23.200000762939453125</ele>
        <time>2018-08-02T13:10:40.000Z</time>
        <extensions>
          <ns3:TrackPointExtension>
            <ns3:cad>84</ns3:cad>
          </ns3:TrackPointExtension>
        </extensions>
      </trkpt>
      <trkpt lat="24.49381445534527301788330078125" lon="118.1433334015309810638427734375">
        <ele>23.3999996185302734375</ele>
        <time>2018-08-02T13:10:45.000Z</time>
        <extensions>
          <ns3:TrackPointExtension>
            <ns3:cad>84</ns3:cad>
          </ns3:TrackPointExtension>
        </extensions>
      </trkpt>
      <trkpt lat="24.493839181959629058837890625" lon="118.14321898855268955230712890625">
        <ele>23.6000003814697265625</ele>
        <time>2018-08-02T13:10:50.000Z</time>
        <extensions>
          <ns3:TrackPointExtension>
            <ns3:cad>78</ns3:cad>
          </ns3:TrackPointExtension>
        </extensions>
      </trkpt>
      <trkpt lat="24.49385452084243297576904296875" lon="118.143127374351024627685546875">
        <ele>23.6000003814697265625</ele>
        <time>2018-08-02T13:10:55.000Z</time>
        <extensions>
          <ns3:TrackPointExtension>
            <ns3:cad>78</ns3:cad>
          </ns3:TrackPointExtension>
        </extensions>
      </trkpt>
      <trkpt lat="24.493863992393016815185546875" lon="118.14304347150027751922607421875">
        <ele>23.799999237060546875</ele>
        <time>2018-08-02T13:11:00.000Z</time>
        <extensions>
          <ns3:TrackPointExtension>
            <ns3:cad>84</ns3:cad>
          </ns3:TrackPointExtension>
        </extensions>
      </trkpt>
      <trkpt lat="24.4939040578901767730712890625" lon="118.1429748237133026123046875">
        <ele>24</ele>
        <time>2018-08-02T13:11:05.000Z</time>
        <extensions>
          <ns3:TrackPointExtension>
            <ns3:cad>84</ns3:cad>
          </ns3:TrackPointExtension>
        </extensions>
      </trkpt>
      <trkpt lat="24.4939345680177211761474609375" lon="118.14289092086255550384521484375">
        <ele>24.3999996185302734375</ele>
        <time>2018-08-02T13:11:10.000Z</time>
        <extensions>
          <ns3:TrackPointExtension>
            <ns3:cad>84</ns3:cad>
          </ns3:TrackPointExtension>
        </extensions>
      </trkpt>
      <trkpt lat="24.49395745061337947845458984375" lon="118.1428298167884349822998046875">
        <ele>24.6000003814697265625</ele>
        <time>2018-08-02T13:11:15.000Z</time>
        <extensions>
          <ns3:TrackPointExtension>
            <ns3:cad>84</ns3:cad>
          </ns3:TrackPointExtension>
        </extensions>
      </trkpt>
      <trkpt lat="24.49396700598299503326416015625" lon="118.142753541469573974609375">
        <ele>25</ele>
        <time>2018-08-02T13:11:20.000Z</time>
        <extensions>
          <ns3:TrackPointExtension>
            <ns3:cad>78</ns3:cad>
          </ns3:TrackPointExtension>
        </extensions>
      </trkpt>
      <trkpt lat="24.49396700598299503326416015625" lon="118.14266963861882686614990234375">
        <ele>25.6000003814697265625</ele>
        <time>2018-08-02T13:11:25.000Z</time>
        <extensions>
          <ns3:TrackPointExtension>
            <ns3:cad>60</ns3:cad>
          </ns3:TrackPointExtension>
        </extensions>
      </trkpt>
      <trkpt lat="24.49401277117431163787841796875" lon="118.14260861836373805999755859375">
        <ele>26</ele>
        <time>2018-08-02T13:11:30.000Z</time>
        <extensions>
          <ns3:TrackPointExtension>
            <ns3:cad>60</ns3:cad>
          </ns3:TrackPointExtension>
        </extensions>
      </trkpt>
      <trkpt lat="24.494060464203357696533203125" lon="118.14257810823619365692138671875">
        <ele>26.200000762939453125</ele>
        <time>2018-08-02T13:11:35.000Z</time>
        <extensions>
          <ns3:TrackPointExtension>
            <ns3:cad>66</ns3:cad>
          </ns3:TrackPointExtension>
        </extensions>
      </trkpt>
      <trkpt lat="24.49409860186278820037841796875" lon="118.14249412156641483306884765625">
        <ele>26.3999996185302734375</ele>
        <time>2018-08-02T13:11:40.000Z</time>
        <extensions>
          <ns3:TrackPointExtension>
            <ns3:cad>66</ns3:cad>
          </ns3:TrackPointExtension>
        </extensions>
      </trkpt>
      <trkpt lat="24.49410815723240375518798828125" lon="118.14243310131132602691650390625">
        <ele>26.3999996185302734375</ele>
        <time>2018-08-02T13:11:45.000Z</time>
        <extensions>
          <ns3:TrackPointExtension>
            <ns3:cad>84</ns3:cad>
          </ns3:TrackPointExtension>
        </extensions>
      </trkpt>
      <trkpt lat="24.4941367395222187042236328125" lon="118.14240259118378162384033203125">
        <ele>26.6000003814697265625</ele>
        <time>2018-08-02T13:11:50.000Z</time>
        <extensions>
          <ns3:TrackPointExtension>
            <ns3:cad>84</ns3:cad>
          </ns3:TrackPointExtension>
        </extensions>
      </trkpt>
      <trkpt lat="24.49417303316295146942138671875" lon="118.14240259118378162384033203125">
        <ele>26.6000003814697265625</ele>
        <time>2018-08-02T13:11:55.000Z</time>
        <extensions>
          <ns3:TrackPointExtension>
            <ns3:cad>84</ns3:cad>
          </ns3:TrackPointExtension>
        </extensions>
      </trkpt>
      <trkpt lat="24.49423975311219692230224609375" lon="118.14231106080114841461181640625">
        <ele>26.799999237060546875</ele>
        <time>2018-08-02T13:12:00.000Z</time>
        <extensions>
          <ns3:TrackPointExtension>
            <ns3:cad>84</ns3:cad>
          </ns3:TrackPointExtension>
        </extensions>
      </trkpt>
      <trkpt lat="24.49424360878765583038330078125" lon="118.1422729231417179107666015625">
        <ele>27</ele>
        <time>2018-08-02T13:12:05.000Z</time>
        <extensions>
          <ns3:TrackPointExtension>
            <ns3:cad>84</ns3:cad>
          </ns3:TrackPointExtension>
        </extensions>
      </trkpt>
      <trkpt lat="24.494268335402011871337890625" lon="118.1421126611530780792236328125">
        <ele>27.6000003814697265625</ele>
        <time>2018-08-02T13:12:10.000Z</time>
        <extensions>
          <ns3:TrackPointExtension>
            <ns3:cad>90</ns3:cad>
          </ns3:TrackPointExtension>
        </extensions>
      </trkpt>
      <trkpt lat="24.4942913018167018890380859375" lon="118.14201350323855876922607421875">
        <ele>27.799999237060546875</ele>
        <time>2018-08-02T13:12:15.000Z</time>
        <extensions>
          <ns3:TrackPointExtension>
            <ns3:cad>84</ns3:cad>
          </ns3:TrackPointExtension>
        </extensions>
      </trkpt>
      <trkpt lat="24.4943332113325595855712890625" lon="118.141914345324039459228515625">
        <ele>27.6000003814697265625</ele>
        <time>2018-08-02T13:12:20.000Z</time>
        <extensions>
          <ns3:TrackPointExtension>
            <ns3:cad>84</ns3:cad>
          </ns3:TrackPointExtension>
        </extensions>
      </trkpt>
      <trkpt lat="24.49436564929783344268798828125" lon="118.1418380700051784515380859375">
        <ele>27.3999996185302734375</ele>
        <time>2018-08-02T13:12:25.000Z</time>
        <extensions>
          <ns3:TrackPointExtension>
            <ns3:cad>84</ns3:cad>
          </ns3:TrackPointExtension>
        </extensions>
      </trkpt>
      <trkpt lat="24.49444578029215335845947265625" lon="118.14176171086728572845458984375">
        <ele>27.799999237060546875</ele>
        <time>2018-08-02T13:12:30.000Z</time>
        <extensions>
          <ns3:TrackPointExtension>
            <ns3:cad>84</ns3:cad>
          </ns3:TrackPointExtension>
        </extensions>
      </trkpt>
      <trkpt lat="24.4944839179515838623046875" lon="118.14174645580351352691650390625">
        <ele>28</ele>
        <time>2018-08-02T13:12:35.000Z</time>
        <extensions>
          <ns3:TrackPointExtension>
            <ns3:cad>30</ns3:cad>
          </ns3:TrackPointExtension>
        </extensions>
      </trkpt>
      <trkpt lat="24.4945697486400604248046875" lon="118.14176171086728572845458984375">
        <ele>28.799999237060546875</ele>
        <time>2018-08-02T13:12:40.000Z</time>
        <extensions>
          <ns3:TrackPointExtension>
            <ns3:cad>72</ns3:cad>
          </ns3:TrackPointExtension>
        </extensions>
      </trkpt>
      <trkpt lat="24.49461744166910648345947265625" lon="118.14178459346294403076171875">
        <ele>29</ele>
        <time>2018-08-02T13:12:45.000Z</time>
        <extensions>
          <ns3:TrackPointExtension>
            <ns3:cad>90</ns3:cad>
          </ns3:TrackPointExtension>
        </extensions>
      </trkpt>
      <trkpt lat="24.49468416161835193634033203125" lon="118.141815103590488433837890625">
        <ele>29.200000762939453125</ele>
        <time>2018-08-02T13:12:50.000Z</time>
        <extensions>
          <ns3:TrackPointExtension>
            <ns3:cad>84</ns3:cad>
          </ns3:TrackPointExtension>
        </extensions>
      </trkpt>
      <trkpt lat="24.49475859291851520538330078125" lon="118.14183044247329235076904296875">
        <ele>29.200000762939453125</ele>
        <time>2018-08-02T13:12:55.000Z</time>
        <extensions>
          <ns3:TrackPointExtension>
            <ns3:cad>90</ns3:cad>
          </ns3:TrackPointExtension>
        </extensions>
      </trkpt>
      <trkpt lat="24.49482916854321956634521484375" lon="118.14184569753706455230712890625">
        <ele>29.200000762939453125</ele>
        <time>2018-08-02T13:13:00.000Z</time>
        <extensions>
          <ns3:TrackPointExtension>
            <ns3:cad>78</ns3:cad>
          </ns3:TrackPointExtension>
        </extensions>
      </trkpt>
      <trkpt lat="24.49487107805907726287841796875" lon="118.141853325068950653076171875">
        <ele>29.200000762939453125</ele>
        <time>2018-08-02T13:13:05.000Z</time>
        <extensions>
          <ns3:TrackPointExtension>
            <ns3:cad>90</ns3:cad>
          </ns3:TrackPointExtension>
        </extensions>
      </trkpt>
      <trkpt lat="24.49497031979262828826904296875" lon="118.14189146272838115692138671875">
        <ele>29.799999237060546875</ele>
        <time>2018-08-02T13:13:10.000Z</time>
        <extensions>
          <ns3:TrackPointExtension>
            <ns3:cad>84</ns3:cad>
          </ns3:TrackPointExtension>
        </extensions>
      </trkpt>
      <trkpt lat="24.49504273943603038787841796875" lon="118.14190671779215335845947265625">
        <ele>29.3999996185302734375</ele>
        <time>2018-08-02T13:13:15.000Z</time>
        <extensions>
          <ns3:TrackPointExtension>
            <ns3:cad>84</ns3:cad>
          </ns3:TrackPointExtension>
        </extensions>
      </trkpt>
      <trkpt lat="24.49513812549412250518798828125" lon="118.1419296003878116607666015625">
        <ele>28.799999237060546875</ele>
        <time>2018-08-02T13:13:20.000Z</time>
        <extensions>
          <ns3:TrackPointExtension>
            <ns3:cad>84</ns3:cad>
          </ns3:TrackPointExtension>
        </extensions>
      </trkpt>
      <trkpt lat="24.49518959037959575653076171875" lon="118.1419448554515838623046875">
        <ele>28.6000003814697265625</ele>
        <time>2018-08-02T13:13:25.000Z</time>
        <extensions>
          <ns3:TrackPointExtension>
            <ns3:cad>84</ns3:cad>
          </ns3:TrackPointExtension>
        </extensions>
      </trkpt>
      <trkpt lat="24.495286904275417327880859375" lon="118.1419601105153560638427734375">
        <ele>28.200000762939453125</ele>
        <time>2018-08-02T13:13:30.000Z</time>
        <extensions>
          <ns3:TrackPointExtension>
            <ns3:cad>84</ns3:cad>
          </ns3:TrackPointExtension>
        </extensions>
      </trkpt>
      <trkpt lat="24.49534029699862003326416015625" lon="118.14196773804724216461181640625">
        <ele>28</ele>
        <time>2018-08-02T13:13:35.000Z</time>
        <extensions>
          <ns3:TrackPointExtension>
            <ns3:cad>84</ns3:cad>
          </ns3:TrackPointExtension>
        </extensions>
      </trkpt>
      <trkpt lat="24.495464265346527099609375" lon="118.14198299311101436614990234375">
        <ele>27.799999237060546875</ele>
        <time>2018-08-02T13:13:40.000Z</time>
        <extensions>
          <ns3:TrackPointExtension>
            <ns3:cad>84</ns3:cad>
          </ns3:TrackPointExtension>
        </extensions>
      </trkpt>
      <trkpt lat="24.49553291313350200653076171875" lon="118.14199824817478656768798828125">
        <ele>27.200000762939453125</ele>
        <time>2018-08-02T13:13:45.000Z</time>
        <extensions>
          <ns3:TrackPointExtension>
            <ns3:cad>78</ns3:cad>
          </ns3:TrackPointExtension>
        </extensions>
      </trkpt>
      <trkpt lat="24.49560734443366527557373046875" lon="118.1421126611530780792236328125">
        <ele>27.799999237060546875</ele>
        <time>2018-08-02T13:13:50.000Z</time>
        <extensions>
          <ns3:TrackPointExtension>
            <ns3:cad>84</ns3:cad>
          </ns3:TrackPointExtension>
        </extensions>
      </trkpt>
      <trkpt lat="24.495679847896099090576171875" lon="118.14213554374873638153076171875">
        <ele>27.3999996185302734375</ele>
        <time>2018-08-02T13:13:55.000Z</time>
        <extensions>
          <ns3:TrackPointExtension>
            <ns3:cad>84</ns3:cad>
          </ns3:TrackPointExtension>
        </extensions>
      </trkpt>
      <trkpt lat="24.4957618229091167449951171875" lon="118.142158426344394683837890625">
        <ele>26.3999996185302734375</ele>
        <time>2018-08-02T13:14:00.000Z</time>
        <extensions>
          <ns3:TrackPointExtension>
            <ns3:cad>90</ns3:cad>
          </ns3:TrackPointExtension>
        </extensions>
      </trkpt>
      <trkpt lat="24.49586098082363605499267578125" lon="118.142158426344394683837890625">
        <ele>25</ele>
        <time>2018-08-02T13:14:05.000Z</time>
        <extensions>
          <ns3:TrackPointExtension>
            <ns3:cad>78</ns3:cad>
          </ns3:TrackPointExtension>
        </extensions>
      </trkpt>
      <trkpt lat="24.4959277845919132232666015625" lon="118.14220427535474300384521484375">
        <ele>24.6000003814697265625</ele>
        <time>2018-08-02T13:14:10.000Z</time>
        <extensions>
          <ns3:TrackPointExtension>
            <ns3:cad>84</ns3:cad>
          </ns3:TrackPointExtension>
        </extensions>
      </trkpt>
      <trkpt lat="24.49598687700927257537841796875" lon="118.142257668077945709228515625">
        <ele>24.3999996185302734375</ele>
        <time>2018-08-02T13:14:15.000Z</time>
        <extensions>
          <ns3:TrackPointExtension>
            <ns3:cad>84</ns3:cad>
          </ns3:TrackPointExtension>
        </extensions>
      </trkpt>
      <trkpt lat="24.49608226306736469268798828125" lon="118.1422881782054901123046875">
        <ele>24.200000762939453125</ele>
        <time>2018-08-02T13:14:20.000Z</time>
        <extensions>
          <ns3:TrackPointExtension>
            <ns3:cad>84</ns3:cad>
          </ns3:TrackPointExtension>
        </extensions>
      </trkpt>
      <trkpt lat="24.4961242564022541046142578125" lon="118.1422881782054901123046875">
        <ele>24.200000762939453125</ele>
        <time>2018-08-02T13:14:25.000Z</time>
        <extensions>
          <ns3:TrackPointExtension>
            <ns3:cad>84</ns3:cad>
          </ns3:TrackPointExtension>
        </extensions>
      </trkpt>
      <trkpt lat="24.49616239406168460845947265625" lon="118.14231106080114841461181640625">
        <ele>24.200000762939453125</ele>
        <time>2018-08-02T13:14:30.000Z</time>
        <extensions>
          <ns3:TrackPointExtension>
            <ns3:cad>72</ns3:cad>
          </ns3:TrackPointExtension>
        </extensions>
      </trkpt>
      <trkpt lat="24.49623481370508670806884765625" lon="118.142318688333034515380859375">
        <ele>24</ele>
        <time>2018-08-02T13:14:35.000Z</time>
        <extensions>
          <ns3:TrackPointExtension>
            <ns3:cad>90</ns3:cad>
          </ns3:TrackPointExtension>
        </extensions>
      </trkpt>
      <trkpt lat="24.49637596495449542999267578125" lon="118.14234157092869281768798828125">
        <ele>24</ele>
        <time>2018-08-02T13:14:40.000Z</time>
        <extensions>
          <ns3:TrackPointExtension>
            <ns3:cad>84</ns3:cad>
          </ns3:TrackPointExtension>
        </extensions>
      </trkpt>
      <trkpt lat="24.496463723480701446533203125" lon="118.1423644535243511199951171875">
        <ele>24.3999996185302734375</ele>
        <time>2018-08-02T13:14:45.000Z</time>
        <extensions>
          <ns3:TrackPointExtension>
            <ns3:cad>78</ns3:cad>
          </ns3:TrackPointExtension>
        </extensions>
      </trkpt>
      <trkpt lat="24.49646942317485809326171875" lon="118.142440728843212127685546875">
        <ele>25.799999237060546875</ele>
        <time>2018-08-02T13:14:50.000Z</time>
        <extensions>
          <ns3:TrackPointExtension>
            <ns3:cad>78</ns3:cad>
          </ns3:TrackPointExtension>
        </extensions>
      </trkpt>
      <trkpt lat="24.49647520668804645538330078125" lon="118.14251708798110485076904296875">
        <ele>27.200000762939453125</ele>
        <time>2018-08-02T13:14:55.000Z</time>
        <extensions>
          <ns3:TrackPointExtension>
            <ns3:cad>78</ns3:cad>
          </ns3:TrackPointExtension>
        </extensions>
      </trkpt>
      <trkpt lat="24.496452324092388153076171875" lon="118.142600990831851959228515625">
        <ele>28</ele>
        <time>2018-08-02T13:15:00.000Z</time>
        <extensions>
          <ns3:TrackPointExtension>
            <ns3:cad>54</ns3:cad>
          </ns3:TrackPointExtension>
        </extensions>
      </trkpt>
      <trkpt lat="24.4964370690286159515380859375" lon="118.1426772661507129669189453125">
        <ele>27.799999237060546875</ele>
        <time>2018-08-02T13:15:05.000Z</time>
        <extensions>
          <ns3:TrackPointExtension>
            <ns3:cad>120</ns3:cad>
          </ns3:TrackPointExtension>
        </extensions>
      </trkpt>
      <trkpt lat="24.496427513659000396728515625" lon="118.14276116900146007537841796875">
        <ele>27.799999237060546875</ele>
        <time>2018-08-02T13:15:10.000Z</time>
        <extensions>
          <ns3:TrackPointExtension>
            <ns3:cad>84</ns3:cad>
          </ns3:TrackPointExtension>
        </extensions>
      </trkpt>
      <trkpt lat="24.49640463106334209442138671875" lon="118.1428298167884349822998046875">
        <ele>28.200000762939453125</ele>
        <time>2018-08-02T13:15:15.000Z</time>
        <extensions>
          <ns3:TrackPointExtension>
            <ns3:cad>78</ns3:cad>
          </ns3:TrackPointExtension>
        </extensions>
      </trkpt>
      <trkpt lat="24.49633405543863773345947265625" lon="118.1429290585219860076904296875">
        <ele>29.200000762939453125</ele>
        <time>2018-08-02T13:15:20.000Z</time>
        <extensions>
          <ns3:TrackPointExtension>
            <ns3:cad>84</ns3:cad>
          </ns3:TrackPointExtension>
        </extensions>
      </trkpt>
      <trkpt lat="24.49632450006902217864990234375" lon="118.1429595686495304107666015625">
        <ele>29.3999996185302734375</ele>
        <time>2018-08-02T13:15:25.000Z</time>
        <extensions>
          <ns3:TrackPointExtension>
            <ns3:cad>84</ns3:cad>
          </ns3:TrackPointExtension>
        </extensions>
      </trkpt>
      <trkpt lat="24.49629776179790496826171875" lon="118.14304347150027751922607421875">
        <ele>30.799999237060546875</ele>
        <time>2018-08-02T13:15:30.000Z</time>
        <extensions>
          <ns3:TrackPointExtension>
            <ns3:cad>84</ns3:cad>
          </ns3:TrackPointExtension>
        </extensions>
      </trkpt>
      <trkpt lat="24.49624822475016117095947265625" lon="118.1431121192872524261474609375">
        <ele>32</ele>
        <time>2018-08-02T13:15:35.000Z</time>
        <extensions>
          <ns3:TrackPointExtension>
            <ns3:cad>84</ns3:cad>
          </ns3:TrackPointExtension>
        </extensions>
      </trkpt>
      <trkpt lat="24.49621955864131450653076171875" lon="118.143188394606113433837890625">
        <ele>32.799999237060546875</ele>
        <time>2018-08-02T13:15:40.000Z</time>
        <extensions>
          <ns3:TrackPointExtension>
            <ns3:cad>84</ns3:cad>
          </ns3:TrackPointExtension>
        </extensions>
      </trkpt>
      <trkpt lat="24.4961547665297985076904296875" lon="118.14326475374400615692138671875">
        <ele>32.799999237060546875</ele>
        <time>2018-08-02T13:15:45.000Z</time>
        <extensions>
          <ns3:TrackPointExtension>
            <ns3:cad>84</ns3:cad>
          </ns3:TrackPointExtension>
        </extensions>
      </trkpt>
      <trkpt lat="24.49608611874282360076904296875" lon="118.1433334015309810638427734375">
        <ele>32.59999847412109375</ele>
        <time>2018-08-02T13:15:50.000Z</time>
        <extensions>
          <ns3:TrackPointExtension>
            <ns3:cad>84</ns3:cad>
          </ns3:TrackPointExtension>
        </extensions>
      </trkpt>
      <trkpt lat="24.49607270769774913787841796875" lon="118.143409676849842071533203125">
        <ele>32.799999237060546875</ele>
        <time>2018-08-02T13:15:55.000Z</time>
        <extensions>
          <ns3:TrackPointExtension>
            <ns3:cad>72</ns3:cad>
          </ns3:TrackPointExtension>
        </extensions>
      </trkpt>
      <trkpt lat="24.4960784912109375" lon="118.14350883476436138153076171875">
        <ele>33</ele>
        <time>2018-08-02T13:16:00.000Z</time>
        <extensions>
          <ns3:TrackPointExtension>
            <ns3:cad>84</ns3:cad>
          </ns3:TrackPointExtension>
        </extensions>
      </trkpt>
      <trkpt lat="24.496059380471706390380859375" lon="118.1435851939022541046142578125">
        <ele>32.59999847412109375</ele>
        <time>2018-08-02T13:16:05.000Z</time>
        <extensions>
          <ns3:TrackPointExtension>
            <ns3:cad>84</ns3:cad>
          </ns3:TrackPointExtension>
        </extensions>
      </trkpt>
      <trkpt lat="24.49604605324566364288330078125" lon="118.143691979348659515380859375">
        <ele>32</ele>
        <time>2018-08-02T13:16:10.000Z</time>
        <extensions>
          <ns3:TrackPointExtension>
            <ns3:cad>84</ns3:cad>
          </ns3:TrackPointExtension>
        </extensions>
      </trkpt>
      <trkpt lat="24.4960136152803897857666015625" lon="118.14380639232695102691650390625">
        <ele>30.799999237060546875</ele>
        <time>2018-08-02T13:16:15.000Z</time>
        <extensions>
          <ns3:TrackPointExtension>
            <ns3:cad>84</ns3:cad>
          </ns3:TrackPointExtension>
        </extensions>
      </trkpt>
      <trkpt lat="24.49598117731511592864990234375" lon="118.14385215751826763153076171875">
        <ele>30</ele>
        <time>2018-08-02T13:16:20.000Z</time>
        <extensions>
          <ns3:TrackPointExtension>
            <ns3:cad>60</ns3:cad>
          </ns3:TrackPointExtension>
        </extensions>
      </trkpt>
      <trkpt lat="24.49596206657588481903076171875" lon="118.143913261592388153076171875">
        <ele>29.200000762939453125</ele>
        <time>2018-08-02T13:16:25.000Z</time>
        <extensions>
          <ns3:TrackPointExtension>
            <ns3:cad>72</ns3:cad>
          </ns3:TrackPointExtension>
        </extensions>
      </trkpt>
      <trkpt lat="24.4959391839802265167236328125" lon="118.14402767457067966461181640625">
        <ele>28</ele>
        <time>2018-08-02T13:16:30.000Z</time>
        <extensions>
          <ns3:TrackPointExtension>
            <ns3:cad>84</ns3:cad>
          </ns3:TrackPointExtension>
        </extensions>
      </trkpt>
      <trkpt lat="24.49592585675418376922607421875" lon="118.144096322357654571533203125">
        <ele>26.799999237060546875</ele>
        <time>2018-08-02T13:16:35.000Z</time>
        <extensions>
          <ns3:TrackPointExtension>
            <ns3:cad>78</ns3:cad>
          </ns3:TrackPointExtension>
        </extensions>
      </trkpt>
      <trkpt lat="24.49592585675418376922607421875" lon="118.144096322357654571533203125">
        <ele>26.799999237060546875</ele>
        <time>2018-08-02T13:16:40.000Z</time>
        <extensions>
          <ns3:TrackPointExtension/>
        </extensions>
      </trkpt>
    </trkseg>
  </trk>
</gpx>
