<gpx xmlns:ns3="http://www.garmin.com/xmlschemas/TrackPointExtension/v1" xmlns="http://www.topografix.com/GPX/1/1" xmlns:xsi="http://www.w3.org/2001/XMLSchema-instance" xmlns:ns2="http://www.garmin.com/xmlschemas/GpxExtensions/v3" creator="Garmin Connect" version="1.1" xsi:schemaLocation="http://www.topografix.com/GPX/1/1 http://www.topografix.com/GPX/11.xsd">
  <extensions>
<distance>9621.0</distance>
<average_hr>0.0</average_hr>
<average_speed>3.687999963760376</average_speed>
<start_time>2016-11-08T09:56:20+00:00</start_time>
<end_time>2016-11-08T10:39:49+00:00</end_time>
<moving_time>445.0</moving_time>
<elapsed_time>2609.0</elapsed_time>
</extensions>
<metadata>
    <link href="connect.garmin.com">
      <text>Garmin Connect</text>
    </link>
    <time>2016-11-08T09:56:20.000Z</time>
  </metadata>
  <trk>
    <name>厦门市 街道路跑</name>
    <type>street_running</type>
    <trkseg>
      <trkpt lat="24.4936256110668182373046875" lon="118.1062850542366504669189453125">
        <ele>0</ele>
        <time>2016-11-08T09:56:20.000Z</time>
        <extensions>
          <ns3:TrackPointExtension/>
        </extensions>
      </trkpt>
      <trkpt lat="24.4936256110668182373046875" lon="118.1062850542366504669189453125">
        <ele>0</ele>
        <time>2016-11-08T09:56:25.000Z</time>
        <extensions>
          <ns3:TrackPointExtension/>
        </extensions>
      </trkpt>
      <trkpt lat="24.49371521361172199249267578125" lon="118.106361329555511474609375">
        <ele>0</ele>
        <time>2016-11-08T09:56:30.000Z</time>
        <extensions>
          <ns3:TrackPointExtension/>
        </extensions>
      </trkpt>
      <trkpt lat="24.49382585473358631134033203125" lon="118.1063460744917392730712890625">
        <ele>0</ele>
        <time>2016-11-08T09:56:35.000Z</time>
        <extensions>
          <ns3:TrackPointExtension/>
        </extensions>
      </trkpt>
      <trkpt lat="24.4939327239990234375" lon="118.10633844695985317230224609375">
        <ele>0</ele>
        <time>2016-11-08T09:56:40.000Z</time>
        <extensions>
          <ns3:TrackPointExtension/>
        </extensions>
      </trkpt>
      <trkpt lat="24.49404328130185604095458984375" lon="118.1063460744917392730712890625">
        <ele>0</ele>
        <time>2016-11-08T09:56:45.000Z</time>
        <extensions>
          <ns3:TrackPointExtension/>
        </extensions>
      </trkpt>
      <trkpt lat="24.4941558502614498138427734375" lon="118.10629268176853656768798828125">
        <ele>0</ele>
        <time>2016-11-08T09:56:50.000Z</time>
        <extensions>
          <ns3:TrackPointExtension/>
        </extensions>
      </trkpt>
      <trkpt lat="24.49424930848181247711181640625" lon="118.10626217164099216461181640625">
        <ele>0</ele>
        <time>2016-11-08T09:56:55.000Z</time>
        <extensions>
          <ns3:TrackPointExtension/>
        </extensions>
      </trkpt>
      <trkpt lat="24.49424930848181247711181640625" lon="118.10626217164099216461181640625">
        <ele>0</ele>
        <time>2016-11-08T09:57:00.000Z</time>
        <extensions>
          <ns3:TrackPointExtension/>
        </extensions>
      </trkpt>
      <trkpt lat="24.49433128349483013153076171875" lon="118.10620115138590335845947265625">
        <ele>0</ele>
        <time>2016-11-08T09:57:05.000Z</time>
        <extensions>
          <ns3:TrackPointExtension/>
        </extensions>
      </trkpt>
      <trkpt lat="24.49433128349483013153076171875" lon="118.10620115138590335845947265625">
        <ele>0</ele>
        <time>2016-11-08T09:57:10.000Z</time>
        <extensions>
          <ns3:TrackPointExtension/>
        </extensions>
      </trkpt>
      <trkpt lat="24.4958476535975933074951171875" lon="118.1070327199995517730712890625">
        <ele>0</ele>
        <time>2016-11-08T09:57:15.000Z</time>
        <extensions>
          <ns3:TrackPointExtension/>
        </extensions>
      </trkpt>
      <trkpt lat="24.4958476535975933074951171875" lon="118.1070327199995517730712890625">
        <ele>0</ele>
        <time>2016-11-08T09:57:20.000Z</time>
        <extensions>
          <ns3:TrackPointExtension/>
        </extensions>
      </trkpt>
      <trkpt lat="24.4974975474178791046142578125" lon="118.10697932727634906768798828125">
        <ele>0</ele>
        <time>2016-11-08T09:57:25.000Z</time>
        <extensions>
          <ns3:TrackPointExtension/>
        </extensions>
      </trkpt>
      <trkpt lat="24.49751087464392185211181640625" lon="118.10711662285029888153076171875">
        <ele>0</ele>
        <time>2016-11-08T09:57:30.000Z</time>
        <extensions>
          <ns3:TrackPointExtension/>
        </extensions>
      </trkpt>
      <trkpt lat="24.49751087464392185211181640625" lon="118.10711662285029888153076171875">
        <ele>0</ele>
        <time>2016-11-08T09:57:35.000Z</time>
        <extensions>
          <ns3:TrackPointExtension/>
        </extensions>
      </trkpt>
      <trkpt lat="24.4976692087948322296142578125" lon="118.10758969746530055999755859375">
        <ele>0</ele>
        <time>2016-11-08T09:57:40.000Z</time>
        <extensions>
          <ns3:TrackPointExtension/>
        </extensions>
      </trkpt>
      <trkpt lat="24.49773400090634822845458984375" lon="118.10771173797547817230224609375">
        <ele>0</ele>
        <time>2016-11-08T09:57:45.000Z</time>
        <extensions>
          <ns3:TrackPointExtension/>
        </extensions>
      </trkpt>
      <trkpt lat="24.49776451103389263153076171875" lon="118.10780326835811138153076171875">
        <ele>0</ele>
        <time>2016-11-08T09:57:50.000Z</time>
        <extensions>
          <ns3:TrackPointExtension/>
        </extensions>
      </trkpt>
      <trkpt lat="24.49784271419048309326171875" lon="118.10789488255977630615234375">
        <ele>0</ele>
        <time>2016-11-08T09:57:55.000Z</time>
        <extensions>
          <ns3:TrackPointExtension/>
        </extensions>
      </trkpt>
      <trkpt lat="24.49792477302253246307373046875" lon="118.1078338623046875">
        <ele>0</ele>
        <time>2016-11-08T09:58:00.000Z</time>
        <extensions>
          <ns3:TrackPointExtension/>
        </extensions>
      </trkpt>
      <trkpt lat="24.4980029761791229248046875" lon="118.107765130698680877685546875">
        <ele>0</ele>
        <time>2016-11-08T09:58:05.000Z</time>
        <extensions>
          <ns3:TrackPointExtension/>
        </extensions>
      </trkpt>
      <trkpt lat="24.49810598976910114288330078125" lon="118.1077498756349086761474609375">
        <ele>0</ele>
        <time>2016-11-08T09:58:10.000Z</time>
        <extensions>
          <ns3:TrackPointExtension/>
        </extensions>
      </trkpt>
      <trkpt lat="24.49821277521550655364990234375" lon="118.10771173797547817230224609375">
        <ele>0</ele>
        <time>2016-11-08T09:58:15.000Z</time>
        <extensions>
          <ns3:TrackPointExtension/>
        </extensions>
      </trkpt>
      <trkpt lat="24.498327188193798065185546875" lon="118.107643090188503265380859375">
        <ele>0</ele>
        <time>2016-11-08T09:58:20.000Z</time>
        <extensions>
          <ns3:TrackPointExtension/>
        </extensions>
      </trkpt>
      <trkpt lat="24.49850463308393955230712890625" lon="118.10760495252907276153564453125">
        <ele>0</ele>
        <time>2016-11-08T09:58:25.000Z</time>
        <extensions>
          <ns3:TrackPointExtension/>
        </extensions>
      </trkpt>
      <trkpt lat="24.49850463308393955230712890625" lon="118.10760495252907276153564453125">
        <ele>0</ele>
        <time>2016-11-08T09:58:30.000Z</time>
        <extensions>
          <ns3:TrackPointExtension/>
        </extensions>
      </trkpt>
      <trkpt lat="24.49893378652632236480712890625" lon="118.107391297817230224609375">
        <ele>0</ele>
        <time>2016-11-08T09:58:35.000Z</time>
        <extensions>
          <ns3:TrackPointExtension/>
        </extensions>
      </trkpt>
      <trkpt lat="24.4990424998104572296142578125" lon="118.1073760427534580230712890625">
        <ele>0</ele>
        <time>2016-11-08T09:58:40.000Z</time>
        <extensions>
          <ns3:TrackPointExtension/>
        </extensions>
      </trkpt>
      <trkpt lat="24.49919127859175205230712890625" lon="118.1073150224983692169189453125">
        <ele>0</ele>
        <time>2016-11-08T09:58:45.000Z</time>
        <extensions>
          <ns3:TrackPointExtension/>
        </extensions>
      </trkpt>
      <trkpt lat="24.49919127859175205230712890625" lon="118.1073150224983692169189453125">
        <ele>0</ele>
        <time>2016-11-08T09:58:50.000Z</time>
        <extensions>
          <ns3:TrackPointExtension/>
        </extensions>
      </trkpt>
      <trkpt lat="24.499326646327972412109375" lon="118.10727688483893871307373046875">
        <ele>0</ele>
        <time>2016-11-08T09:58:55.000Z</time>
        <extensions>
          <ns3:TrackPointExtension/>
        </extensions>
      </trkpt>
      <trkpt lat="24.4994277320802211761474609375" lon="118.10726162977516651153564453125">
        <ele>0</ele>
        <time>2016-11-08T09:59:00.000Z</time>
        <extensions>
          <ns3:TrackPointExtension/>
        </extensions>
      </trkpt>
      <trkpt lat="24.4994277320802211761474609375" lon="118.10726162977516651153564453125">
        <ele>0</ele>
        <time>2016-11-08T09:59:05.000Z</time>
        <extensions>
          <ns3:TrackPointExtension/>
        </extensions>
      </trkpt>
      <trkpt lat="24.49953644536435604095458984375" lon="118.1072540022432804107666015625">
        <ele>0</ele>
        <time>2016-11-08T09:59:10.000Z</time>
        <extensions>
          <ns3:TrackPointExtension/>
        </extensions>
      </trkpt>
      <trkpt lat="24.4996490143239498138427734375" lon="118.10718535445630550384521484375">
        <ele>0</ele>
        <time>2016-11-08T09:59:15.000Z</time>
        <extensions>
          <ns3:TrackPointExtension/>
        </extensions>
      </trkpt>
      <trkpt lat="24.49973098933696746826171875" lon="118.10710136778652667999267578125">
        <ele>0</ele>
        <time>2016-11-08T09:59:20.000Z</time>
        <extensions>
          <ns3:TrackPointExtension/>
        </extensions>
      </trkpt>
      <trkpt lat="24.4998054206371307373046875" lon="118.10704034753143787384033203125">
        <ele>0</ele>
        <time>2016-11-08T09:59:25.000Z</time>
        <extensions>
          <ns3:TrackPointExtension/>
        </extensions>
      </trkpt>
      <trkpt lat="24.49991413392126560211181640625" lon="118.10699458234012126922607421875">
        <ele>0</ele>
        <time>2016-11-08T09:59:30.000Z</time>
        <extensions>
          <ns3:TrackPointExtension/>
        </extensions>
      </trkpt>
      <trkpt lat="24.5000171475112438201904296875" lon="118.10693356208503246307373046875">
        <ele>0</ele>
        <time>2016-11-08T09:59:35.000Z</time>
        <extensions>
          <ns3:TrackPointExtension/>
        </extensions>
      </trkpt>
      <trkpt lat="24.50012200511991977691650390625" lon="118.1069411896169185638427734375">
        <ele>0</ele>
        <time>2016-11-08T09:59:40.000Z</time>
        <extensions>
          <ns3:TrackPointExtension/>
        </extensions>
      </trkpt>
      <trkpt lat="24.500204063951969146728515625" lon="118.10699458234012126922607421875">
        <ele>0</ele>
        <time>2016-11-08T09:59:45.000Z</time>
        <extensions>
          <ns3:TrackPointExtension/>
        </extensions>
      </trkpt>
      <trkpt lat="24.50024597346782684326171875" lon="118.1070937402546405792236328125">
        <ele>0</ele>
        <time>2016-11-08T09:59:50.000Z</time>
        <extensions>
          <ns3:TrackPointExtension/>
        </extensions>
      </trkpt>
      <trkpt lat="24.50033943168818950653076171875" lon="118.10708611272275447845458984375">
        <ele>0</ele>
        <time>2016-11-08T09:59:55.000Z</time>
        <extensions>
          <ns3:TrackPointExtension/>
        </extensions>
      </trkpt>
      <trkpt lat="24.5004520006477832794189453125" lon="118.10711662285029888153076171875">
        <ele>0</ele>
        <time>2016-11-08T10:00:00.000Z</time>
        <extensions>
          <ns3:TrackPointExtension/>
        </extensions>
      </trkpt>
      <trkpt lat="24.5004520006477832794189453125" lon="118.10711662285029888153076171875">
        <ele>0</ele>
        <time>2016-11-08T10:00:05.000Z</time>
        <extensions>
          <ns3:TrackPointExtension/>
        </extensions>
      </trkpt>
      <trkpt lat="24.50098031200468540191650390625" lon="118.10796353034675121307373046875">
        <ele>0</ele>
        <time>2016-11-08T10:00:10.000Z</time>
        <extensions>
          <ns3:TrackPointExtension/>
        </extensions>
      </trkpt>
      <trkpt lat="24.50104518793523311614990234375" lon="118.10807031579315662384033203125">
        <ele>0</ele>
        <time>2016-11-08T10:00:15.000Z</time>
        <extensions>
          <ns3:TrackPointExtension/>
        </extensions>
      </trkpt>
      <trkpt lat="24.50104518793523311614990234375" lon="118.10807031579315662384033203125">
        <ele>0</ele>
        <time>2016-11-08T10:00:20.000Z</time>
        <extensions>
          <ns3:TrackPointExtension/>
        </extensions>
      </trkpt>
      <trkpt lat="24.50102993287146091461181640625" lon="118.1085967831313610076904296875">
        <ele>0</ele>
        <time>2016-11-08T10:00:25.000Z</time>
        <extensions>
          <ns3:TrackPointExtension/>
        </extensions>
      </trkpt>
      <trkpt lat="24.5010890252888202667236328125" lon="118.10868068598210811614990234375">
        <ele>0</ele>
        <time>2016-11-08T10:00:30.000Z</time>
        <extensions>
          <ns3:TrackPointExtension/>
        </extensions>
      </trkpt>
      <trkpt lat="24.5010890252888202667236328125" lon="118.10868068598210811614990234375">
        <ele>0</ele>
        <time>2016-11-08T10:00:35.000Z</time>
        <extensions>
          <ns3:TrackPointExtension/>
        </extensions>
      </trkpt>
      <trkpt lat="24.50135230086743831634521484375" lon="118.10960386879742145538330078125">
        <ele>0</ele>
        <time>2016-11-08T10:00:40.000Z</time>
        <extensions>
          <ns3:TrackPointExtension/>
        </extensions>
      </trkpt>
      <trkpt lat="24.50135230086743831634521484375" lon="118.10960386879742145538330078125">
        <ele>0</ele>
        <time>2016-11-08T10:00:45.000Z</time>
        <extensions>
          <ns3:TrackPointExtension/>
        </extensions>
      </trkpt>
      <trkpt lat="24.5017699711024761199951171875" lon="118.10917655937373638153076171875">
        <ele>0</ele>
        <time>2016-11-08T10:00:50.000Z</time>
        <extensions>
          <ns3:TrackPointExtension/>
        </extensions>
      </trkpt>
      <trkpt lat="24.5017699711024761199951171875" lon="118.10917655937373638153076171875">
        <ele>0</ele>
        <time>2016-11-08T10:00:55.000Z</time>
        <extensions>
          <ns3:TrackPointExtension/>
        </extensions>
      </trkpt>
      <trkpt lat="24.50300973840057849884033203125" lon="118.09297936968505382537841796875">
        <ele>0</ele>
        <time>2016-11-08T10:01:00.000Z</time>
        <extensions>
          <ns3:TrackPointExtension/>
        </extensions>
      </trkpt>
      <trkpt lat="24.502986855804920196533203125" lon="118.09310912154614925384521484375">
        <ele>0</ele>
        <time>2016-11-08T10:01:05.000Z</time>
        <extensions>
          <ns3:TrackPointExtension/>
        </extensions>
      </trkpt>
      <trkpt lat="24.502937234938144683837890625" lon="118.093223534524440765380859375">
        <ele>0</ele>
        <time>2016-11-08T10:01:10.000Z</time>
        <extensions>
          <ns3:TrackPointExtension/>
        </extensions>
      </trkpt>
      <trkpt lat="24.502937234938144683837890625" lon="118.093223534524440765380859375">
        <ele>0</ele>
        <time>2016-11-08T10:01:15.000Z</time>
        <extensions>
          <ns3:TrackPointExtension/>
        </extensions>
      </trkpt>
      <trkpt lat="24.50252912007272243499755859375" lon="118.0928497016429901123046875">
        <ele>0</ele>
        <time>2016-11-08T10:01:20.000Z</time>
        <extensions>
          <ns3:TrackPointExtension/>
        </extensions>
      </trkpt>
      <trkpt lat="24.50243943370878696441650390625" lon="118.09268181212246417999267578125">
        <ele>0</ele>
        <time>2016-11-08T10:01:25.000Z</time>
        <extensions>
          <ns3:TrackPointExtension/>
        </extensions>
      </trkpt>
      <trkpt lat="24.5024261064827442169189453125" lon="118.09257502667605876922607421875">
        <ele>0</ele>
        <time>2016-11-08T10:01:30.000Z</time>
        <extensions>
          <ns3:TrackPointExtension/>
        </extensions>
      </trkpt>
      <trkpt lat="24.50241847895085811614990234375" lon="118.092475868761539459228515625">
        <ele>0</ele>
        <time>2016-11-08T10:01:35.000Z</time>
        <extensions>
          <ns3:TrackPointExtension/>
        </extensions>
      </trkpt>
      <trkpt lat="24.50241847895085811614990234375" lon="118.092475868761539459228515625">
        <ele>0</ele>
        <time>2016-11-08T10:01:40.000Z</time>
        <extensions>
          <ns3:TrackPointExtension/>
        </extensions>
      </trkpt>
      <trkpt lat="24.502017907798290252685546875" lon="118.09290309436619281768798828125">
        <ele>0</ele>
        <time>2016-11-08T10:01:45.000Z</time>
        <extensions>
          <ns3:TrackPointExtension/>
        </extensions>
      </trkpt>
      <trkpt lat="24.5020026527345180511474609375" lon="118.09303276240825653076171875">
        <ele>0</ele>
        <time>2016-11-08T10:01:50.000Z</time>
        <extensions>
          <ns3:TrackPointExtension/>
        </extensions>
      </trkpt>
      <trkpt lat="24.5020274631679058074951171875" lon="118.09312437660992145538330078125">
        <ele>0</ele>
        <time>2016-11-08T10:01:55.000Z</time>
        <extensions>
          <ns3:TrackPointExtension/>
        </extensions>
      </trkpt>
      <trkpt lat="24.50195311568677425384521484375" lon="118.0932387895882129669189453125">
        <ele>0</ele>
        <time>2016-11-08T10:02:00.000Z</time>
        <extensions>
          <ns3:TrackPointExtension/>
        </extensions>
      </trkpt>
      <trkpt lat="24.50196258723735809326171875" lon="118.09335320256650447845458984375">
        <ele>0</ele>
        <time>2016-11-08T10:02:05.000Z</time>
        <extensions>
          <ns3:TrackPointExtension/>
        </extensions>
      </trkpt>
      <trkpt lat="24.50195311568677425384521484375" lon="118.09345244430005550384521484375">
        <ele>0</ele>
        <time>2016-11-08T10:02:10.000Z</time>
        <extensions>
          <ns3:TrackPointExtension/>
        </extensions>
      </trkpt>
      <trkpt lat="24.5020008087158203125" lon="118.09354397468268871307373046875">
        <ele>0</ele>
        <time>2016-11-08T10:02:15.000Z</time>
        <extensions>
          <ns3:TrackPointExtension/>
        </extensions>
      </trkpt>
      <trkpt lat="24.5020884834229946136474609375" lon="118.09363550506532192230224609375">
        <ele>0</ele>
        <time>2016-11-08T10:02:20.000Z</time>
        <extensions>
          <ns3:TrackPointExtension/>
        </extensions>
      </trkpt>
      <trkpt lat="24.50213424861431121826171875" lon="118.09371940791606903076171875">
        <ele>0</ele>
        <time>2016-11-08T10:02:25.000Z</time>
        <extensions>
          <ns3:TrackPointExtension/>
        </extensions>
      </trkpt>
      <trkpt lat="24.50213424861431121826171875" lon="118.09371940791606903076171875">
        <ele>0</ele>
        <time>2016-11-08T10:02:30.000Z</time>
        <extensions>
          <ns3:TrackPointExtension/>
        </extensions>
      </trkpt>
      <trkpt lat="24.50236315838992595672607421875" lon="118.09420011006295680999755859375">
        <ele>0</ele>
        <time>2016-11-08T10:02:35.000Z</time>
        <extensions>
          <ns3:TrackPointExtension/>
        </extensions>
      </trkpt>
      <trkpt lat="24.50232694856822490692138671875" lon="118.09429164044559001922607421875">
        <ele>0</ele>
        <time>2016-11-08T10:02:40.000Z</time>
        <extensions>
          <ns3:TrackPointExtension/>
        </extensions>
      </trkpt>
      <trkpt lat="24.50241277925670146942138671875" lon="118.094345033168792724609375">
        <ele>0</ele>
        <time>2016-11-08T10:02:45.000Z</time>
        <extensions>
          <ns3:TrackPointExtension/>
        </extensions>
      </trkpt>
      <trkpt lat="24.502429962158203125" lon="118.09444427490234375">
        <ele>0</ele>
        <time>2016-11-08T10:02:50.000Z</time>
        <extensions>
          <ns3:TrackPointExtension/>
        </extensions>
      </trkpt>
      <trkpt lat="24.50255007483065128326416015625" lon="118.094535805284976959228515625">
        <ele>0</ele>
        <time>2016-11-08T10:02:55.000Z</time>
        <extensions>
          <ns3:TrackPointExtension/>
        </extensions>
      </trkpt>
      <trkpt lat="24.50262450613081455230712890625" lon="118.09462733566761016845703125">
        <ele>0</ele>
        <time>2016-11-08T10:03:00.000Z</time>
        <extensions>
          <ns3:TrackPointExtension/>
        </extensions>
      </trkpt>
      <trkpt lat="24.50262450613081455230712890625" lon="118.09462733566761016845703125">
        <ele>0</ele>
        <time>2016-11-08T10:03:05.000Z</time>
        <extensions>
          <ns3:TrackPointExtension/>
        </extensions>
      </trkpt>
      <trkpt lat="24.50275610201060771942138671875" lon="118.0951766856014728546142578125">
        <ele>0</ele>
        <time>2016-11-08T10:03:10.000Z</time>
        <extensions>
          <ns3:TrackPointExtension/>
        </extensions>
      </trkpt>
      <trkpt lat="24.5027198083698749542236328125" lon="118.09527584351599216461181640625">
        <ele>0</ele>
        <time>2016-11-08T10:03:15.000Z</time>
        <extensions>
          <ns3:TrackPointExtension/>
        </extensions>
      </trkpt>
      <trkpt lat="24.50264546088874340057373046875" lon="118.09536737389862537384033203125">
        <ele>0</ele>
        <time>2016-11-08T10:03:20.000Z</time>
        <extensions>
          <ns3:TrackPointExtension/>
        </extensions>
      </trkpt>
      <trkpt lat="24.502607323229312896728515625" lon="118.09545890428125858306884765625">
        <ele>0</ele>
        <time>2016-11-08T10:03:25.000Z</time>
        <extensions>
          <ns3:TrackPointExtension/>
        </extensions>
      </trkpt>
      <trkpt lat="24.50252342037856578826904296875" lon="118.095504753291606903076171875">
        <ele>0</ele>
        <time>2016-11-08T10:03:30.000Z</time>
        <extensions>
          <ns3:TrackPointExtension/>
        </extensions>
      </trkpt>
      <trkpt lat="24.5024871267378330230712890625" lon="118.0956420488655567169189453125">
        <ele>0</ele>
        <time>2016-11-08T10:03:35.000Z</time>
        <extensions>
          <ns3:TrackPointExtension/>
        </extensions>
      </trkpt>
      <trkpt lat="24.50248905457556247711181640625" lon="118.095809854567050933837890625">
        <ele>0</ele>
        <time>2016-11-08T10:03:40.000Z</time>
        <extensions>
          <ns3:TrackPointExtension/>
        </extensions>
      </trkpt>
      <trkpt lat="24.50248905457556247711181640625" lon="118.095809854567050933837890625">
        <ele>0</ele>
        <time>2016-11-08T10:03:45.000Z</time>
        <extensions>
          <ns3:TrackPointExtension/>
        </extensions>
      </trkpt>
      <trkpt lat="24.50149722397327423095703125" lon="118.0986709333956241607666015625">
        <ele>0</ele>
        <time>2016-11-08T10:03:50.000Z</time>
        <extensions>
          <ns3:TrackPointExtension/>
        </extensions>
      </trkpt>
      <trkpt lat="24.5015181787312030792236328125" lon="118.09884636662900447845458984375">
        <ele>0</ele>
        <time>2016-11-08T10:03:55.000Z</time>
        <extensions>
          <ns3:TrackPointExtension/>
        </extensions>
      </trkpt>
      <trkpt lat="24.5015181787312030792236328125" lon="118.09884636662900447845458984375">
        <ele>0</ele>
        <time>2016-11-08T10:04:00.000Z</time>
        <extensions>
          <ns3:TrackPointExtension/>
        </extensions>
      </trkpt>
      <trkpt lat="24.50112531892955303192138671875" lon="118.09914392419159412384033203125">
        <ele>0</ele>
        <time>2016-11-08T10:04:05.000Z</time>
        <extensions>
          <ns3:TrackPointExtension/>
        </extensions>
      </trkpt>
      <trkpt lat="24.50121299363672733306884765625" lon="118.0992278270423412322998046875">
        <ele>0</ele>
        <time>2016-11-08T10:04:10.000Z</time>
        <extensions>
          <ns3:TrackPointExtension/>
        </extensions>
      </trkpt>
      <trkpt lat="24.50121299363672733306884765625" lon="118.0992278270423412322998046875">
        <ele>0</ele>
        <time>2016-11-08T10:04:15.000Z</time>
        <extensions>
          <ns3:TrackPointExtension/>
        </extensions>
      </trkpt>
      <trkpt lat="24.501344673335552215576171875" lon="118.099746666848659515380859375">
        <ele>0</ele>
        <time>2016-11-08T10:04:20.000Z</time>
        <extensions>
          <ns3:TrackPointExtension/>
        </extensions>
      </trkpt>
      <trkpt lat="24.501344673335552215576171875" lon="118.099746666848659515380859375">
        <ele>0</ele>
        <time>2016-11-08T10:04:25.000Z</time>
        <extensions>
          <ns3:TrackPointExtension/>
        </extensions>
      </trkpt>
      <trkpt lat="24.5020522736012935638427734375" lon="118.10156243853271007537841796875">
        <ele>0</ele>
        <time>2016-11-08T10:04:30.000Z</time>
        <extensions>
          <ns3:TrackPointExtension/>
        </extensions>
      </trkpt>
      <trkpt lat="24.50209803879261016845703125" lon="118.1016998179256916046142578125">
        <ele>0</ele>
        <time>2016-11-08T10:04:35.000Z</time>
        <extensions>
          <ns3:TrackPointExtension/>
        </extensions>
      </trkpt>
      <trkpt lat="24.50209803879261016845703125" lon="118.1016998179256916046142578125">
        <ele>0</ele>
        <time>2016-11-08T10:04:40.000Z</time>
        <extensions>
          <ns3:TrackPointExtension/>
        </extensions>
      </trkpt>
      <trkpt lat="24.50304217636585235595703125" lon="118.104675225913524627685546875">
        <ele>0</ele>
        <time>2016-11-08T10:04:45.000Z</time>
        <extensions>
          <ns3:TrackPointExtension/>
        </extensions>
      </trkpt>
      <trkpt lat="24.5029964111745357513427734375" lon="118.104774467647075653076171875">
        <ele>0</ele>
        <time>2016-11-08T10:04:50.000Z</time>
        <extensions>
          <ns3:TrackPointExtension/>
        </extensions>
      </trkpt>
      <trkpt lat="24.50293916277587413787841796875" lon="118.1048659980297088623046875">
        <ele>0</ele>
        <time>2016-11-08T10:04:55.000Z</time>
        <extensions>
          <ns3:TrackPointExtension/>
        </extensions>
      </trkpt>
      <trkpt lat="24.50293916277587413787841796875" lon="118.1048659980297088623046875">
        <ele>0</ele>
        <time>2016-11-08T10:05:00.000Z</time>
        <extensions>
          <ns3:TrackPointExtension/>
        </extensions>
      </trkpt>
      <trkpt lat="24.5028953254222869873046875" lon="118.1049727834761142730712890625">
        <ele>0</ele>
        <time>2016-11-08T10:05:05.000Z</time>
        <extensions>
          <ns3:TrackPointExtension/>
        </extensions>
      </trkpt>
      <trkpt lat="24.50284763239324092864990234375" lon="118.10505668632686138153076171875">
        <ele>0</ele>
        <time>2016-11-08T10:05:10.000Z</time>
        <extensions>
          <ns3:TrackPointExtension/>
        </extensions>
      </trkpt>
      <trkpt lat="24.5027942396700382232666015625" lon="118.1051635555922985076904296875">
        <ele>0</ele>
        <time>2016-11-08T10:05:15.000Z</time>
        <extensions>
          <ns3:TrackPointExtension/>
        </extensions>
      </trkpt>
      <trkpt lat="24.502765573561191558837890625" lon="118.10527034103870391845703125">
        <ele>0</ele>
        <time>2016-11-08T10:05:20.000Z</time>
        <extensions>
          <ns3:TrackPointExtension/>
        </extensions>
      </trkpt>
      <trkpt lat="24.50272559188306331634521484375" lon="118.10538475401699542999267578125">
        <ele>0</ele>
        <time>2016-11-08T10:05:25.000Z</time>
        <extensions>
          <ns3:TrackPointExtension/>
        </extensions>
      </trkpt>
      <trkpt lat="24.5026778988540172576904296875" lon="118.1054763682186603546142578125">
        <ele>0</ele>
        <time>2016-11-08T10:05:30.000Z</time>
        <extensions>
          <ns3:TrackPointExtension/>
        </extensions>
      </trkpt>
      <trkpt lat="24.50266071595251560211181640625" lon="118.105583153665065765380859375">
        <ele>0</ele>
        <time>2016-11-08T10:05:35.000Z</time>
        <extensions>
          <ns3:TrackPointExtension/>
        </extensions>
      </trkpt>
      <trkpt lat="24.50266071595251560211181640625" lon="118.105583153665065765380859375">
        <ele>0</ele>
        <time>2016-11-08T10:05:40.000Z</time>
        <extensions>
          <ns3:TrackPointExtension/>
        </extensions>
      </trkpt>
      <trkpt lat="24.502588212490081787109375" lon="118.105644173920154571533203125">
        <ele>0</ele>
        <time>2016-11-08T10:05:45.000Z</time>
        <extensions>
          <ns3:TrackPointExtension/>
        </extensions>
      </trkpt>
    </trkseg>
  </trk>
</gpx>
