<gpx xmlns:ns3="http://www.garmin.com/xmlschemas/TrackPointExtension/v1" xmlns="http://www.topografix.com/GPX/1/1" xmlns:xsi="http://www.w3.org/2001/XMLSchema-instance" xmlns:ns2="http://www.garmin.com/xmlschemas/GpxExtensions/v3" creator="Garmin Connect" version="1.1" xsi:schemaLocation="http://www.topografix.com/GPX/1/1 http://www.topografix.com/GPX/11.xsd">
  <extensions>
<distance>567.84</distance>
<average_hr>140.0</average_hr>
<average_speed>2.4110000133514404</average_speed>
<start_time>2026-02-09T15:32:43+00:00</start_time>
<end_time>2026-02-09T15:36:38.519000+00:00</end_time>
<moving_time>231.0</moving_time>
<elapsed_time>246.459</elapsed_time>
</extensions>
<metadata>
    <link href="connect.garmin.com">
      <text>Garmin Connect</text>
    </link>
    <time>2026-02-09T15:32:43.000Z</time>
  </metadata>
  <trk>
    <name>厦门市 跑步</name>
    <type>running</type>
    <trkseg>
      <trkpt lat="24.48722208850085735321044921875" lon="118.18510168232023715972900390625">
        <ele>34.40000152587890625</ele>
        <time>2026-02-09T15:32:43.000Z</time>
        <extensions>
          <ns3:TrackPointExtension>
            <ns3:hr>99</ns3:hr>
            <ns3:cad>0</ns3:cad>
          </ns3:TrackPointExtension>
        </extensions>
      </trkpt>
      <trkpt lat="24.48722862638533115386962890625" lon="118.1851430051028728485107421875">
        <ele>34.40000152587890625</ele>
        <time>2026-02-09T15:32:44.000Z</time>
        <extensions>
          <ns3:TrackPointExtension>
            <ns3:hr>99</ns3:hr>
            <ns3:cad>0</ns3:cad>
          </ns3:TrackPointExtension>
        </extensions>
      </trkpt>
      <trkpt lat="24.48721571825444698333740234375" lon="118.18515046499669551849365234375">
        <ele>34.40000152587890625</ele>
        <time>2026-02-09T15:32:45.000Z</time>
        <extensions>
          <ns3:TrackPointExtension>
            <ns3:hr>99</ns3:hr>
            <ns3:cad>0</ns3:cad>
          </ns3:TrackPointExtension>
        </extensions>
      </trkpt>
      <trkpt lat="24.487192668020725250244140625" lon="118.185144178569316864013671875">
        <ele>34.40000152587890625</ele>
        <time>2026-02-09T15:32:46.000Z</time>
        <extensions>
          <ns3:TrackPointExtension>
            <ns3:hr>99</ns3:hr>
            <ns3:cad>0</ns3:cad>
          </ns3:TrackPointExtension>
        </extensions>
      </trkpt>
      <trkpt lat="24.48717213235795497894287109375" lon="118.18514459766447544097900390625">
        <ele>34.200000762939453125</ele>
        <time>2026-02-09T15:32:47.000Z</time>
        <extensions>
          <ns3:TrackPointExtension>
            <ns3:hr>99</ns3:hr>
            <ns3:cad>0</ns3:cad>
          </ns3:TrackPointExtension>
        </extensions>
      </trkpt>
      <trkpt lat="24.48714204132556915283203125" lon="118.18514250218868255615234375">
        <ele>34.200000762939453125</ele>
        <time>2026-02-09T15:32:48.000Z</time>
        <extensions>
          <ns3:TrackPointExtension>
            <ns3:hr>100</ns3:hr>
            <ns3:cad>79</ns3:cad>
          </ns3:TrackPointExtension>
        </extensions>
      </trkpt>
      <trkpt lat="24.4871173985302448272705078125" lon="118.1851393170654773712158203125">
        <ele>34.200000762939453125</ele>
        <time>2026-02-09T15:32:49.000Z</time>
        <extensions>
          <ns3:TrackPointExtension>
            <ns3:hr>100</ns3:hr>
            <ns3:cad>79</ns3:cad>
          </ns3:TrackPointExtension>
        </extensions>
      </trkpt>
      <trkpt lat="24.48709317483007907867431640625" lon="118.18513554520905017852783203125">
        <ele>34.40000152587890625</ele>
        <time>2026-02-09T15:32:50.000Z</time>
        <extensions>
          <ns3:TrackPointExtension>
            <ns3:hr>100</ns3:hr>
            <ns3:cad>83</ns3:cad>
          </ns3:TrackPointExtension>
        </extensions>
      </trkpt>
      <trkpt lat="24.4870667718350887298583984375" lon="118.1851305998861789703369140625">
        <ele>34.40000152587890625</ele>
        <time>2026-02-09T15:32:51.000Z</time>
        <extensions>
          <ns3:TrackPointExtension>
            <ns3:hr>100</ns3:hr>
            <ns3:cad>83</ns3:cad>
          </ns3:TrackPointExtension>
        </extensions>
      </trkpt>
      <trkpt lat="24.487046487629413604736328125" lon="118.1851346231997013092041015625">
        <ele>34.40000152587890625</ele>
        <time>2026-02-09T15:32:52.000Z</time>
        <extensions>
          <ns3:TrackPointExtension>
            <ns3:hr>101</ns3:hr>
            <ns3:cad>83</ns3:cad>
          </ns3:TrackPointExtension>
        </extensions>
      </trkpt>
      <trkpt lat="24.4870158098638057708740234375" lon="118.1851215474307537078857421875">
        <ele>34.40000152587890625</ele>
        <time>2026-02-09T15:32:53.000Z</time>
        <extensions>
          <ns3:TrackPointExtension>
            <ns3:hr>103</ns3:hr>
            <ns3:cad>83</ns3:cad>
          </ns3:TrackPointExtension>
        </extensions>
      </trkpt>
      <trkpt lat="24.4869916699826717376708984375" lon="118.18511241115629673004150390625">
        <ele>34.200000762939453125</ele>
        <time>2026-02-09T15:32:54.000Z</time>
        <extensions>
          <ns3:TrackPointExtension>
            <ns3:hr>104</ns3:hr>
            <ns3:cad>83</ns3:cad>
          </ns3:TrackPointExtension>
        </extensions>
      </trkpt>
      <trkpt lat="24.4869628362357616424560546875" lon="118.18509061820805072784423828125">
        <ele>34.200000762939453125</ele>
        <time>2026-02-09T15:32:55.000Z</time>
        <extensions>
          <ns3:TrackPointExtension>
            <ns3:hr>104</ns3:hr>
            <ns3:cad>84</ns3:cad>
          </ns3:TrackPointExtension>
        </extensions>
      </trkpt>
      <trkpt lat="24.48694816790521144866943359375" lon="118.18506547249853610992431640625">
        <ele>34.200000762939453125</ele>
        <time>2026-02-09T15:32:56.000Z</time>
        <extensions>
          <ns3:TrackPointExtension>
            <ns3:hr>105</ns3:hr>
            <ns3:cad>86</ns3:cad>
          </ns3:TrackPointExtension>
        </extensions>
      </trkpt>
      <trkpt lat="24.486929140985012054443359375" lon="118.1850390695035457611083984375">
        <ele>34.200000762939453125</ele>
        <time>2026-02-09T15:32:57.000Z</time>
        <extensions>
          <ns3:TrackPointExtension>
            <ns3:hr>106</ns3:hr>
            <ns3:cad>86</ns3:cad>
          </ns3:TrackPointExtension>
        </extensions>
      </trkpt>
      <trkpt lat="24.48691941797733306884765625" lon="118.18501031957566738128662109375">
        <ele>34</ele>
        <time>2026-02-09T15:32:58.000Z</time>
        <extensions>
          <ns3:TrackPointExtension>
            <ns3:hr>107</ns3:hr>
            <ns3:cad>86</ns3:cad>
          </ns3:TrackPointExtension>
        </extensions>
      </trkpt>
      <trkpt lat="24.48690374381840229034423828125" lon="118.18498265929520130157470703125">
        <ele>34</ele>
        <time>2026-02-09T15:32:59.000Z</time>
        <extensions>
          <ns3:TrackPointExtension>
            <ns3:hr>107</ns3:hr>
            <ns3:cad>86</ns3:cad>
          </ns3:TrackPointExtension>
        </extensions>
      </trkpt>
      <trkpt lat="24.48689787648618221282958984375" lon="118.1849398277699947357177734375">
        <ele>34</ele>
        <time>2026-02-09T15:33:00.000Z</time>
        <extensions>
          <ns3:TrackPointExtension>
            <ns3:hr>108</ns3:hr>
            <ns3:cad>86</ns3:cad>
          </ns3:TrackPointExtension>
        </extensions>
      </trkpt>
      <trkpt lat="24.48688781820237636566162109375" lon="118.1849163584411144256591796875">
        <ele>33.799999237060546875</ele>
        <time>2026-02-09T15:33:01.000Z</time>
        <extensions>
          <ns3:TrackPointExtension>
            <ns3:hr>109</ns3:hr>
            <ns3:cad>86</ns3:cad>
          </ns3:TrackPointExtension>
        </extensions>
      </trkpt>
      <trkpt lat="24.48688195087015628814697265625" lon="118.1848747842013835906982421875">
        <ele>33.799999237060546875</ele>
        <time>2026-02-09T15:33:02.000Z</time>
        <extensions>
          <ns3:TrackPointExtension>
            <ns3:hr>110</ns3:hr>
            <ns3:cad>86</ns3:cad>
          </ns3:TrackPointExtension>
        </extensions>
      </trkpt>
      <trkpt lat="24.48687541298568248748779296875" lon="118.18483564071357250213623046875">
        <ele>33.59999847412109375</ele>
        <time>2026-02-09T15:33:03.000Z</time>
        <extensions>
          <ns3:TrackPointExtension>
            <ns3:hr>110</ns3:hr>
            <ns3:cad>86</ns3:cad>
          </ns3:TrackPointExtension>
        </extensions>
      </trkpt>
      <trkpt lat="24.48687876574695110321044921875" lon="118.18480412475764751434326171875">
        <ele>33.59999847412109375</ele>
        <time>2026-02-09T15:33:04.000Z</time>
        <extensions>
          <ns3:TrackPointExtension>
            <ns3:hr>111</ns3:hr>
            <ns3:cad>85</ns3:cad>
          </ns3:TrackPointExtension>
        </extensions>
      </trkpt>
      <trkpt lat="24.48688052594661712646484375" lon="118.1847668252885341644287109375">
        <ele>33.59999847412109375</ele>
        <time>2026-02-09T15:33:05.000Z</time>
        <extensions>
          <ns3:TrackPointExtension>
            <ns3:hr>112</ns3:hr>
            <ns3:cad>85</ns3:cad>
          </ns3:TrackPointExtension>
        </extensions>
      </trkpt>
      <trkpt lat="24.486872814595699310302734375" lon="118.1847363151609897613525390625">
        <ele>33.59999847412109375</ele>
        <time>2026-02-09T15:33:06.000Z</time>
        <extensions>
          <ns3:TrackPointExtension>
            <ns3:hr>113</ns3:hr>
            <ns3:cad>84</ns3:cad>
          </ns3:TrackPointExtension>
        </extensions>
      </trkpt>
      <trkpt lat="24.48687407188117504119873046875" lon="118.18469465710222721099853515625">
        <ele>33.59999847412109375</ele>
        <time>2026-02-09T15:33:07.000Z</time>
        <extensions>
          <ns3:TrackPointExtension>
            <ns3:hr>114</ns3:hr>
            <ns3:cad>84</ns3:cad>
          </ns3:TrackPointExtension>
        </extensions>
      </trkpt>
      <trkpt lat="24.48686468414962291717529296875" lon="118.18466163240373134613037109375">
        <ele>33.40000152587890625</ele>
        <time>2026-02-09T15:33:08.000Z</time>
        <extensions>
          <ns3:TrackPointExtension>
            <ns3:hr>115</ns3:hr>
            <ns3:cad>85</ns3:cad>
          </ns3:TrackPointExtension>
        </extensions>
      </trkpt>
      <trkpt lat="24.48686568997800350189208984375" lon="118.1846280209720134735107421875">
        <ele>33.40000152587890625</ele>
        <time>2026-02-09T15:33:09.000Z</time>
        <extensions>
          <ns3:TrackPointExtension>
            <ns3:hr>117</ns3:hr>
            <ns3:cad>85</ns3:cad>
          </ns3:TrackPointExtension>
        </extensions>
      </trkpt>
      <trkpt lat="24.4868624210357666015625" lon="118.18460312671959400177001953125">
        <ele>33.40000152587890625</ele>
        <time>2026-02-09T15:33:10.000Z</time>
        <extensions>
          <ns3:TrackPointExtension>
            <ns3:hr>119</ns3:hr>
            <ns3:cad>86</ns3:cad>
          </ns3:TrackPointExtension>
        </extensions>
      </trkpt>
      <trkpt lat="24.48686577379703521728515625" lon="118.18459139205515384674072265625">
        <ele>33.40000152587890625</ele>
        <time>2026-02-09T15:33:11.000Z</time>
        <extensions>
          <ns3:TrackPointExtension>
            <ns3:hr>121</ns3:hr>
            <ns3:cad>85</ns3:cad>
          </ns3:TrackPointExtension>
        </extensions>
      </trkpt>
      <trkpt lat="24.486774913966655731201171875" lon="118.1846052221953868865966796875">
        <ele>33.40000152587890625</ele>
        <time>2026-02-09T15:33:22.000Z</time>
        <extensions>
          <ns3:TrackPointExtension>
            <ns3:hr>128</ns3:hr>
            <ns3:cad>0</ns3:cad>
          </ns3:TrackPointExtension>
        </extensions>
      </trkpt>
      <trkpt lat="24.486771561205387115478515625" lon="118.184583596885204315185546875">
        <ele>33.40000152587890625</ele>
        <time>2026-02-09T15:33:23.000Z</time>
        <extensions>
          <ns3:TrackPointExtension>
            <ns3:hr>128</ns3:hr>
            <ns3:cad>0</ns3:cad>
          </ns3:TrackPointExtension>
        </extensions>
      </trkpt>
      <trkpt lat="24.486761502921581268310546875" lon="118.1845499016344547271728515625">
        <ele>33.40000152587890625</ele>
        <time>2026-02-09T15:33:24.000Z</time>
        <extensions>
          <ns3:TrackPointExtension>
            <ns3:hr>128</ns3:hr>
            <ns3:cad>0</ns3:cad>
          </ns3:TrackPointExtension>
        </extensions>
      </trkpt>
      <trkpt lat="24.48675706051290035247802734375" lon="118.18451578728854656219482421875">
        <ele>33.40000152587890625</ele>
        <time>2026-02-09T15:33:25.000Z</time>
        <extensions>
          <ns3:TrackPointExtension>
            <ns3:hr>128</ns3:hr>
            <ns3:cad>0</ns3:cad>
          </ns3:TrackPointExtension>
        </extensions>
      </trkpt>
      <trkpt lat="24.48674901388585567474365234375" lon="118.1844820082187652587890625">
        <ele>33.40000152587890625</ele>
        <time>2026-02-09T15:33:26.000Z</time>
        <extensions>
          <ns3:TrackPointExtension>
            <ns3:hr>129</ns3:hr>
            <ns3:cad>83</ns3:cad>
          </ns3:TrackPointExtension>
        </extensions>
      </trkpt>
      <trkpt lat="24.48674700222909450531005859375" lon="118.1844444572925567626953125">
        <ele>33.200000762939453125</ele>
        <time>2026-02-09T15:33:27.000Z</time>
        <extensions>
          <ns3:TrackPointExtension>
            <ns3:hr>129</ns3:hr>
            <ns3:cad>83</ns3:cad>
          </ns3:TrackPointExtension>
        </extensions>
      </trkpt>
      <trkpt lat="24.4867445714771747589111328125" lon="118.18441855721175670623779296875">
        <ele>33.40000152587890625</ele>
        <time>2026-02-09T15:33:28.000Z</time>
        <extensions>
          <ns3:TrackPointExtension>
            <ns3:hr>129</ns3:hr>
            <ns3:cad>83</ns3:cad>
          </ns3:TrackPointExtension>
        </extensions>
      </trkpt>
      <trkpt lat="24.486742727458477020263671875" lon="118.1843832693994045257568359375">
        <ele>33.200000762939453125</ele>
        <time>2026-02-09T15:33:29.000Z</time>
        <extensions>
          <ns3:TrackPointExtension>
            <ns3:hr>129</ns3:hr>
            <ns3:cad>84</ns3:cad>
          </ns3:TrackPointExtension>
        </extensions>
      </trkpt>
      <trkpt lat="24.4867388717830181121826171875" lon="118.18435368128120899200439453125">
        <ele>33.200000762939453125</ele>
        <time>2026-02-09T15:33:30.000Z</time>
        <extensions>
          <ns3:TrackPointExtension>
            <ns3:hr>129</ns3:hr>
            <ns3:cad>85</ns3:cad>
          </ns3:TrackPointExtension>
        </extensions>
      </trkpt>
      <trkpt lat="24.4867358542978763580322265625" lon="118.18431462161242961883544921875">
        <ele>33.200000762939453125</ele>
        <time>2026-02-09T15:33:31.000Z</time>
        <extensions>
          <ns3:TrackPointExtension>
            <ns3:hr>129</ns3:hr>
            <ns3:cad>85</ns3:cad>
          </ns3:TrackPointExtension>
        </extensions>
      </trkpt>
      <trkpt lat="24.48673677630722522735595703125" lon="118.18427824415266513824462890625">
        <ele>33.200000762939453125</ele>
        <time>2026-02-09T15:33:32.000Z</time>
        <extensions>
          <ns3:TrackPointExtension>
            <ns3:hr>130</ns3:hr>
            <ns3:cad>84</ns3:cad>
          </ns3:TrackPointExtension>
        </extensions>
      </trkpt>
      <trkpt lat="24.48673392646014690399169921875" lon="118.18423918448388576507568359375">
        <ele>33.200000762939453125</ele>
        <time>2026-02-09T15:33:33.000Z</time>
        <extensions>
          <ns3:TrackPointExtension>
            <ns3:hr>130</ns3:hr>
            <ns3:cad>84</ns3:cad>
          </ns3:TrackPointExtension>
        </extensions>
      </trkpt>
      <trkpt lat="24.4867331720888614654541015625" lon="118.18420046009123325347900390625">
        <ele>33.200000762939453125</ele>
        <time>2026-02-09T15:33:34.000Z</time>
        <extensions>
          <ns3:TrackPointExtension>
            <ns3:hr>130</ns3:hr>
            <ns3:cad>84</ns3:cad>
          </ns3:TrackPointExtension>
        </extensions>
      </trkpt>
      <trkpt lat="24.4867345131933689117431640625" lon="118.18416642956435680389404296875">
        <ele>33.200000762939453125</ele>
        <time>2026-02-09T15:33:35.000Z</time>
        <extensions>
          <ns3:TrackPointExtension>
            <ns3:hr>130</ns3:hr>
            <ns3:cad>85</ns3:cad>
          </ns3:TrackPointExtension>
        </extensions>
      </trkpt>
      <trkpt lat="24.48673191480338573455810546875" lon="118.18412384949624538421630859375">
        <ele>33</ele>
        <time>2026-02-09T15:33:36.000Z</time>
        <extensions>
          <ns3:TrackPointExtension>
            <ns3:hr>131</ns3:hr>
            <ns3:cad>86</ns3:cad>
          </ns3:TrackPointExtension>
        </extensions>
      </trkpt>
      <trkpt lat="24.48672487400472164154052734375" lon="118.184089399874210357666015625">
        <ele>33</ele>
        <time>2026-02-09T15:33:37.000Z</time>
        <extensions>
          <ns3:TrackPointExtension>
            <ns3:hr>132</ns3:hr>
            <ns3:cad>87</ns3:cad>
          </ns3:TrackPointExtension>
        </extensions>
      </trkpt>
      <trkpt lat="24.48672202415764331817626953125" lon="118.1840489991009235382080078125">
        <ele>33</ele>
        <time>2026-02-09T15:33:38.000Z</time>
        <extensions>
          <ns3:TrackPointExtension>
            <ns3:hr>133</ns3:hr>
            <ns3:cad>87</ns3:cad>
          </ns3:TrackPointExtension>
        </extensions>
      </trkpt>
      <trkpt lat="24.48672319762408733367919921875" lon="118.18402242846786975860595703125">
        <ele>32.799999237060546875</ele>
        <time>2026-02-09T15:33:39.000Z</time>
        <extensions>
          <ns3:TrackPointExtension>
            <ns3:hr>134</ns3:hr>
            <ns3:cad>87</ns3:cad>
          </ns3:TrackPointExtension>
        </extensions>
      </trkpt>
      <trkpt lat="24.48672470636665821075439453125" lon="118.1839857995510101318359375">
        <ele>32.799999237060546875</ele>
        <time>2026-02-09T15:33:40.000Z</time>
        <extensions>
          <ns3:TrackPointExtension>
            <ns3:hr>134</ns3:hr>
            <ns3:cad>87</ns3:cad>
          </ns3:TrackPointExtension>
        </extensions>
      </trkpt>
      <trkpt lat="24.48673157952725887298583984375" lon="118.18396442569792270660400390625">
        <ele>32.799999237060546875</ele>
        <time>2026-02-09T15:33:41.000Z</time>
        <extensions>
          <ns3:TrackPointExtension>
            <ns3:hr>135</ns3:hr>
            <ns3:cad>88</ns3:cad>
          </ns3:TrackPointExtension>
        </extensions>
      </trkpt>
      <trkpt lat="24.486742727458477020263671875" lon="118.18392804823815822601318359375">
        <ele>32.799999237060546875</ele>
        <time>2026-02-09T15:33:42.000Z</time>
        <extensions>
          <ns3:TrackPointExtension>
            <ns3:hr>136</ns3:hr>
            <ns3:cad>88</ns3:cad>
          </ns3:TrackPointExtension>
        </extensions>
      </trkpt>
      <trkpt lat="24.48675856925547122955322265625" lon="118.18390122614800930023193359375">
        <ele>32.799999237060546875</ele>
        <time>2026-02-09T15:33:43.000Z</time>
        <extensions>
          <ns3:TrackPointExtension>
            <ns3:hr>135</ns3:hr>
            <ns3:cad>89</ns3:cad>
          </ns3:TrackPointExtension>
        </extensions>
      </trkpt>
      <trkpt lat="24.48677147738635540008544921875" lon="118.18386987783014774322509765625">
        <ele>32.59999847412109375</ele>
        <time>2026-02-09T15:33:44.000Z</time>
        <extensions>
          <ns3:TrackPointExtension>
            <ns3:hr>136</ns3:hr>
            <ns3:cad>89</ns3:cad>
          </ns3:TrackPointExtension>
        </extensions>
      </trkpt>
      <trkpt lat="24.4867817871272563934326171875" lon="118.1838478334248065948486328125">
        <ele>32.59999847412109375</ele>
        <time>2026-02-09T15:33:45.000Z</time>
        <extensions>
          <ns3:TrackPointExtension>
            <ns3:hr>137</ns3:hr>
            <ns3:cad>87</ns3:cad>
          </ns3:TrackPointExtension>
        </extensions>
      </trkpt>
      <trkpt lat="24.48679125867784023284912109375" lon="118.18382830359041690826416015625">
        <ele>32.59999847412109375</ele>
        <time>2026-02-09T15:33:46.000Z</time>
        <extensions>
          <ns3:TrackPointExtension>
            <ns3:hr>137</ns3:hr>
            <ns3:cad>87</ns3:cad>
          </ns3:TrackPointExtension>
        </extensions>
      </trkpt>
      <trkpt lat="24.48680047877132892608642578125" lon="118.18380399607121944427490234375">
        <ele>32.59999847412109375</ele>
        <time>2026-02-09T15:33:47.000Z</time>
        <extensions>
          <ns3:TrackPointExtension>
            <ns3:hr>138</ns3:hr>
            <ns3:cad>87</ns3:cad>
          </ns3:TrackPointExtension>
        </extensions>
      </trkpt>
      <trkpt lat="24.48680785484611988067626953125" lon="118.1837908364832401275634765625">
        <ele>32.59999847412109375</ele>
        <time>2026-02-09T15:33:48.000Z</time>
        <extensions>
          <ns3:TrackPointExtension>
            <ns3:hr>138</ns3:hr>
            <ns3:cad>87</ns3:cad>
          </ns3:TrackPointExtension>
        </extensions>
      </trkpt>
      <trkpt lat="24.4868173263967037200927734375" lon="118.18376510404050350189208984375">
        <ele>32.40000152587890625</ele>
        <time>2026-02-09T15:33:49.000Z</time>
        <extensions>
          <ns3:TrackPointExtension>
            <ns3:hr>137</ns3:hr>
            <ns3:cad>87</ns3:cad>
          </ns3:TrackPointExtension>
        </extensions>
      </trkpt>
      <trkpt lat="24.4868240319192409515380859375" lon="118.18375353701412677764892578125">
        <ele>32.40000152587890625</ele>
        <time>2026-02-09T15:33:50.000Z</time>
        <extensions>
          <ns3:TrackPointExtension>
            <ns3:hr>138</ns3:hr>
            <ns3:cad>87</ns3:cad>
          </ns3:TrackPointExtension>
        </extensions>
      </trkpt>
      <trkpt lat="24.48683719150722026824951171875" lon="118.18373023532330989837646484375">
        <ele>32.200000762939453125</ele>
        <time>2026-02-09T15:33:51.000Z</time>
        <extensions>
          <ns3:TrackPointExtension>
            <ns3:hr>138</ns3:hr>
            <ns3:cad>85</ns3:cad>
          </ns3:TrackPointExtension>
        </extensions>
      </trkpt>
      <trkpt lat="24.48684842325747013092041015625" lon="118.18369838409125804901123046875">
        <ele>32</ele>
        <time>2026-02-09T15:33:52.000Z</time>
        <extensions>
          <ns3:TrackPointExtension>
            <ns3:hr>138</ns3:hr>
            <ns3:cad>85</ns3:cad>
          </ns3:TrackPointExtension>
        </extensions>
      </trkpt>
      <trkpt lat="24.4868582300841808319091796875" lon="118.18366586230695247650146484375">
        <ele>32</ele>
        <time>2026-02-09T15:33:53.000Z</time>
        <extensions>
          <ns3:TrackPointExtension>
            <ns3:hr>138</ns3:hr>
            <ns3:cad>85</ns3:cad>
          </ns3:TrackPointExtension>
        </extensions>
      </trkpt>
      <trkpt lat="24.48686820454895496368408203125" lon="118.1836319155991077423095703125">
        <ele>31.799999237060546875</ele>
        <time>2026-02-09T15:33:54.000Z</time>
        <extensions>
          <ns3:TrackPointExtension>
            <ns3:hr>138</ns3:hr>
            <ns3:cad>86</ns3:cad>
          </ns3:TrackPointExtension>
        </extensions>
      </trkpt>
      <trkpt lat="24.48687574826180934906005859375" lon="118.18360517732799053192138671875">
        <ele>31.799999237060546875</ele>
        <time>2026-02-09T15:33:55.000Z</time>
        <extensions>
          <ns3:TrackPointExtension>
            <ns3:hr>138</ns3:hr>
            <ns3:cad>86</ns3:cad>
          </ns3:TrackPointExtension>
        </extensions>
      </trkpt>
      <trkpt lat="24.48688178323209285736083984375" lon="118.18356947042047977447509765625">
        <ele>31.6000003814697265625</ele>
        <time>2026-02-09T15:33:56.000Z</time>
        <extensions>
          <ns3:TrackPointExtension>
            <ns3:hr>139</ns3:hr>
            <ns3:cad>86</ns3:cad>
          </ns3:TrackPointExtension>
        </extensions>
      </trkpt>
      <trkpt lat="24.48688765056431293487548828125" lon="118.18355195224285125732421875">
        <ele>31.6000003814697265625</ele>
        <time>2026-02-09T15:33:57.000Z</time>
        <extensions>
          <ns3:TrackPointExtension>
            <ns3:hr>140</ns3:hr>
            <ns3:cad>87</ns3:cad>
          </ns3:TrackPointExtension>
        </extensions>
      </trkpt>
      <trkpt lat="24.48689871467649936676025390625" lon="118.18351750262081623077392578125">
        <ele>31.6000003814697265625</ele>
        <time>2026-02-09T15:33:58.000Z</time>
        <extensions>
          <ns3:TrackPointExtension>
            <ns3:hr>140</ns3:hr>
            <ns3:cad>87</ns3:cad>
          </ns3:TrackPointExtension>
        </extensions>
      </trkpt>
      <trkpt lat="24.48691849596798419952392578125" lon="118.18348213098943233489990234375">
        <ele>31.3999996185302734375</ele>
        <time>2026-02-09T15:33:59.000Z</time>
        <extensions>
          <ns3:TrackPointExtension>
            <ns3:hr>141</ns3:hr>
            <ns3:cad>88</ns3:cad>
          </ns3:TrackPointExtension>
        </extensions>
      </trkpt>
      <trkpt lat="24.48692922480404376983642578125" lon="118.1834582425653934478759765625">
        <ele>31.3999996185302734375</ele>
        <time>2026-02-09T15:34:00.000Z</time>
        <extensions>
          <ns3:TrackPointExtension>
            <ns3:hr>141</ns3:hr>
            <ns3:cad>87</ns3:cad>
          </ns3:TrackPointExtension>
        </extensions>
      </trkpt>
      <trkpt lat="24.4869490899145603179931640625" lon="118.18341742269694805145263671875">
        <ele>31.3999996185302734375</ele>
        <time>2026-02-09T15:34:01.000Z</time>
        <extensions>
          <ns3:TrackPointExtension>
            <ns3:hr>142</ns3:hr>
            <ns3:cad>87</ns3:cad>
          </ns3:TrackPointExtension>
        </extensions>
      </trkpt>
      <trkpt lat="24.48695923201739788055419921875" lon="118.18339361809194087982177734375">
        <ele>31.3999996185302734375</ele>
        <time>2026-02-09T15:34:02.000Z</time>
        <extensions>
          <ns3:TrackPointExtension>
            <ns3:hr>143</ns3:hr>
            <ns3:cad>86</ns3:cad>
          </ns3:TrackPointExtension>
        </extensions>
      </trkpt>
      <trkpt lat="24.4869769178330898284912109375" lon="118.1833573244512081146240234375">
        <ele>31.3999996185302734375</ele>
        <time>2026-02-09T15:34:03.000Z</time>
        <extensions>
          <ns3:TrackPointExtension>
            <ns3:hr>143</ns3:hr>
            <ns3:cad>84</ns3:cad>
          </ns3:TrackPointExtension>
        </extensions>
      </trkpt>
      <trkpt lat="24.48697976768016815185546875" lon="118.1833326816558837890625">
        <ele>31.3999996185302734375</ele>
        <time>2026-02-09T15:34:04.000Z</time>
        <extensions>
          <ns3:TrackPointExtension>
            <ns3:hr>143</ns3:hr>
            <ns3:cad>84</ns3:cad>
          </ns3:TrackPointExtension>
        </extensions>
      </trkpt>
      <trkpt lat="24.486977756023406982421875" lon="118.18330476991832256317138671875">
        <ele>31.200000762939453125</ele>
        <time>2026-02-09T15:34:05.000Z</time>
        <extensions>
          <ns3:TrackPointExtension>
            <ns3:hr>143</ns3:hr>
            <ns3:cad>86</ns3:cad>
          </ns3:TrackPointExtension>
        </extensions>
      </trkpt>
      <trkpt lat="24.486970044672489166259765625" lon="118.183282054960727691650390625">
        <ele>31.200000762939453125</ele>
        <time>2026-02-09T15:34:06.000Z</time>
        <extensions>
          <ns3:TrackPointExtension>
            <ns3:hr>143</ns3:hr>
            <ns3:cad>86</ns3:cad>
          </ns3:TrackPointExtension>
        </extensions>
      </trkpt>
      <trkpt lat="24.48696224950253963470458984375" lon="118.18325883708894252777099609375">
        <ele>31</ele>
        <time>2026-02-09T15:34:07.000Z</time>
        <extensions>
          <ns3:TrackPointExtension>
            <ns3:hr>144</ns3:hr>
            <ns3:cad>86</ns3:cad>
          </ns3:TrackPointExtension>
        </extensions>
      </trkpt>
      <trkpt lat="24.48694984428584575653076171875" lon="118.183239139616489410400390625">
        <ele>31</ele>
        <time>2026-02-09T15:34:08.000Z</time>
        <extensions>
          <ns3:TrackPointExtension>
            <ns3:hr>144</ns3:hr>
            <ns3:cad>85</ns3:cad>
          </ns3:TrackPointExtension>
        </extensions>
      </trkpt>
      <trkpt lat="24.4869376905262470245361328125" lon="118.18321994505822658538818359375">
        <ele>31</ele>
        <time>2026-02-09T15:34:09.000Z</time>
        <extensions>
          <ns3:TrackPointExtension>
            <ns3:hr>144</ns3:hr>
            <ns3:cad>85</ns3:cad>
          </ns3:TrackPointExtension>
        </extensions>
      </trkpt>
      <trkpt lat="24.48692075908184051513671875" lon="118.183198906481266021728515625">
        <ele>30.799999237060546875</ele>
        <time>2026-02-09T15:34:10.000Z</time>
        <extensions>
          <ns3:TrackPointExtension>
            <ns3:hr>143</ns3:hr>
            <ns3:cad>85</ns3:cad>
          </ns3:TrackPointExtension>
        </extensions>
      </trkpt>
      <trkpt lat="24.48690927587449550628662109375" lon="118.18319077603518962860107421875">
        <ele>30.6000003814697265625</ele>
        <time>2026-02-09T15:34:11.000Z</time>
        <extensions>
          <ns3:TrackPointExtension>
            <ns3:hr>144</ns3:hr>
            <ns3:cad>84</ns3:cad>
          </ns3:TrackPointExtension>
        </extensions>
      </trkpt>
      <trkpt lat="24.4868897460401058197021484375" lon="118.18317250348627567291259765625">
        <ele>30.6000003814697265625</ele>
        <time>2026-02-09T15:34:12.000Z</time>
        <extensions>
          <ns3:TrackPointExtension>
            <ns3:hr>144</ns3:hr>
            <ns3:cad>84</ns3:cad>
          </ns3:TrackPointExtension>
        </extensions>
      </trkpt>
      <trkpt lat="24.4868729822337627410888671875" lon="118.18316361866891384124755859375">
        <ele>30.6000003814697265625</ele>
        <time>2026-02-09T15:34:13.000Z</time>
        <extensions>
          <ns3:TrackPointExtension>
            <ns3:hr>144</ns3:hr>
            <ns3:cad>84</ns3:cad>
          </ns3:TrackPointExtension>
        </extensions>
      </trkpt>
      <trkpt lat="24.486852698028087615966796875" lon="118.18315766751766204833984375">
        <ele>30.3999996185302734375</ele>
        <time>2026-02-09T15:34:14.000Z</time>
        <extensions>
          <ns3:TrackPointExtension>
            <ns3:hr>144</ns3:hr>
            <ns3:cad>87</ns3:cad>
          </ns3:TrackPointExtension>
        </extensions>
      </trkpt>
      <trkpt lat="24.4868243671953678131103515625" lon="118.183156661689281463623046875">
        <ele>30.3999996185302734375</ele>
        <time>2026-02-09T15:34:15.000Z</time>
        <extensions>
          <ns3:TrackPointExtension>
            <ns3:hr>144</ns3:hr>
            <ns3:cad>87</ns3:cad>
          </ns3:TrackPointExtension>
        </extensions>
      </trkpt>
      <trkpt lat="24.4868042506277561187744140625" lon="118.183156661689281463623046875">
        <ele>30.3999996185302734375</ele>
        <time>2026-02-09T15:34:16.000Z</time>
        <extensions>
          <ns3:TrackPointExtension>
            <ns3:hr>144</ns3:hr>
            <ns3:cad>85</ns3:cad>
          </ns3:TrackPointExtension>
        </extensions>
      </trkpt>
      <trkpt lat="24.48677767999470233917236328125" lon="118.18315003998577594757080078125">
        <ele>30.200000762939453125</ele>
        <time>2026-02-09T15:34:17.000Z</time>
        <extensions>
          <ns3:TrackPointExtension>
            <ns3:hr>144</ns3:hr>
            <ns3:cad>85</ns3:cad>
          </ns3:TrackPointExtension>
        </extensions>
      </trkpt>
      <trkpt lat="24.48675320483744144439697265625" lon="118.18314970470964908599853515625">
        <ele>30.200000762939453125</ele>
        <time>2026-02-09T15:34:18.000Z</time>
        <extensions>
          <ns3:TrackPointExtension>
            <ns3:hr>144</ns3:hr>
            <ns3:cad>86</ns3:cad>
          </ns3:TrackPointExtension>
        </extensions>
      </trkpt>
      <trkpt lat="24.4867254607379436492919921875" lon="118.18314719013869762420654296875">
        <ele>30</ele>
        <time>2026-02-09T15:34:19.000Z</time>
        <extensions>
          <ns3:TrackPointExtension>
            <ns3:hr>143</ns3:hr>
            <ns3:cad>86</ns3:cad>
          </ns3:TrackPointExtension>
        </extensions>
      </trkpt>
      <trkpt lat="24.4866993092000484466552734375" lon="118.18314601667225360870361328125">
        <ele>30</ele>
        <time>2026-02-09T15:34:20.000Z</time>
        <extensions>
          <ns3:TrackPointExtension>
            <ns3:hr>144</ns3:hr>
            <ns3:cad>86</ns3:cad>
          </ns3:TrackPointExtension>
        </extensions>
      </trkpt>
      <trkpt lat="24.48667466640472412109375" lon="118.183147273957729339599609375">
        <ele>30</ele>
        <time>2026-02-09T15:34:21.000Z</time>
        <extensions>
          <ns3:TrackPointExtension>
            <ns3:hr>144</ns3:hr>
            <ns3:cad>86</ns3:cad>
          </ns3:TrackPointExtension>
        </extensions>
      </trkpt>
      <trkpt lat="24.48665044270455837249755859375" lon="118.18314400501549243927001953125">
        <ele>29.799999237060546875</ele>
        <time>2026-02-09T15:34:22.000Z</time>
        <extensions>
          <ns3:TrackPointExtension>
            <ns3:hr>144</ns3:hr>
            <ns3:cad>86</ns3:cad>
          </ns3:TrackPointExtension>
        </extensions>
      </trkpt>
      <trkpt lat="24.486626051366329193115234375" lon="118.18313813768327236175537109375">
        <ele>29.799999237060546875</ele>
        <time>2026-02-09T15:34:23.000Z</time>
        <extensions>
          <ns3:TrackPointExtension>
            <ns3:hr>145</ns3:hr>
            <ns3:cad>86</ns3:cad>
          </ns3:TrackPointExtension>
        </extensions>
      </trkpt>
      <trkpt lat="24.486602246761322021484375" lon="118.18313562311232089996337890625">
        <ele>29.799999237060546875</ele>
        <time>2026-02-09T15:34:24.000Z</time>
        <extensions>
          <ns3:TrackPointExtension>
            <ns3:hr>145</ns3:hr>
            <ns3:cad>86</ns3:cad>
          </ns3:TrackPointExtension>
        </extensions>
      </trkpt>
      <trkpt lat="24.48657584376633167266845703125" lon="118.1831393949687480926513671875">
        <ele>29.799999237060546875</ele>
        <time>2026-02-09T15:34:25.000Z</time>
        <extensions>
          <ns3:TrackPointExtension>
            <ns3:hr>146</ns3:hr>
            <ns3:cad>87</ns3:cad>
          </ns3:TrackPointExtension>
        </extensions>
      </trkpt>
      <trkpt lat="24.48654650710523128509521484375" lon="118.1831328570842742919921875">
        <ele>29.799999237060546875</ele>
        <time>2026-02-09T15:34:26.000Z</time>
        <extensions>
          <ns3:TrackPointExtension>
            <ns3:hr>146</ns3:hr>
            <ns3:cad>87</ns3:cad>
          </ns3:TrackPointExtension>
        </extensions>
      </trkpt>
      <trkpt lat="24.48652387596666812896728515625" lon="118.18312874995172023773193359375">
        <ele>29.6000003814697265625</ele>
        <time>2026-02-09T15:34:27.000Z</time>
        <extensions>
          <ns3:TrackPointExtension>
            <ns3:hr>146</ns3:hr>
            <ns3:cad>87</ns3:cad>
          </ns3:TrackPointExtension>
        </extensions>
      </trkpt>
      <trkpt lat="24.486496634781360626220703125" lon="118.183127157390117645263671875">
        <ele>29.6000003814697265625</ele>
        <time>2026-02-09T15:34:28.000Z</time>
        <extensions>
          <ns3:TrackPointExtension>
            <ns3:hr>145</ns3:hr>
            <ns3:cad>87</ns3:cad>
          </ns3:TrackPointExtension>
        </extensions>
      </trkpt>
      <trkpt lat="24.48647559620440006256103515625" lon="118.1831313483417034149169921875">
        <ele>29.6000003814697265625</ele>
        <time>2026-02-09T15:34:29.000Z</time>
        <extensions>
          <ns3:TrackPointExtension>
            <ns3:hr>146</ns3:hr>
            <ns3:cad>87</ns3:cad>
          </ns3:TrackPointExtension>
        </extensions>
      </trkpt>
      <trkpt lat="24.4864488579332828521728515625" lon="118.183133192360401153564453125">
        <ele>29.6000003814697265625</ele>
        <time>2026-02-09T15:34:30.000Z</time>
        <extensions>
          <ns3:TrackPointExtension>
            <ns3:hr>146</ns3:hr>
            <ns3:cad>87</ns3:cad>
          </ns3:TrackPointExtension>
        </extensions>
      </trkpt>
      <trkpt lat="24.48642564006149768829345703125" lon="118.183131851255893707275390625">
        <ele>29.6000003814697265625</ele>
        <time>2026-02-09T15:34:31.000Z</time>
        <extensions>
          <ns3:TrackPointExtension>
            <ns3:hr>146</ns3:hr>
            <ns3:cad>87</ns3:cad>
          </ns3:TrackPointExtension>
        </extensions>
      </trkpt>
      <trkpt lat="24.48639797978103160858154296875" lon="118.183131515979766845703125">
        <ele>29.6000003814697265625</ele>
        <time>2026-02-09T15:34:32.000Z</time>
        <extensions>
          <ns3:TrackPointExtension>
            <ns3:hr>146</ns3:hr>
            <ns3:cad>87</ns3:cad>
          </ns3:TrackPointExtension>
        </extensions>
      </trkpt>
      <trkpt lat="24.48637283407151699066162109375" lon="118.1831274926662445068359375">
        <ele>29.3999996185302734375</ele>
        <time>2026-02-09T15:34:33.000Z</time>
        <extensions>
          <ns3:TrackPointExtension>
            <ns3:hr>146</ns3:hr>
            <ns3:cad>87</ns3:cad>
          </ns3:TrackPointExtension>
        </extensions>
      </trkpt>
      <trkpt lat="24.486354477703571319580078125" lon="118.18311969749629497528076171875">
        <ele>29.3999996185302734375</ele>
        <time>2026-02-09T15:34:34.000Z</time>
        <extensions>
          <ns3:TrackPointExtension>
            <ns3:hr>146</ns3:hr>
            <ns3:cad>87</ns3:cad>
          </ns3:TrackPointExtension>
        </extensions>
      </trkpt>
      <trkpt lat="24.4863291643559932708740234375" lon="118.18311475217342376708984375">
        <ele>29.3999996185302734375</ele>
        <time>2026-02-09T15:34:35.000Z</time>
        <extensions>
          <ns3:TrackPointExtension>
            <ns3:hr>147</ns3:hr>
            <ns3:cad>87</ns3:cad>
          </ns3:TrackPointExtension>
        </extensions>
      </trkpt>
      <trkpt lat="24.486314915120601654052734375" lon="118.18311877548694610595703125">
        <ele>29.3999996185302734375</ele>
        <time>2026-02-09T15:34:36.000Z</time>
        <extensions>
          <ns3:TrackPointExtension>
            <ns3:hr>147</ns3:hr>
            <ns3:cad>87</ns3:cad>
          </ns3:TrackPointExtension>
        </extensions>
      </trkpt>
      <trkpt lat="24.4862875901162624359130859375" lon="118.18311265669763088226318359375">
        <ele>29.6000003814697265625</ele>
        <time>2026-02-09T15:34:37.000Z</time>
        <extensions>
          <ns3:TrackPointExtension>
            <ns3:hr>147</ns3:hr>
            <ns3:cad>87</ns3:cad>
          </ns3:TrackPointExtension>
        </extensions>
      </trkpt>
      <trkpt lat="24.4862678088247776031494140625" lon="118.1831119023263454437255859375">
        <ele>29.6000003814697265625</ele>
        <time>2026-02-09T15:34:38.000Z</time>
        <extensions>
          <ns3:TrackPointExtension>
            <ns3:hr>147</ns3:hr>
            <ns3:cad>86</ns3:cad>
          </ns3:TrackPointExtension>
        </extensions>
      </trkpt>
      <trkpt lat="24.48624291457235813140869140625" lon="118.1831058673560619354248046875">
        <ele>29.6000003814697265625</ele>
        <time>2026-02-09T15:34:39.000Z</time>
        <extensions>
          <ns3:TrackPointExtension>
            <ns3:hr>147</ns3:hr>
            <ns3:cad>86</ns3:cad>
          </ns3:TrackPointExtension>
        </extensions>
      </trkpt>
      <trkpt lat="24.4862208701670169830322265625" lon="118.18310528062283992767333984375">
        <ele>29.6000003814697265625</ele>
        <time>2026-02-09T15:34:40.000Z</time>
        <extensions>
          <ns3:TrackPointExtension>
            <ns3:hr>147</ns3:hr>
            <ns3:cad>86</ns3:cad>
          </ns3:TrackPointExtension>
        </extensions>
      </trkpt>
      <trkpt lat="24.4861974008381366729736328125" lon="118.183106370270252227783203125">
        <ele>29.6000003814697265625</ele>
        <time>2026-02-09T15:34:41.000Z</time>
        <extensions>
          <ns3:TrackPointExtension>
            <ns3:hr>147</ns3:hr>
            <ns3:cad>86</ns3:cad>
          </ns3:TrackPointExtension>
        </extensions>
      </trkpt>
      <trkpt lat="24.486174099147319793701171875" lon="118.18310310132801532745361328125">
        <ele>29.6000003814697265625</ele>
        <time>2026-02-09T15:34:42.000Z</time>
        <extensions>
          <ns3:TrackPointExtension>
            <ns3:hr>147</ns3:hr>
            <ns3:cad>86</ns3:cad>
          </ns3:TrackPointExtension>
        </extensions>
      </trkpt>
      <trkpt lat="24.4861583411693572998046875" lon="118.183098994195461273193359375">
        <ele>29.6000003814697265625</ele>
        <time>2026-02-09T15:34:43.000Z</time>
        <extensions>
          <ns3:TrackPointExtension>
            <ns3:hr>146</ns3:hr>
            <ns3:cad>86</ns3:cad>
          </ns3:TrackPointExtension>
        </extensions>
      </trkpt>
      <trkpt lat="24.486129842698574066162109375" lon="118.18309731781482696533203125">
        <ele>29.6000003814697265625</ele>
        <time>2026-02-09T15:34:44.000Z</time>
        <extensions>
          <ns3:TrackPointExtension>
            <ns3:hr>147</ns3:hr>
            <ns3:cad>86</ns3:cad>
          </ns3:TrackPointExtension>
        </extensions>
      </trkpt>
      <trkpt lat="24.4861112348735332489013671875" lon="118.18309689871966838836669921875">
        <ele>29.6000003814697265625</ele>
        <time>2026-02-09T15:34:45.000Z</time>
        <extensions>
          <ns3:TrackPointExtension>
            <ns3:hr>147</ns3:hr>
            <ns3:cad>86</ns3:cad>
          </ns3:TrackPointExtension>
        </extensions>
      </trkpt>
      <trkpt lat="24.48607846163213253021240234375" lon="118.183088935911655426025390625">
        <ele>29.6000003814697265625</ele>
        <time>2026-02-09T15:34:46.000Z</time>
        <extensions>
          <ns3:TrackPointExtension>
            <ns3:hr>147</ns3:hr>
            <ns3:cad>86</ns3:cad>
          </ns3:TrackPointExtension>
        </extensions>
      </trkpt>
      <trkpt lat="24.48605247773230075836181640625" lon="118.183091618120670318603515625">
        <ele>29.799999237060546875</ele>
        <time>2026-02-09T15:34:47.000Z</time>
        <extensions>
          <ns3:TrackPointExtension>
            <ns3:hr>147</ns3:hr>
            <ns3:cad>87</ns3:cad>
          </ns3:TrackPointExtension>
        </extensions>
      </trkpt>
      <trkpt lat="24.48602649383246898651123046875" lon="118.18308918736875057220458984375">
        <ele>29.799999237060546875</ele>
        <time>2026-02-09T15:34:48.000Z</time>
        <extensions>
          <ns3:TrackPointExtension>
            <ns3:hr>147</ns3:hr>
            <ns3:cad>87</ns3:cad>
          </ns3:TrackPointExtension>
        </extensions>
      </trkpt>
      <trkpt lat="24.48600520379841327667236328125" lon="118.18308801390230655670166015625">
        <ele>29.799999237060546875</ele>
        <time>2026-02-09T15:34:49.000Z</time>
        <extensions>
          <ns3:TrackPointExtension>
            <ns3:hr>146</ns3:hr>
            <ns3:cad>87</ns3:cad>
          </ns3:TrackPointExtension>
        </extensions>
      </trkpt>
      <trkpt lat="24.485985673964023590087890625" lon="118.18308466114103794097900390625">
        <ele>30</ele>
        <time>2026-02-09T15:34:50.000Z</time>
        <extensions>
          <ns3:TrackPointExtension>
            <ns3:hr>147</ns3:hr>
            <ns3:cad>87</ns3:cad>
          </ns3:TrackPointExtension>
        </extensions>
      </trkpt>
      <trkpt lat="24.4859571754932403564453125" lon="118.18307460285723209381103515625">
        <ele>30</ele>
        <time>2026-02-09T15:34:51.000Z</time>
        <extensions>
          <ns3:TrackPointExtension>
            <ns3:hr>147</ns3:hr>
            <ns3:cad>87</ns3:cad>
          </ns3:TrackPointExtension>
        </extensions>
      </trkpt>
      <trkpt lat="24.48593378998339176177978515625" lon="118.18307141773402690887451171875">
        <ele>30</ele>
        <time>2026-02-09T15:34:52.000Z</time>
        <extensions>
          <ns3:TrackPointExtension>
            <ns3:hr>147</ns3:hr>
            <ns3:cad>86</ns3:cad>
          </ns3:TrackPointExtension>
        </extensions>
      </trkpt>
      <trkpt lat="24.485904537141323089599609375" lon="118.1830619461834430694580078125">
        <ele>29.799999237060546875</ele>
        <time>2026-02-09T15:34:53.000Z</time>
        <extensions>
          <ns3:TrackPointExtension>
            <ns3:hr>146</ns3:hr>
            <ns3:cad>85</ns3:cad>
          </ns3:TrackPointExtension>
        </extensions>
      </trkpt>
      <trkpt lat="24.4858865998685359954833984375" lon="118.18305884487926959991455078125">
        <ele>30</ele>
        <time>2026-02-09T15:34:54.000Z</time>
        <extensions>
          <ns3:TrackPointExtension>
            <ns3:hr>147</ns3:hr>
            <ns3:cad>85</ns3:cad>
          </ns3:TrackPointExtension>
        </extensions>
      </trkpt>
      <trkpt lat="24.48586673475801944732666015625" lon="118.18305448628962039947509765625">
        <ele>30</ele>
        <time>2026-02-09T15:34:55.000Z</time>
        <extensions>
          <ns3:TrackPointExtension>
            <ns3:hr>147</ns3:hr>
            <ns3:cad>85</ns3:cad>
          </ns3:TrackPointExtension>
        </extensions>
      </trkpt>
      <trkpt lat="24.485844857990741729736328125" lon="118.18305146880447864532470703125">
        <ele>30</ele>
        <time>2026-02-09T15:34:56.000Z</time>
        <extensions>
          <ns3:TrackPointExtension>
            <ns3:hr>147</ns3:hr>
            <ns3:cad>85</ns3:cad>
          </ns3:TrackPointExtension>
        </extensions>
      </trkpt>
      <trkpt lat="24.48582683689892292022705078125" lon="118.18305063061416149139404296875">
        <ele>30</ele>
        <time>2026-02-09T15:34:57.000Z</time>
        <extensions>
          <ns3:TrackPointExtension>
            <ns3:hr>148</ns3:hr>
            <ns3:cad>86</ns3:cad>
          </ns3:TrackPointExtension>
        </extensions>
      </trkpt>
      <trkpt lat="24.48580940254032611846923828125" lon="118.1830512173473834991455078125">
        <ele>30.200000762939453125</ele>
        <time>2026-02-09T15:34:58.000Z</time>
        <extensions>
          <ns3:TrackPointExtension>
            <ns3:hr>148</ns3:hr>
            <ns3:cad>86</ns3:cad>
          </ns3:TrackPointExtension>
        </extensions>
      </trkpt>
      <trkpt lat="24.485790543258190155029296875" lon="118.18304442800581455230712890625">
        <ele>30</ele>
        <time>2026-02-09T15:34:59.000Z</time>
        <extensions>
          <ns3:TrackPointExtension>
            <ns3:hr>149</ns3:hr>
            <ns3:cad>86</ns3:cad>
          </ns3:TrackPointExtension>
        </extensions>
      </trkpt>
      <trkpt lat="24.48576782830059528350830078125" lon="118.18303721956908702850341796875">
        <ele>30</ele>
        <time>2026-02-09T15:35:00.000Z</time>
        <extensions>
          <ns3:TrackPointExtension>
            <ns3:hr>149</ns3:hr>
            <ns3:cad>86</ns3:cad>
          </ns3:TrackPointExtension>
        </extensions>
      </trkpt>
      <trkpt lat="24.4857427664101123809814453125" lon="118.183036632835865020751953125">
        <ele>30.200000762939453125</ele>
        <time>2026-02-09T15:35:01.000Z</time>
        <extensions>
          <ns3:TrackPointExtension>
            <ns3:hr>149</ns3:hr>
            <ns3:cad>86</ns3:cad>
          </ns3:TrackPointExtension>
        </extensions>
      </trkpt>
      <trkpt lat="24.48571988381445407867431640625" lon="118.1830264069139957427978515625">
        <ele>30.200000762939453125</ele>
        <time>2026-02-09T15:35:02.000Z</time>
        <extensions>
          <ns3:TrackPointExtension>
            <ns3:hr>150</ns3:hr>
            <ns3:cad>86</ns3:cad>
          </ns3:TrackPointExtension>
        </extensions>
      </trkpt>
      <trkpt lat="24.48570328764617443084716796875" lon="118.1830210424959659576416015625">
        <ele>30</ele>
        <time>2026-02-09T15:35:03.000Z</time>
        <extensions>
          <ns3:TrackPointExtension>
            <ns3:hr>149</ns3:hr>
            <ns3:cad>86</ns3:cad>
          </ns3:TrackPointExtension>
        </extensions>
      </trkpt>
      <trkpt lat="24.485683925449848175048828125" lon="118.18301676772534847259521484375">
        <ele>30.200000762939453125</ele>
        <time>2026-02-09T15:35:04.000Z</time>
        <extensions>
          <ns3:TrackPointExtension>
            <ns3:hr>149</ns3:hr>
            <ns3:cad>85</ns3:cad>
          </ns3:TrackPointExtension>
        </extensions>
      </trkpt>
      <trkpt lat="24.48565886355936527252197265625" lon="118.18300972692668437957763671875">
        <ele>30.200000762939453125</ele>
        <time>2026-02-09T15:35:05.000Z</time>
        <extensions>
          <ns3:TrackPointExtension>
            <ns3:hr>149</ns3:hr>
            <ns3:cad>85</ns3:cad>
          </ns3:TrackPointExtension>
        </extensions>
      </trkpt>
      <trkpt lat="24.48563505895435810089111328125" lon="118.18300536833703517913818359375">
        <ele>30.200000762939453125</ele>
        <time>2026-02-09T15:35:06.000Z</time>
        <extensions>
          <ns3:TrackPointExtension>
            <ns3:hr>149</ns3:hr>
            <ns3:cad>85</ns3:cad>
          </ns3:TrackPointExtension>
        </extensions>
      </trkpt>
      <trkpt lat="24.4856099970638751983642578125" lon="118.1830014288425445556640625">
        <ele>30.200000762939453125</ele>
        <time>2026-02-09T15:35:07.000Z</time>
        <extensions>
          <ns3:TrackPointExtension>
            <ns3:hr>149</ns3:hr>
            <ns3:cad>85</ns3:cad>
          </ns3:TrackPointExtension>
        </extensions>
      </trkpt>
      <trkpt lat="24.485580660402774810791015625" lon="118.18299178965389728546142578125">
        <ele>30.200000762939453125</ele>
        <time>2026-02-09T15:35:08.000Z</time>
        <extensions>
          <ns3:TrackPointExtension>
            <ns3:hr>148</ns3:hr>
            <ns3:cad>85</ns3:cad>
          </ns3:TrackPointExtension>
        </extensions>
      </trkpt>
      <trkpt lat="24.48554403148591518402099609375" lon="118.18298089317977428436279296875">
        <ele>30.200000762939453125</ele>
        <time>2026-02-09T15:35:09.000Z</time>
        <extensions>
          <ns3:TrackPointExtension>
            <ns3:hr>148</ns3:hr>
            <ns3:cad>85</ns3:cad>
          </ns3:TrackPointExtension>
        </extensions>
      </trkpt>
      <trkpt lat="24.48551385663449764251708984375" lon="118.18296614103019237518310546875">
        <ele>30.200000762939453125</ele>
        <time>2026-02-09T15:35:10.000Z</time>
        <extensions>
          <ns3:TrackPointExtension>
            <ns3:hr>149</ns3:hr>
            <ns3:cad>85</ns3:cad>
          </ns3:TrackPointExtension>
        </extensions>
      </trkpt>
      <trkpt lat="24.48548854328691959381103515625" lon="118.1829558312892913818359375">
        <ele>30.200000762939453125</ele>
        <time>2026-02-09T15:35:11.000Z</time>
        <extensions>
          <ns3:TrackPointExtension>
            <ns3:hr>149</ns3:hr>
            <ns3:cad>85</ns3:cad>
          </ns3:TrackPointExtension>
        </extensions>
      </trkpt>
      <trkpt lat="24.48545786552131175994873046875" lon="118.18294711410999298095703125">
        <ele>30.200000762939453125</ele>
        <time>2026-02-09T15:35:12.000Z</time>
        <extensions>
          <ns3:TrackPointExtension>
            <ns3:hr>149</ns3:hr>
            <ns3:cad>86</ns3:cad>
          </ns3:TrackPointExtension>
        </extensions>
      </trkpt>
      <trkpt lat="24.4854312948882579803466796875" lon="118.18294736556708812713623046875">
        <ele>30.200000762939453125</ele>
        <time>2026-02-09T15:35:13.000Z</time>
        <extensions>
          <ns3:TrackPointExtension>
            <ns3:hr>148</ns3:hr>
            <ns3:cad>86</ns3:cad>
          </ns3:TrackPointExtension>
        </extensions>
      </trkpt>
      <trkpt lat="24.48540355078876018524169921875" lon="118.18295038305222988128662109375">
        <ele>30</ele>
        <time>2026-02-09T15:35:14.000Z</time>
        <extensions>
          <ns3:TrackPointExtension>
            <ns3:hr>149</ns3:hr>
            <ns3:cad>85</ns3:cad>
          </ns3:TrackPointExtension>
        </extensions>
      </trkpt>
      <trkpt lat="24.485376812517642974853515625" lon="118.1829492934048175811767578125">
        <ele>30</ele>
        <time>2026-02-09T15:35:15.000Z</time>
        <extensions>
          <ns3:TrackPointExtension>
            <ns3:hr>149</ns3:hr>
            <ns3:cad>85</ns3:cad>
          </ns3:TrackPointExtension>
        </extensions>
      </trkpt>
      <trkpt lat="24.48535443283617496490478515625" lon="118.18295423872768878936767578125">
        <ele>30.200000762939453125</ele>
        <time>2026-02-09T15:35:16.000Z</time>
        <extensions>
          <ns3:TrackPointExtension>
            <ns3:hr>149</ns3:hr>
            <ns3:cad>85</ns3:cad>
          </ns3:TrackPointExtension>
        </extensions>
      </trkpt>
      <trkpt lat="24.48532358743250370025634765625" lon="118.1829502992331981658935546875">
        <ele>30.200000762939453125</ele>
        <time>2026-02-09T15:35:17.000Z</time>
        <extensions>
          <ns3:TrackPointExtension>
            <ns3:hr>149</ns3:hr>
            <ns3:cad>85</ns3:cad>
          </ns3:TrackPointExtension>
        </extensions>
      </trkpt>
      <trkpt lat="24.485301710665225982666015625" lon="118.1829506345093250274658203125">
        <ele>30.200000762939453125</ele>
        <time>2026-02-09T15:35:18.000Z</time>
        <extensions>
          <ns3:TrackPointExtension>
            <ns3:hr>149</ns3:hr>
            <ns3:cad>85</ns3:cad>
          </ns3:TrackPointExtension>
        </extensions>
      </trkpt>
      <trkpt lat="24.4852737151086330413818359375" lon="118.18294535391032695770263671875">
        <ele>30.200000762939453125</ele>
        <time>2026-02-09T15:35:19.000Z</time>
        <extensions>
          <ns3:TrackPointExtension>
            <ns3:hr>149</ns3:hr>
            <ns3:cad>87</ns3:cad>
          </ns3:TrackPointExtension>
        </extensions>
      </trkpt>
      <trkpt lat="24.4852532632648944854736328125" lon="118.18294334225356578826904296875">
        <ele>30.200000762939453125</ele>
        <time>2026-02-09T15:35:20.000Z</time>
        <extensions>
          <ns3:TrackPointExtension>
            <ns3:hr>150</ns3:hr>
            <ns3:cad>87</ns3:cad>
          </ns3:TrackPointExtension>
        </extensions>
      </trkpt>
      <trkpt lat="24.4852224178612232208251953125" lon="118.1829325295984745025634765625">
        <ele>30.200000762939453125</ele>
        <time>2026-02-09T15:35:21.000Z</time>
        <extensions>
          <ns3:TrackPointExtension>
            <ns3:hr>151</ns3:hr>
            <ns3:cad>87</ns3:cad>
          </ns3:TrackPointExtension>
        </extensions>
      </trkpt>
      <trkpt lat="24.48520221747457981109619140625" lon="118.18292255513370037078857421875">
        <ele>30.3999996185302734375</ele>
        <time>2026-02-09T15:35:22.000Z</time>
        <extensions>
          <ns3:TrackPointExtension>
            <ns3:hr>151</ns3:hr>
            <ns3:cad>87</ns3:cad>
          </ns3:TrackPointExtension>
        </extensions>
      </trkpt>
      <trkpt lat="24.485178329050540924072265625" lon="118.18290914408862590789794921875">
        <ele>30.3999996185302734375</ele>
        <time>2026-02-09T15:35:23.000Z</time>
        <extensions>
          <ns3:TrackPointExtension>
            <ns3:hr>151</ns3:hr>
            <ns3:cad>87</ns3:cad>
          </ns3:TrackPointExtension>
        </extensions>
      </trkpt>
      <trkpt lat="24.4851573742926120758056640625" lon="118.18289925344288349151611328125">
        <ele>30.3999996185302734375</ele>
        <time>2026-02-09T15:35:24.000Z</time>
        <extensions>
          <ns3:TrackPointExtension>
            <ns3:hr>152</ns3:hr>
            <ns3:cad>87</ns3:cad>
          </ns3:TrackPointExtension>
        </extensions>
      </trkpt>
      <trkpt lat="24.4851369224488735198974609375" lon="118.18288768641650676727294921875">
        <ele>30.3999996185302734375</ele>
        <time>2026-02-09T15:35:25.000Z</time>
        <extensions>
          <ns3:TrackPointExtension>
            <ns3:hr>152</ns3:hr>
            <ns3:cad>87</ns3:cad>
          </ns3:TrackPointExtension>
        </extensions>
      </trkpt>
      <trkpt lat="24.48511420749127864837646484375" lon="118.18287511356174945831298828125">
        <ele>30.3999996185302734375</ele>
        <time>2026-02-09T15:35:26.000Z</time>
        <extensions>
          <ns3:TrackPointExtension>
            <ns3:hr>152</ns3:hr>
            <ns3:cad>87</ns3:cad>
          </ns3:TrackPointExtension>
        </extensions>
      </trkpt>
      <trkpt lat="24.48509492911398410797119140625" lon="118.18286740221083164215087890625">
        <ele>30.3999996185302734375</ele>
        <time>2026-02-09T15:35:27.000Z</time>
        <extensions>
          <ns3:TrackPointExtension>
            <ns3:hr>152</ns3:hr>
            <ns3:cad>87</ns3:cad>
          </ns3:TrackPointExtension>
        </extensions>
      </trkpt>
      <trkpt lat="24.48507062159478664398193359375" lon="118.18285726010799407958984375">
        <ele>30.3999996185302734375</ele>
        <time>2026-02-09T15:35:28.000Z</time>
        <extensions>
          <ns3:TrackPointExtension>
            <ns3:hr>152</ns3:hr>
            <ns3:cad>87</ns3:cad>
          </ns3:TrackPointExtension>
        </extensions>
      </trkpt>
      <trkpt lat="24.48505301959812641143798828125" lon="118.1828440167009830474853515625">
        <ele>30.6000003814697265625</ele>
        <time>2026-02-09T15:35:29.000Z</time>
        <extensions>
          <ns3:TrackPointExtension>
            <ns3:hr>152</ns3:hr>
            <ns3:cad>87</ns3:cad>
          </ns3:TrackPointExtension>
        </extensions>
      </trkpt>
      <trkpt lat="24.485030137002468109130859375" lon="118.18282951600849628448486328125">
        <ele>30.6000003814697265625</ele>
        <time>2026-02-09T15:35:30.000Z</time>
        <extensions>
          <ns3:TrackPointExtension>
            <ns3:hr>152</ns3:hr>
            <ns3:cad>87</ns3:cad>
          </ns3:TrackPointExtension>
        </extensions>
      </trkpt>
      <trkpt lat="24.48501245118677616119384765625" lon="118.1828178651630878448486328125">
        <ele>30.6000003814697265625</ele>
        <time>2026-02-09T15:35:31.000Z</time>
        <extensions>
          <ns3:TrackPointExtension>
            <ns3:hr>152</ns3:hr>
            <ns3:cad>87</ns3:cad>
          </ns3:TrackPointExtension>
        </extensions>
      </trkpt>
      <trkpt lat="24.48498713783919811248779296875" lon="118.18280621431767940521240234375">
        <ele>30.6000003814697265625</ele>
        <time>2026-02-09T15:35:32.000Z</time>
        <extensions>
          <ns3:TrackPointExtension>
            <ns3:hr>153</ns3:hr>
            <ns3:cad>88</ns3:cad>
          </ns3:TrackPointExtension>
        </extensions>
      </trkpt>
      <trkpt lat="24.48496718890964984893798828125" lon="118.18280034698545932769775390625">
        <ele>30.6000003814697265625</ele>
        <time>2026-02-09T15:35:33.000Z</time>
        <extensions>
          <ns3:TrackPointExtension>
            <ns3:hr>153</ns3:hr>
            <ns3:cad>88</ns3:cad>
          </ns3:TrackPointExtension>
        </extensions>
      </trkpt>
      <trkpt lat="24.48493801988661289215087890625" lon="118.1827895343303680419921875">
        <ele>30.6000003814697265625</ele>
        <time>2026-02-09T15:35:34.000Z</time>
        <extensions>
          <ns3:TrackPointExtension>
            <ns3:hr>153</ns3:hr>
            <ns3:cad>87</ns3:cad>
          </ns3:TrackPointExtension>
        </extensions>
      </trkpt>
      <trkpt lat="24.48492008261382579803466796875" lon="118.18278375081717967987060546875">
        <ele>30.799999237060546875</ele>
        <time>2026-02-09T15:35:35.000Z</time>
        <extensions>
          <ns3:TrackPointExtension>
            <ns3:hr>153</ns3:hr>
            <ns3:cad>87</ns3:cad>
          </ns3:TrackPointExtension>
        </extensions>
      </trkpt>
      <trkpt lat="24.48489812202751636505126953125" lon="118.1827786378562450408935546875">
        <ele>30.799999237060546875</ele>
        <time>2026-02-09T15:35:36.000Z</time>
        <extensions>
          <ns3:TrackPointExtension>
            <ns3:hr>152</ns3:hr>
            <ns3:cad>87</ns3:cad>
          </ns3:TrackPointExtension>
        </extensions>
      </trkpt>
      <trkpt lat="24.48487163521349430084228515625" lon="118.1827685795724391937255859375">
        <ele>30.799999237060546875</ele>
        <time>2026-02-09T15:35:37.000Z</time>
        <extensions>
          <ns3:TrackPointExtension>
            <ns3:hr>153</ns3:hr>
            <ns3:cad>87</ns3:cad>
          </ns3:TrackPointExtension>
        </extensions>
      </trkpt>
      <trkpt lat="24.48484565131366252899169921875" lon="118.182761371135711669921875">
        <ele>30.799999237060546875</ele>
        <time>2026-02-09T15:35:38.000Z</time>
        <extensions>
          <ns3:TrackPointExtension>
            <ns3:hr>153</ns3:hr>
            <ns3:cad>87</ns3:cad>
          </ns3:TrackPointExtension>
        </extensions>
      </trkpt>
      <trkpt lat="24.4848200865089893341064453125" lon="118.182750642299652099609375">
        <ele>30.799999237060546875</ele>
        <time>2026-02-09T15:35:39.000Z</time>
        <extensions>
          <ns3:TrackPointExtension>
            <ns3:hr>153</ns3:hr>
            <ns3:cad>87</ns3:cad>
          </ns3:TrackPointExtension>
        </extensions>
      </trkpt>
      <trkpt lat="24.48479720391333103179931640625" lon="118.182740248739719390869140625">
        <ele>30.799999237060546875</ele>
        <time>2026-02-09T15:35:40.000Z</time>
        <extensions>
          <ns3:TrackPointExtension>
            <ns3:hr>153</ns3:hr>
            <ns3:cad>87</ns3:cad>
          </ns3:TrackPointExtension>
        </extensions>
      </trkpt>
      <trkpt lat="24.48476753197610378265380859375" lon="118.1827259995043277740478515625">
        <ele>30.799999237060546875</ele>
        <time>2026-02-09T15:35:41.000Z</time>
        <extensions>
          <ns3:TrackPointExtension>
            <ns3:hr>152</ns3:hr>
            <ns3:cad>87</ns3:cad>
          </ns3:TrackPointExtension>
        </extensions>
      </trkpt>
      <trkpt lat="24.48474523611366748809814453125" lon="118.182718120515346527099609375">
        <ele>31</ele>
        <time>2026-02-09T15:35:42.000Z</time>
        <extensions>
          <ns3:TrackPointExtension>
            <ns3:hr>153</ns3:hr>
            <ns3:cad>87</ns3:cad>
          </ns3:TrackPointExtension>
        </extensions>
      </trkpt>
      <trkpt lat="24.484710283577442169189453125" lon="118.18271334283053874969482421875">
        <ele>31</ele>
        <time>2026-02-09T15:35:43.000Z</time>
        <extensions>
          <ns3:TrackPointExtension>
            <ns3:hr>153</ns3:hr>
            <ns3:cad>89</ns3:cad>
          </ns3:TrackPointExtension>
        </extensions>
      </trkpt>
      <trkpt lat="24.4846876524388790130615234375" lon="118.18270848132669925689697265625">
        <ele>31.200000762939453125</ele>
        <time>2026-02-09T15:35:44.000Z</time>
        <extensions>
          <ns3:TrackPointExtension>
            <ns3:hr>153</ns3:hr>
            <ns3:cad>89</ns3:cad>
          </ns3:TrackPointExtension>
        </extensions>
      </trkpt>
      <trkpt lat="24.48465672321617603302001953125" lon="118.182702362537384033203125">
        <ele>31.200000762939453125</ele>
        <time>2026-02-09T15:35:45.000Z</time>
        <extensions>
          <ns3:TrackPointExtension>
            <ns3:hr>153</ns3:hr>
            <ns3:cad>88</ns3:cad>
          </ns3:TrackPointExtension>
        </extensions>
      </trkpt>
      <trkpt lat="24.4846294820308685302734375" lon="118.18269071169197559356689453125">
        <ele>31.3999996185302734375</ele>
        <time>2026-02-09T15:35:46.000Z</time>
        <extensions>
          <ns3:TrackPointExtension>
            <ns3:hr>154</ns3:hr>
            <ns3:cad>88</ns3:cad>
          </ns3:TrackPointExtension>
        </extensions>
      </trkpt>
      <trkpt lat="24.4846115447580814361572265625" lon="118.182687945663928985595703125">
        <ele>31.3999996185302734375</ele>
        <time>2026-02-09T15:35:47.000Z</time>
        <extensions>
          <ns3:TrackPointExtension>
            <ns3:hr>154</ns3:hr>
            <ns3:cad>88</ns3:cad>
          </ns3:TrackPointExtension>
        </extensions>
      </trkpt>
      <trkpt lat="24.4845850579440593719482421875" lon="118.18267780356109142303466796875">
        <ele>31.3999996185302734375</ele>
        <time>2026-02-09T15:35:48.000Z</time>
        <extensions>
          <ns3:TrackPointExtension>
            <ns3:hr>154</ns3:hr>
            <ns3:cad>86</ns3:cad>
          </ns3:TrackPointExtension>
        </extensions>
      </trkpt>
      <trkpt lat="24.48456686921417713165283203125" lon="118.18267830647528171539306640625">
        <ele>31.3999996185302734375</ele>
        <time>2026-02-09T15:35:49.000Z</time>
        <extensions>
          <ns3:TrackPointExtension>
            <ns3:hr>154</ns3:hr>
            <ns3:cad>84</ns3:cad>
          </ns3:TrackPointExtension>
        </extensions>
      </trkpt>
      <trkpt lat="24.48454859666526317596435546875" lon="118.1826787255704402923583984375">
        <ele>31.6000003814697265625</ele>
        <time>2026-02-09T15:35:50.000Z</time>
        <extensions>
          <ns3:TrackPointExtension>
            <ns3:hr>154</ns3:hr>
            <ns3:cad>85</ns3:cad>
          </ns3:TrackPointExtension>
        </extensions>
      </trkpt>
      <trkpt lat="24.4845344312489032745361328125" lon="118.1826817430555820465087890625">
        <ele>31.6000003814697265625</ele>
        <time>2026-02-09T15:35:51.000Z</time>
        <extensions>
          <ns3:TrackPointExtension>
            <ns3:hr>155</ns3:hr>
            <ns3:cad>85</ns3:cad>
          </ns3:TrackPointExtension>
        </extensions>
      </trkpt>
      <trkpt lat="24.4845223613083362579345703125" lon="118.1826849281787872314453125">
        <ele>31.6000003814697265625</ele>
        <time>2026-02-09T15:35:52.000Z</time>
        <extensions>
          <ns3:TrackPointExtension>
            <ns3:hr>155</ns3:hr>
            <ns3:cad>85</ns3:cad>
          </ns3:TrackPointExtension>
        </extensions>
      </trkpt>
      <trkpt lat="24.4845099560916423797607421875" lon="118.18267889320850372314453125">
        <ele>31.6000003814697265625</ele>
        <time>2026-02-09T15:35:53.000Z</time>
        <extensions>
          <ns3:TrackPointExtension>
            <ns3:hr>155</ns3:hr>
            <ns3:cad>85</ns3:cad>
          </ns3:TrackPointExtension>
        </extensions>
      </trkpt>
      <trkpt lat="24.48449662886559963226318359375" lon="118.1826750375330448150634765625">
        <ele>31.6000003814697265625</ele>
        <time>2026-02-09T15:35:54.000Z</time>
        <extensions>
          <ns3:TrackPointExtension>
            <ns3:hr>155</ns3:hr>
            <ns3:cad>85</ns3:cad>
          </ns3:TrackPointExtension>
        </extensions>
      </trkpt>
      <trkpt lat="24.48448539711534976959228515625" lon="118.18266908638179302215576171875">
        <ele>31.6000003814697265625</ele>
        <time>2026-02-09T15:35:55.000Z</time>
        <extensions>
          <ns3:TrackPointExtension>
            <ns3:hr>155</ns3:hr>
            <ns3:cad>85</ns3:cad>
          </ns3:TrackPointExtension>
        </extensions>
      </trkpt>
      <trkpt lat="24.484472572803497314453125" lon="118.1826619617640972137451171875">
        <ele>31.3999996185302734375</ele>
        <time>2026-02-09T15:35:56.000Z</time>
        <extensions>
          <ns3:TrackPointExtension>
            <ns3:hr>155</ns3:hr>
            <ns3:cad>85</ns3:cad>
          </ns3:TrackPointExtension>
        </extensions>
      </trkpt>
      <trkpt lat="24.48446226306259632110595703125" lon="118.18265651352703571319580078125">
        <ele>31.3999996185302734375</ele>
        <time>2026-02-09T15:35:57.000Z</time>
        <extensions>
          <ns3:TrackPointExtension>
            <ns3:hr>154</ns3:hr>
            <ns3:cad>85</ns3:cad>
          </ns3:TrackPointExtension>
        </extensions>
      </trkpt>
      <trkpt lat="24.484451450407505035400390625" lon="118.18265165202319622039794921875">
        <ele>31.3999996185302734375</ele>
        <time>2026-02-09T15:35:58.000Z</time>
        <extensions>
          <ns3:TrackPointExtension>
            <ns3:hr>154</ns3:hr>
            <ns3:cad>85</ns3:cad>
          </ns3:TrackPointExtension>
        </extensions>
      </trkpt>
      <trkpt lat="24.48444147594273090362548828125" lon="118.18264628760516643524169921875">
        <ele>31.3999996185302734375</ele>
        <time>2026-02-09T15:35:59.000Z</time>
        <extensions>
          <ns3:TrackPointExtension>
            <ns3:hr>153</ns3:hr>
            <ns3:cad>59</ns3:cad>
          </ns3:TrackPointExtension>
        </extensions>
      </trkpt>
      <trkpt lat="24.48443242348730564117431640625" lon="118.18264327012002468109130859375">
        <ele>31.3999996185302734375</ele>
        <time>2026-02-09T15:36:00.000Z</time>
        <extensions>
          <ns3:TrackPointExtension>
            <ns3:hr>152</ns3:hr>
            <ns3:cad>59</ns3:cad>
          </ns3:TrackPointExtension>
        </extensions>
      </trkpt>
      <trkpt lat="24.48442270047962665557861328125" lon="118.18263891153037548065185546875">
        <ele>31.3999996185302734375</ele>
        <time>2026-02-09T15:36:01.000Z</time>
        <extensions>
          <ns3:TrackPointExtension>
            <ns3:hr>152</ns3:hr>
            <ns3:cad>59</ns3:cad>
          </ns3:TrackPointExtension>
        </extensions>
      </trkpt>
      <trkpt lat="24.4844122231006622314453125" lon="118.18263572640717029571533203125">
        <ele>31.3999996185302734375</ele>
        <time>2026-02-09T15:36:02.000Z</time>
        <extensions>
          <ns3:TrackPointExtension>
            <ns3:hr>152</ns3:hr>
            <ns3:cad>59</ns3:cad>
          </ns3:TrackPointExtension>
        </extensions>
      </trkpt>
      <trkpt lat="24.484404511749744415283203125" lon="118.18263120017945766448974609375">
        <ele>31.3999996185302734375</ele>
        <time>2026-02-09T15:36:03.000Z</time>
        <extensions>
          <ns3:TrackPointExtension>
            <ns3:hr>151</ns3:hr>
            <ns3:cad>0</ns3:cad>
          </ns3:TrackPointExtension>
        </extensions>
      </trkpt>
      <trkpt lat="24.4843961298465728759765625" lon="118.1826280988752841949462890625">
        <ele>31.3999996185302734375</ele>
        <time>2026-02-09T15:36:04.000Z</time>
        <extensions>
          <ns3:TrackPointExtension>
            <ns3:hr>151</ns3:hr>
            <ns3:cad>0</ns3:cad>
          </ns3:TrackPointExtension>
        </extensions>
      </trkpt>
      <trkpt lat="24.484386406838893890380859375" lon="118.1826230697333812713623046875">
        <ele>31.3999996185302734375</ele>
        <time>2026-02-09T15:36:05.000Z</time>
        <extensions>
          <ns3:TrackPointExtension>
            <ns3:hr>151</ns3:hr>
            <ns3:cad>59</ns3:cad>
          </ns3:TrackPointExtension>
        </extensions>
      </trkpt>
      <trkpt lat="24.48437592945992946624755859375" lon="118.18261728622019290924072265625">
        <ele>31.3999996185302734375</ele>
        <time>2026-02-09T15:36:06.000Z</time>
        <extensions>
          <ns3:TrackPointExtension>
            <ns3:hr>150</ns3:hr>
            <ns3:cad>59</ns3:cad>
          </ns3:TrackPointExtension>
        </extensions>
      </trkpt>
      <trkpt lat="24.48436553589999675750732421875" lon="118.182610832154750823974609375">
        <ele>31.3999996185302734375</ele>
        <time>2026-02-09T15:36:07.000Z</time>
        <extensions>
          <ns3:TrackPointExtension>
            <ns3:hr>150</ns3:hr>
            <ns3:cad>59</ns3:cad>
          </ns3:TrackPointExtension>
        </extensions>
      </trkpt>
      <trkpt lat="24.48435463942587375640869140625" lon="118.1826036237180233001708984375">
        <ele>31.3999996185302734375</ele>
        <time>2026-02-09T15:36:08.000Z</time>
        <extensions>
          <ns3:TrackPointExtension>
            <ns3:hr>150</ns3:hr>
            <ns3:cad>58</ns3:cad>
          </ns3:TrackPointExtension>
        </extensions>
      </trkpt>
      <trkpt lat="24.48434357531368732452392578125" lon="118.1825952418148517608642578125">
        <ele>31.3999996185302734375</ele>
        <time>2026-02-09T15:36:09.000Z</time>
        <extensions>
          <ns3:TrackPointExtension>
            <ns3:hr>149</ns3:hr>
            <ns3:cad>57</ns3:cad>
          </ns3:TrackPointExtension>
        </extensions>
      </trkpt>
      <trkpt lat="24.4843329302966594696044921875" lon="118.18258811719715595245361328125">
        <ele>31.3999996185302734375</ele>
        <time>2026-02-09T15:36:10.000Z</time>
        <extensions>
          <ns3:TrackPointExtension>
            <ns3:hr>149</ns3:hr>
            <ns3:cad>57</ns3:cad>
          </ns3:TrackPointExtension>
        </extensions>
      </trkpt>
      <trkpt lat="24.48432362638413906097412109375" lon="118.1825831718742847442626953125">
        <ele>31.3999996185302734375</ele>
        <time>2026-02-09T15:36:11.000Z</time>
        <extensions>
          <ns3:TrackPointExtension>
            <ns3:hr>149</ns3:hr>
            <ns3:cad>57</ns3:cad>
          </ns3:TrackPointExtension>
        </extensions>
      </trkpt>
      <trkpt lat="24.484313987195491790771484375" lon="118.1825771369040012359619140625">
        <ele>31.3999996185302734375</ele>
        <time>2026-02-09T15:36:12.000Z</time>
        <extensions>
          <ns3:TrackPointExtension>
            <ns3:hr>148</ns3:hr>
            <ns3:cad>57</ns3:cad>
          </ns3:TrackPointExtension>
        </extensions>
      </trkpt>
      <trkpt lat="24.484305940568447113037109375" lon="118.182573951780796051025390625">
        <ele>31.3999996185302734375</ele>
        <time>2026-02-09T15:36:13.000Z</time>
        <extensions>
          <ns3:TrackPointExtension>
            <ns3:hr>147</ns3:hr>
            <ns3:cad>57</ns3:cad>
          </ns3:TrackPointExtension>
        </extensions>
      </trkpt>
      <trkpt lat="24.4842983968555927276611328125" lon="118.1825707666575908660888671875">
        <ele>31.200000762939453125</ele>
        <time>2026-02-09T15:36:14.000Z</time>
        <extensions>
          <ns3:TrackPointExtension>
            <ns3:hr>147</ns3:hr>
            <ns3:cad>57</ns3:cad>
          </ns3:TrackPointExtension>
        </extensions>
      </trkpt>
      <trkpt lat="24.48429143987596035003662109375" lon="118.1825690902769565582275390625">
        <ele>31.200000762939453125</ele>
        <time>2026-02-09T15:36:15.000Z</time>
        <extensions>
          <ns3:TrackPointExtension>
            <ns3:hr>146</ns3:hr>
            <ns3:cad>57</ns3:cad>
          </ns3:TrackPointExtension>
        </extensions>
      </trkpt>
      <trkpt lat="24.4842836447060108184814453125" lon="118.182568252086639404296875">
        <ele>31.3999996185302734375</ele>
        <time>2026-02-09T15:36:16.000Z</time>
        <extensions>
          <ns3:TrackPointExtension>
            <ns3:hr>146</ns3:hr>
            <ns3:cad>57</ns3:cad>
          </ns3:TrackPointExtension>
        </extensions>
      </trkpt>
      <trkpt lat="24.4842754304409027099609375" lon="118.18256749771535396575927734375">
        <ele>31.3999996185302734375</ele>
        <time>2026-02-09T15:36:17.000Z</time>
        <extensions>
          <ns3:TrackPointExtension>
            <ns3:hr>146</ns3:hr>
            <ns3:cad>57</ns3:cad>
          </ns3:TrackPointExtension>
        </extensions>
      </trkpt>
      <trkpt lat="24.48426629416644573211669921875" lon="118.182568252086639404296875">
        <ele>31.3999996185302734375</ele>
        <time>2026-02-09T15:36:18.000Z</time>
        <extensions>
          <ns3:TrackPointExtension>
            <ns3:hr>145</ns3:hr>
            <ns3:cad>57</ns3:cad>
          </ns3:TrackPointExtension>
        </extensions>
      </trkpt>
      <trkpt lat="24.48425707407295703887939453125" lon="118.182573616504669189453125">
        <ele>31.3999996185302734375</ele>
        <time>2026-02-09T15:36:19.000Z</time>
        <extensions>
          <ns3:TrackPointExtension>
            <ns3:hr>145</ns3:hr>
            <ns3:cad>0</ns3:cad>
          </ns3:TrackPointExtension>
        </extensions>
      </trkpt>
      <trkpt lat="24.484245590865612030029296875" lon="118.18258090876042842864990234375">
        <ele>31.3999996185302734375</ele>
        <time>2026-02-09T15:36:20.000Z</time>
        <extensions>
          <ns3:TrackPointExtension>
            <ns3:hr>145</ns3:hr>
            <ns3:cad>0</ns3:cad>
          </ns3:TrackPointExtension>
        </extensions>
      </trkpt>
      <trkpt lat="24.48423712514340877532958984375" lon="118.18258644081652164459228515625">
        <ele>31.200000762939453125</ele>
        <time>2026-02-09T15:36:21.000Z</time>
        <extensions>
          <ns3:TrackPointExtension>
            <ns3:hr>144</ns3:hr>
            <ns3:cad>0</ns3:cad>
          </ns3:TrackPointExtension>
        </extensions>
      </trkpt>
      <trkpt lat="24.4842283241450786590576171875" lon="118.18259163759648799896240234375">
        <ele>31.200000762939453125</ele>
        <time>2026-02-09T15:36:22.000Z</time>
        <extensions>
          <ns3:TrackPointExtension>
            <ns3:hr>143</ns3:hr>
            <ns3:cad>0</ns3:cad>
          </ns3:TrackPointExtension>
        </extensions>
      </trkpt>
      <trkpt lat="24.48422052897512912750244140625" lon="118.182595074176788330078125">
        <ele>31.200000762939453125</ele>
        <time>2026-02-09T15:36:23.000Z</time>
        <extensions>
          <ns3:TrackPointExtension>
            <ns3:hr>143</ns3:hr>
            <ns3:cad>0</ns3:cad>
          </ns3:TrackPointExtension>
        </extensions>
      </trkpt>
      <trkpt lat="24.48421332053840160369873046875" lon="118.1825969181954860687255859375">
        <ele>31.200000762939453125</ele>
        <time>2026-02-09T15:36:24.000Z</time>
        <extensions>
          <ns3:TrackPointExtension>
            <ns3:hr>142</ns3:hr>
            <ns3:cad>0</ns3:cad>
          </ns3:TrackPointExtension>
        </extensions>
      </trkpt>
      <trkpt lat="24.48420368134975433349609375" lon="118.1825985945761203765869140625">
        <ele>31.200000762939453125</ele>
        <time>2026-02-09T15:36:25.000Z</time>
        <extensions>
          <ns3:TrackPointExtension>
            <ns3:hr>141</ns3:hr>
            <ns3:cad>0</ns3:cad>
          </ns3:TrackPointExtension>
        </extensions>
      </trkpt>
      <trkpt lat="24.4841949641704559326171875" lon="118.1826012767851352691650390625">
        <ele>31.200000762939453125</ele>
        <time>2026-02-09T15:36:26.000Z</time>
        <extensions>
          <ns3:TrackPointExtension>
            <ns3:hr>140</ns3:hr>
            <ns3:cad>55</ns3:cad>
          </ns3:TrackPointExtension>
        </extensions>
      </trkpt>
      <trkpt lat="24.48418431915342807769775390625" lon="118.18260152824223041534423828125">
        <ele>31</ele>
        <time>2026-02-09T15:36:27.000Z</time>
        <extensions>
          <ns3:TrackPointExtension>
            <ns3:hr>140</ns3:hr>
            <ns3:cad>55</ns3:cad>
          </ns3:TrackPointExtension>
        </extensions>
      </trkpt>
      <trkpt lat="24.4841716624796390533447265625" lon="118.18259683437645435333251953125">
        <ele>31</ele>
        <time>2026-02-09T15:36:28.000Z</time>
        <extensions>
          <ns3:TrackPointExtension>
            <ns3:hr>140</ns3:hr>
            <ns3:cad>0</ns3:cad>
          </ns3:TrackPointExtension>
        </extensions>
      </trkpt>
      <trkpt lat="24.4841599278151988983154296875" lon="118.18259398452937602996826171875">
        <ele>31</ele>
        <time>2026-02-09T15:36:29.000Z</time>
        <extensions>
          <ns3:TrackPointExtension>
            <ns3:hr>140</ns3:hr>
            <ns3:cad>55</ns3:cad>
          </ns3:TrackPointExtension>
        </extensions>
      </trkpt>
      <trkpt lat="24.48414676822721958160400390625" lon="118.18258895538747310638427734375">
        <ele>31</ele>
        <time>2026-02-09T15:36:30.000Z</time>
        <extensions>
          <ns3:TrackPointExtension>
            <ns3:hr>139</ns3:hr>
            <ns3:cad>55</ns3:cad>
          </ns3:TrackPointExtension>
        </extensions>
      </trkpt>
      <trkpt lat="24.48413453064858913421630859375" lon="118.182584345340728759765625">
        <ele>31</ele>
        <time>2026-02-09T15:36:31.000Z</time>
        <extensions>
          <ns3:TrackPointExtension>
            <ns3:hr>139</ns3:hr>
            <ns3:cad>55</ns3:cad>
          </ns3:TrackPointExtension>
        </extensions>
      </trkpt>
      <trkpt lat="24.4841230474412441253662109375" lon="118.18258007057011127471923828125">
        <ele>30.799999237060546875</ele>
        <time>2026-02-09T15:36:32.000Z</time>
        <extensions>
          <ns3:TrackPointExtension>
            <ns3:hr>138</ns3:hr>
            <ns3:cad>55</ns3:cad>
          </ns3:TrackPointExtension>
        </extensions>
      </trkpt>
      <trkpt lat="24.48411223478615283966064453125" lon="118.18257403559982776641845703125">
        <ele>30.799999237060546875</ele>
        <time>2026-02-09T15:36:33.000Z</time>
        <extensions>
          <ns3:TrackPointExtension>
            <ns3:hr>137</ns3:hr>
            <ns3:cad>0</ns3:cad>
          </ns3:TrackPointExtension>
        </extensions>
      </trkpt>
      <trkpt lat="24.48410133831202983856201171875" lon="118.18256548605859279632568359375">
        <ele>30.799999237060546875</ele>
        <time>2026-02-09T15:36:34.000Z</time>
        <extensions>
          <ns3:TrackPointExtension>
            <ns3:hr>137</ns3:hr>
            <ns3:cad>0</ns3:cad>
          </ns3:TrackPointExtension>
        </extensions>
      </trkpt>
      <trkpt lat="24.48409278877079486846923828125" lon="118.1825586967170238494873046875">
        <ele>30.799999237060546875</ele>
        <time>2026-02-09T15:36:35.000Z</time>
        <extensions>
          <ns3:TrackPointExtension>
            <ns3:hr>137</ns3:hr>
            <ns3:cad>0</ns3:cad>
          </ns3:TrackPointExtension>
        </extensions>
      </trkpt>
      <trkpt lat="24.484086334705352783203125" lon="118.18255123682320117950439453125">
        <ele>31</ele>
        <time>2026-02-09T15:36:36.000Z</time>
        <extensions>
          <ns3:TrackPointExtension>
            <ns3:hr>137</ns3:hr>
            <ns3:cad>57</ns3:cad>
          </ns3:TrackPointExtension>
        </extensions>
      </trkpt>
      <trkpt lat="24.48408038355410099029541015625" lon="118.18254520185291767120361328125">
        <ele>31</ele>
        <time>2026-02-09T15:36:37.000Z</time>
        <extensions>
          <ns3:TrackPointExtension>
            <ns3:hr>136</ns3:hr>
            <ns3:cad>57</ns3:cad>
          </ns3:TrackPointExtension>
        </extensions>
      </trkpt>
      <trkpt lat="24.48407418094575405120849609375" lon="118.18253807723522186279296875">
        <ele>31</ele>
        <time>2026-02-09T15:36:38.000Z</time>
        <extensions>
          <ns3:TrackPointExtension>
            <ns3:hr>136</ns3:hr>
            <ns3:cad>56</ns3:cad>
          </ns3:TrackPointExtension>
        </extensions>
      </trkpt>
      <trkpt lat="24.48406797833740711212158203125" lon="118.18252927623689174652099609375">
        <ele>31</ele>
        <time>2026-02-09T15:36:39.000Z</time>
        <extensions>
          <ns3:TrackPointExtension>
            <ns3:hr>134</ns3:hr>
            <ns3:cad>56</ns3:cad>
          </ns3:TrackPointExtension>
        </extensions>
      </trkpt>
      <trkpt lat="24.4840600155293941497802734375" lon="118.18250848911702632904052734375">
        <ele>31</ele>
        <time>2026-02-09T15:36:40.000Z</time>
        <extensions>
          <ns3:TrackPointExtension>
            <ns3:hr>133</ns3:hr>
            <ns3:cad>56</ns3:cad>
          </ns3:TrackPointExtension>
        </extensions>
      </trkpt>
      <trkpt lat="24.484058506786823272705078125" lon="118.18249725736677646636962890625">
        <ele>31</ele>
        <time>2026-02-09T15:36:41.000Z</time>
        <extensions>
          <ns3:TrackPointExtension>
            <ns3:hr>132</ns3:hr>
            <ns3:cad>53</ns3:cad>
          </ns3:TrackPointExtension>
        </extensions>
      </trkpt>
      <trkpt lat="24.48405305854976177215576171875" lon="118.18248786963522434234619140625">
        <ele>31</ele>
        <time>2026-02-09T15:36:42.000Z</time>
        <extensions>
          <ns3:TrackPointExtension>
            <ns3:hr>132</ns3:hr>
            <ns3:cad>53</ns3:cad>
          </ns3:TrackPointExtension>
        </extensions>
      </trkpt>
      <trkpt lat="24.48404953815042972564697265625" lon="118.182478062808513641357421875">
        <ele>31</ele>
        <time>2026-02-09T15:36:43.000Z</time>
        <extensions>
          <ns3:TrackPointExtension>
            <ns3:hr>132</ns3:hr>
            <ns3:cad>53</ns3:cad>
          </ns3:TrackPointExtension>
        </extensions>
      </trkpt>
      <trkpt lat="24.484047107398509979248046875" lon="118.1824631430208683013916015625">
        <ele>31</ele>
        <time>2026-02-09T15:36:44.000Z</time>
        <extensions>
          <ns3:TrackPointExtension>
            <ns3:hr>132</ns3:hr>
            <ns3:cad>53</ns3:cad>
          </ns3:TrackPointExtension>
        </extensions>
      </trkpt>
      <trkpt lat="24.4840439222753047943115234375" lon="118.18245752714574337005615234375">
        <ele>31</ele>
        <time>2026-02-09T15:36:45.000Z</time>
        <extensions>
          <ns3:TrackPointExtension>
            <ns3:hr>132</ns3:hr>
            <ns3:cad>0</ns3:cad>
          </ns3:TrackPointExtension>
        </extensions>
      </trkpt>
      <trkpt lat="24.48405020870268344879150390625" lon="118.1824648194015026092529296875">
        <ele>31</ele>
        <time>2026-02-09T15:36:46.000Z</time>
        <extensions>
          <ns3:TrackPointExtension>
            <ns3:hr>132</ns3:hr>
            <ns3:cad>0</ns3:cad>
          </ns3:TrackPointExtension>
        </extensions>
      </trkpt>
      <trkpt lat="24.4840586744248867034912109375" lon="118.1824715249240398406982421875">
        <ele>31</ele>
        <time>2026-02-09T15:36:47.000Z</time>
        <extensions>
          <ns3:TrackPointExtension>
            <ns3:hr>131</ns3:hr>
            <ns3:cad>0</ns3:cad>
          </ns3:TrackPointExtension>
        </extensions>
      </trkpt>
      <trkpt lat="24.4840673916041851043701171875" lon="118.18247781135141849517822265625">
        <ele>31</ele>
        <time>2026-02-09T15:36:48.000Z</time>
        <extensions>
          <ns3:TrackPointExtension>
            <ns3:hr>131</ns3:hr>
            <ns3:cad>0</ns3:cad>
          </ns3:TrackPointExtension>
        </extensions>
      </trkpt>
      <trkpt lat="24.48408021591603755950927734375" lon="118.182488121092319488525390625">
        <ele>31</ele>
        <time>2026-02-09T15:36:49.000Z</time>
        <extensions>
          <ns3:TrackPointExtension>
            <ns3:hr>131</ns3:hr>
            <ns3:cad>0</ns3:cad>
          </ns3:TrackPointExtension>
        </extensions>
      </trkpt>
    </trkseg>
  </trk>
</gpx>
