<gpx xmlns:ns3="http://www.garmin.com/xmlschemas/TrackPointExtension/v1" xmlns="http://www.topografix.com/GPX/1/1" xmlns:xsi="http://www.w3.org/2001/XMLSchema-instance" xmlns:ns2="http://www.garmin.com/xmlschemas/GpxExtensions/v3" creator="Garmin Connect" version="1.1" xsi:schemaLocation="http://www.topografix.com/GPX/1/1 http://www.topografix.com/GPX/11.xsd">
  <extensions>
<distance>27162.62</distance>
<average_hr>130.0</average_hr>
<average_speed>0.9919999837875366</average_speed>
<start_time>2026-03-13T22:26:05+00:00</start_time>
<end_time>2026-03-14T06:02:36.822000+00:00</end_time>
<moving_time>20289.063</moving_time>
<elapsed_time>33481.172</elapsed_time>
</extensions>
<metadata>
    <link href="connect.garmin.com">
      <text>Garmin Connect</text>
    </link>
    <time>2026-03-13T22:26:05.000Z</time>
  </metadata>
  <trk>
    <name>厦门市 越野跑</name>
    <type>trail_running</type>
    <trkseg/>
  </trk>
</gpx>
