<gpx xmlns:ns3="http://www.garmin.com/xmlschemas/TrackPointExtension/v1" xmlns="http://www.topografix.com/GPX/1/1" xmlns:xsi="http://www.w3.org/2001/XMLSchema-instance" xmlns:ns2="http://www.garmin.com/xmlschemas/GpxExtensions/v3" creator="Garmin Connect" version="1.1" xsi:schemaLocation="http://www.topografix.com/GPX/1/1 http://www.topografix.com/GPX/11.xsd">
  <extensions>
<distance>52557.98</distance>
<average_hr>166.0</average_hr>
<average_speed>1.649999976158142</average_speed>
<start_time>2026-03-20T23:01:00+00:00</start_time>
<end_time>2026-03-21T07:51:45.449000+00:00</end_time>
<moving_time>29931.8</moving_time>
<elapsed_time>31845.449</elapsed_time>
</extensions>
<metadata>
    <link href="connect.garmin.com">
      <text>Garmin Connect</text>
    </link>
    <time>2026-03-20T23:01:00.000Z</time>
  </metadata>
  <trk>
    <name>高黎贡55km</name>
    <desc/>
    <type>trail_running</type>
    <trkseg/>
  </trk>
</gpx>
