<gpx xmlns:ns3="http://www.garmin.com/xmlschemas/TrackPointExtension/v1" xmlns="http://www.topografix.com/GPX/1/1" xmlns:xsi="http://www.w3.org/2001/XMLSchema-instance" xmlns:ns2="http://www.garmin.com/xmlschemas/GpxExtensions/v3" creator="Garmin Connect" version="1.1" xsi:schemaLocation="http://www.topografix.com/GPX/1/1 http://www.topografix.com/GPX/11.xsd">
  <extensions>
<distance>52506.27</distance>
<average_hr>144.0</average_hr>
<average_speed>1.4290000200271606</average_speed>
<start_time>2026-04-24T22:33:29+00:00</start_time>
<end_time>2026-04-25T08:45:47.848000+00:00</end_time>
<moving_time>30020.833</moving_time>
<elapsed_time>36738.848</elapsed_time>
</extensions>
<metadata>
    <link href="connect.garmin.com">
      <text>Garmin Connect</text>
    </link>
    <time>2026-04-24T22:33:29.000Z</time>
  </metadata>
  <trk>
    <name>怀柔区 越野跑</name>
    <type>trail_running</type>
    <trkseg/>
  </trk>
</gpx>
