<gpx xmlns:ns3="http://www.garmin.com/xmlschemas/TrackPointExtension/v1" xmlns="http://www.topografix.com/GPX/1/1" xmlns:xsi="http://www.w3.org/2001/XMLSchema-instance" xmlns:ns2="http://www.garmin.com/xmlschemas/GpxExtensions/v3" creator="Garmin Connect" version="1.1" xsi:schemaLocation="http://www.topografix.com/GPX/1/1 http://www.topografix.com/GPX/11.xsd">
  <extensions>
<distance>450.0</distance>
<average_hr></average_hr>
<average_speed>1.2039999961853027</average_speed>
<start_time>2019-05-18T11:16:46+00:00</start_time>
<end_time>2019-05-18T11:45:36.041000+00:00</end_time>
<moving_time>292.131</moving_time>
<elapsed_time>1889.897</elapsed_time>
</extensions>
<metadata>
    <link href="connect.garmin.com">
      <text>Garmin Connect</text>
    </link>
    <time>2019-05-18T11:16:46.000Z</time>
  </metadata>
  <trk>
    <name>泳道游泳</name>
    <type>lap_swimming</type>
    <trkseg/>
  </trk>
</gpx>
