<gpx xmlns:ns3="http://www.garmin.com/xmlschemas/TrackPointExtension/v1" xmlns="http://www.topografix.com/GPX/1/1" xmlns:xsi="http://www.w3.org/2001/XMLSchema-instance" xmlns:ns2="http://www.garmin.com/xmlschemas/GpxExtensions/v3" creator="Garmin Connect" version="1.1" xsi:schemaLocation="http://www.topografix.com/GPX/1/1 http://www.topografix.com/GPX/11.xsd">
  <extensions>
<distance>119.17</distance>
<average_hr>97.0</average_hr>
<average_speed>1.184000015258789</average_speed>
<start_time>2026-07-12T08:48:23+00:00</start_time>
<end_time>2026-07-12T08:50:03.613000+00:00</end_time>
<moving_time>85.0</moving_time>
<elapsed_time>100.613</elapsed_time>
</extensions>
<metadata>
    <link href="connect.garmin.com">
      <text>Garmin Connect</text>
    </link>
    <time>2026-07-12T08:48:23.000Z</time>
  </metadata>
  <trk>
    <name>厦门市 跑步</name>
    <type>running</type>
    <trkseg>
      <trkpt lat="24.49591227807104587554931640625" lon="118.14332879148423671722412109375">
        <ele>30.6000003814697265625</ele>
        <time>2026-07-12T08:48:23.000Z</time>
        <extensions>
          <ns3:TrackPointExtension>
            <ns3:hr>65</ns3:hr>
            <ns3:cad>0</ns3:cad>
          </ns3:TrackPointExtension>
        </extensions>
      </trkpt>
      <trkpt lat="24.49590188451111316680908203125" lon="118.1432646699249744415283203125">
        <ele>30.6000003814697265625</ele>
        <time>2026-07-12T08:48:24.000Z</time>
        <extensions>
          <ns3:TrackPointExtension>
            <ns3:hr>65</ns3:hr>
            <ns3:cad>0</ns3:cad>
          </ns3:TrackPointExtension>
        </extensions>
      </trkpt>
      <trkpt lat="24.495909847319126129150390625" lon="118.1432556174695491790771484375">
        <ele>30.6000003814697265625</ele>
        <time>2026-07-12T08:48:25.000Z</time>
        <extensions>
          <ns3:TrackPointExtension>
            <ns3:hr>64</ns3:hr>
            <ns3:cad>0</ns3:cad>
          </ns3:TrackPointExtension>
        </extensions>
      </trkpt>
      <trkpt lat="24.49591554701328277587890625" lon="118.14324631355702877044677734375">
        <ele>30.3999996185302734375</ele>
        <time>2026-07-12T08:48:26.000Z</time>
        <extensions>
          <ns3:TrackPointExtension>
            <ns3:hr>65</ns3:hr>
            <ns3:cad>0</ns3:cad>
          </ns3:TrackPointExtension>
        </extensions>
      </trkpt>
      <trkpt lat="24.49591982178390026092529296875" lon="118.143237344920635223388671875">
        <ele>30.3999996185302734375</ele>
        <time>2026-07-12T08:48:27.000Z</time>
        <extensions>
          <ns3:TrackPointExtension>
            <ns3:hr>65</ns3:hr>
            <ns3:cad>0</ns3:cad>
          </ns3:TrackPointExtension>
        </extensions>
      </trkpt>
      <trkpt lat="24.49593055061995983123779296875" lon="118.1432244367897510528564453125">
        <ele>30.3999996185302734375</ele>
        <time>2026-07-12T08:48:28.000Z</time>
        <extensions>
          <ns3:TrackPointExtension>
            <ns3:hr>65</ns3:hr>
            <ns3:cad>0</ns3:cad>
          </ns3:TrackPointExtension>
        </extensions>
      </trkpt>
      <trkpt lat="24.49593700468540191650390625" lon="118.143214546144008636474609375">
        <ele>30.3999996185302734375</ele>
        <time>2026-07-12T08:48:29.000Z</time>
        <extensions>
          <ns3:TrackPointExtension>
            <ns3:hr>65</ns3:hr>
            <ns3:cad>83</ns3:cad>
          </ns3:TrackPointExtension>
        </extensions>
      </trkpt>
      <trkpt lat="24.4959452189505100250244140625" lon="118.1432001292705535888671875">
        <ele>30.3999996185302734375</ele>
        <time>2026-07-12T08:48:30.000Z</time>
        <extensions>
          <ns3:TrackPointExtension>
            <ns3:hr>66</ns3:hr>
            <ns3:cad>85</ns3:cad>
          </ns3:TrackPointExtension>
        </extensions>
      </trkpt>
      <trkpt lat="24.49595309793949127197265625" lon="118.14318562857806682586669921875">
        <ele>30.6000003814697265625</ele>
        <time>2026-07-12T08:48:31.000Z</time>
        <extensions>
          <ns3:TrackPointExtension>
            <ns3:hr>66</ns3:hr>
            <ns3:cad>85</ns3:cad>
          </ns3:TrackPointExtension>
        </extensions>
      </trkpt>
      <trkpt lat="24.4959604740142822265625" lon="118.14316903240978717803955078125">
        <ele>30.6000003814697265625</ele>
        <time>2026-07-12T08:48:32.000Z</time>
        <extensions>
          <ns3:TrackPointExtension>
            <ns3:hr>66</ns3:hr>
            <ns3:cad>87</ns3:cad>
          </ns3:TrackPointExtension>
        </extensions>
      </trkpt>
      <trkpt lat="24.49596650898456573486328125" lon="118.14315562136471271514892578125">
        <ele>30.6000003814697265625</ele>
        <time>2026-07-12T08:48:33.000Z</time>
        <extensions>
          <ns3:TrackPointExtension>
            <ns3:hr>67</ns3:hr>
            <ns3:cad>87</ns3:cad>
          </ns3:TrackPointExtension>
        </extensions>
      </trkpt>
      <trkpt lat="24.49596516788005828857421875" lon="118.14314589835703372955322265625">
        <ele>30.6000003814697265625</ele>
        <time>2026-07-12T08:48:34.000Z</time>
        <extensions>
          <ns3:TrackPointExtension>
            <ns3:hr>68</ns3:hr>
            <ns3:cad>87</ns3:cad>
          </ns3:TrackPointExtension>
        </extensions>
      </trkpt>
      <trkpt lat="24.49596709571778774261474609375" lon="118.14313634298741817474365234375">
        <ele>30.6000003814697265625</ele>
        <time>2026-07-12T08:48:35.000Z</time>
        <extensions>
          <ns3:TrackPointExtension>
            <ns3:hr>69</ns3:hr>
            <ns3:cad>88</ns3:cad>
          </ns3:TrackPointExtension>
        </extensions>
      </trkpt>
      <trkpt lat="24.495963156223297119140625" lon="118.1431312300264835357666015625">
        <ele>30.6000003814697265625</ele>
        <time>2026-07-12T08:48:36.000Z</time>
        <extensions>
          <ns3:TrackPointExtension>
            <ns3:hr>70</ns3:hr>
            <ns3:cad>88</ns3:cad>
          </ns3:TrackPointExtension>
        </extensions>
      </trkpt>
      <trkpt lat="24.49595904909074306488037109375" lon="118.14312511123716831207275390625">
        <ele>30.6000003814697265625</ele>
        <time>2026-07-12T08:48:37.000Z</time>
        <extensions>
          <ns3:TrackPointExtension>
            <ns3:hr>71</ns3:hr>
            <ns3:cad>88</ns3:cad>
          </ns3:TrackPointExtension>
        </extensions>
      </trkpt>
      <trkpt lat="24.49595452286303043365478515625" lon="118.14311924390494823455810546875">
        <ele>30.799999237060546875</ele>
        <time>2026-07-12T08:48:38.000Z</time>
        <extensions>
          <ns3:TrackPointExtension>
            <ns3:hr>71</ns3:hr>
            <ns3:cad>88</ns3:cad>
          </ns3:TrackPointExtension>
        </extensions>
      </trkpt>
      <trkpt lat="24.49595117010176181793212890625" lon="118.14311019144952297210693359375">
        <ele>30.799999237060546875</ele>
        <time>2026-07-12T08:48:39.000Z</time>
        <extensions>
          <ns3:TrackPointExtension>
            <ns3:hr>72</ns3:hr>
            <ns3:cad>88</ns3:cad>
          </ns3:TrackPointExtension>
        </extensions>
      </trkpt>
      <trkpt lat="24.4959430396556854248046875" lon="118.14310600049793720245361328125">
        <ele>30.799999237060546875</ele>
        <time>2026-07-12T08:48:40.000Z</time>
        <extensions>
          <ns3:TrackPointExtension>
            <ns3:hr>72</ns3:hr>
            <ns3:cad>88</ns3:cad>
          </ns3:TrackPointExtension>
        </extensions>
      </trkpt>
      <trkpt lat="24.4959361664950847625732421875" lon="118.1431027315557003021240234375">
        <ele>31</ele>
        <time>2026-07-12T08:48:41.000Z</time>
        <extensions>
          <ns3:TrackPointExtension>
            <ns3:hr>72</ns3:hr>
            <ns3:cad>88</ns3:cad>
          </ns3:TrackPointExtension>
        </extensions>
      </trkpt>
      <trkpt lat="24.49591965414583683013916015625" lon="118.14310382120311260223388671875">
        <ele>31</ele>
        <time>2026-07-12T08:48:42.000Z</time>
        <extensions>
          <ns3:TrackPointExtension>
            <ns3:hr>73</ns3:hr>
            <ns3:cad>87</ns3:cad>
          </ns3:TrackPointExtension>
        </extensions>
      </trkpt>
      <trkpt lat="24.49590942822396755218505859375" lon="118.14309996552765369415283203125">
        <ele>31</ele>
        <time>2026-07-12T08:48:43.000Z</time>
        <extensions>
          <ns3:TrackPointExtension>
            <ns3:hr>73</ns3:hr>
            <ns3:cad>87</ns3:cad>
          </ns3:TrackPointExtension>
        </extensions>
      </trkpt>
      <trkpt lat="24.4959012977778911590576171875" lon="118.14309217035770416259765625">
        <ele>31</ele>
        <time>2026-07-12T08:48:44.000Z</time>
        <extensions>
          <ns3:TrackPointExtension>
            <ns3:hr>73</ns3:hr>
            <ns3:cad>87</ns3:cad>
          </ns3:TrackPointExtension>
        </extensions>
      </trkpt>
      <trkpt lat="24.49589752592146396636962890625" lon="118.14308688975870609283447265625">
        <ele>31</ele>
        <time>2026-07-12T08:48:45.000Z</time>
        <extensions>
          <ns3:TrackPointExtension>
            <ns3:hr>74</ns3:hr>
            <ns3:cad>88</ns3:cad>
          </ns3:TrackPointExtension>
        </extensions>
      </trkpt>
      <trkpt lat="24.49587841518223285675048828125" lon="118.1430876441299915313720703125">
        <ele>31</ele>
        <time>2026-07-12T08:48:46.000Z</time>
        <extensions>
          <ns3:TrackPointExtension>
            <ns3:hr>75</ns3:hr>
            <ns3:cad>89</ns3:cad>
          </ns3:TrackPointExtension>
        </extensions>
      </trkpt>
      <trkpt lat="24.495858214795589447021484375" lon="118.1430816091597080230712890625">
        <ele>31</ele>
        <time>2026-07-12T08:48:47.000Z</time>
        <extensions>
          <ns3:TrackPointExtension>
            <ns3:hr>79</ns3:hr>
            <ns3:cad>88</ns3:cad>
          </ns3:TrackPointExtension>
        </extensions>
      </trkpt>
      <trkpt lat="24.49584606103599071502685546875" lon="118.1430795975029468536376953125">
        <ele>30.799999237060546875</ele>
        <time>2026-07-12T08:48:48.000Z</time>
        <extensions>
          <ns3:TrackPointExtension>
            <ns3:hr>86</ns3:hr>
            <ns3:cad>88</ns3:cad>
          </ns3:TrackPointExtension>
        </extensions>
      </trkpt>
      <trkpt lat="24.49583239853382110595703125" lon="118.143070377409458160400390625">
        <ele>30.799999237060546875</ele>
        <time>2026-07-12T08:48:49.000Z</time>
        <extensions>
          <ns3:TrackPointExtension>
            <ns3:hr>94</ns3:hr>
            <ns3:cad>88</ns3:cad>
          </ns3:TrackPointExtension>
        </extensions>
      </trkpt>
      <trkpt lat="24.49582192115485668182373046875" lon="118.1430611573159694671630859375">
        <ele>30.799999237060546875</ele>
        <time>2026-07-12T08:48:50.000Z</time>
        <extensions>
          <ns3:TrackPointExtension>
            <ns3:hr>96</ns3:hr>
            <ns3:cad>88</ns3:cad>
          </ns3:TrackPointExtension>
        </extensions>
      </trkpt>
      <trkpt lat="24.4958134554326534271240234375" lon="118.14305386506021022796630859375">
        <ele>30.6000003814697265625</ele>
        <time>2026-07-12T08:48:51.000Z</time>
        <extensions>
          <ns3:TrackPointExtension>
            <ns3:hr>97</ns3:hr>
            <ns3:cad>88</ns3:cad>
          </ns3:TrackPointExtension>
        </extensions>
      </trkpt>
      <trkpt lat="24.4958089292049407958984375" lon="118.14303743652999401092529296875">
        <ele>30.6000003814697265625</ele>
        <time>2026-07-12T08:48:52.000Z</time>
        <extensions>
          <ns3:TrackPointExtension>
            <ns3:hr>98</ns3:hr>
            <ns3:cad>88</ns3:cad>
          </ns3:TrackPointExtension>
        </extensions>
      </trkpt>
      <trkpt lat="24.495799206197261810302734375" lon="118.14303123392164707183837890625">
        <ele>30.6000003814697265625</ele>
        <time>2026-07-12T08:48:53.000Z</time>
        <extensions>
          <ns3:TrackPointExtension>
            <ns3:hr>98</ns3:hr>
            <ns3:cad>88</ns3:cad>
          </ns3:TrackPointExtension>
        </extensions>
      </trkpt>
      <trkpt lat="24.49579752981662750244140625" lon="118.1430231034755706787109375">
        <ele>30.3999996185302734375</ele>
        <time>2026-07-12T08:48:54.000Z</time>
        <extensions>
          <ns3:TrackPointExtension>
            <ns3:hr>98</ns3:hr>
            <ns3:cad>88</ns3:cad>
          </ns3:TrackPointExtension>
        </extensions>
      </trkpt>
      <trkpt lat="24.49578939937055110931396484375" lon="118.143013380467891693115234375">
        <ele>30.3999996185302734375</ele>
        <time>2026-07-12T08:48:55.000Z</time>
        <extensions>
          <ns3:TrackPointExtension>
            <ns3:hr>99</ns3:hr>
            <ns3:cad>88</ns3:cad>
          </ns3:TrackPointExtension>
        </extensions>
      </trkpt>
      <trkpt lat="24.49578680098056793212890625" lon="118.14300424419343471527099609375">
        <ele>30.3999996185302734375</ele>
        <time>2026-07-12T08:48:56.000Z</time>
        <extensions>
          <ns3:TrackPointExtension>
            <ns3:hr>99</ns3:hr>
            <ns3:cad>86</ns3:cad>
          </ns3:TrackPointExtension>
        </extensions>
      </trkpt>
      <trkpt lat="24.4957673549652099609375" lon="118.14299762248992919921875">
        <ele>30.3999996185302734375</ele>
        <time>2026-07-12T08:48:57.000Z</time>
        <extensions>
          <ns3:TrackPointExtension>
            <ns3:hr>98</ns3:hr>
            <ns3:cad>86</ns3:cad>
          </ns3:TrackPointExtension>
        </extensions>
      </trkpt>
      <trkpt lat="24.4957606494426727294921875" lon="118.14298043958842754364013671875">
        <ele>30.3999996185302734375</ele>
        <time>2026-07-12T08:48:58.000Z</time>
        <extensions>
          <ns3:TrackPointExtension>
            <ns3:hr>99</ns3:hr>
            <ns3:cad>86</ns3:cad>
          </ns3:TrackPointExtension>
        </extensions>
      </trkpt>
      <trkpt lat="24.4957458972930908203125" lon="118.1429622508585453033447265625">
        <ele>30.200000762939453125</ele>
        <time>2026-07-12T08:48:59.000Z</time>
        <extensions>
          <ns3:TrackPointExtension>
            <ns3:hr>99</ns3:hr>
            <ns3:cad>86</ns3:cad>
          </ns3:TrackPointExtension>
        </extensions>
      </trkpt>
      <trkpt lat="24.49573810212314128875732421875" lon="118.1429474987089633941650390625">
        <ele>30.200000762939453125</ele>
        <time>2026-07-12T08:49:00.000Z</time>
        <extensions>
          <ns3:TrackPointExtension>
            <ns3:hr>99</ns3:hr>
            <ns3:cad>86</ns3:cad>
          </ns3:TrackPointExtension>
        </extensions>
      </trkpt>
      <trkpt lat="24.495726786553859710693359375" lon="118.14293048344552516937255859375">
        <ele>30.200000762939453125</ele>
        <time>2026-07-12T08:49:01.000Z</time>
        <extensions>
          <ns3:TrackPointExtension>
            <ns3:hr>100</ns3:hr>
            <ns3:cad>87</ns3:cad>
          </ns3:TrackPointExtension>
        </extensions>
      </trkpt>
      <trkpt lat="24.49571848846971988677978515625" lon="118.1429166533052921295166015625">
        <ele>30.200000762939453125</ele>
        <time>2026-07-12T08:49:02.000Z</time>
        <extensions>
          <ns3:TrackPointExtension>
            <ns3:hr>100</ns3:hr>
            <ns3:cad>87</ns3:cad>
          </ns3:TrackPointExtension>
        </extensions>
      </trkpt>
      <trkpt lat="24.4956981204450130462646484375" lon="118.14290517009794712066650390625">
        <ele>30.3999996185302734375</ele>
        <time>2026-07-12T08:49:03.000Z</time>
        <extensions>
          <ns3:TrackPointExtension>
            <ns3:hr>101</ns3:hr>
            <ns3:cad>87</ns3:cad>
          </ns3:TrackPointExtension>
        </extensions>
      </trkpt>
      <trkpt lat="24.4956927560269832611083984375" lon="118.142886646091938018798828125">
        <ele>30.3999996185302734375</ele>
        <time>2026-07-12T08:49:04.000Z</time>
        <extensions>
          <ns3:TrackPointExtension>
            <ns3:hr>102</ns3:hr>
            <ns3:cad>87</ns3:cad>
          </ns3:TrackPointExtension>
        </extensions>
      </trkpt>
      <trkpt lat="24.49568697251379489898681640625" lon="118.14286896027624607086181640625">
        <ele>30.6000003814697265625</ele>
        <time>2026-07-12T08:49:05.000Z</time>
        <extensions>
          <ns3:TrackPointExtension>
            <ns3:hr>103</ns3:hr>
            <ns3:cad>87</ns3:cad>
          </ns3:TrackPointExtension>
        </extensions>
      </trkpt>
      <trkpt lat="24.4956796802580356597900390625" lon="118.14285655505955219268798828125">
        <ele>30.6000003814697265625</ele>
        <time>2026-07-12T08:49:06.000Z</time>
        <extensions>
          <ns3:TrackPointExtension>
            <ns3:hr>104</ns3:hr>
            <ns3:cad>87</ns3:cad>
          </ns3:TrackPointExtension>
        </extensions>
      </trkpt>
      <trkpt lat="24.495672471821308135986328125" lon="118.14284834079444408416748046875">
        <ele>30.799999237060546875</ele>
        <time>2026-07-12T08:49:07.000Z</time>
        <extensions>
          <ns3:TrackPointExtension>
            <ns3:hr>104</ns3:hr>
            <ns3:cad>85</ns3:cad>
          </ns3:TrackPointExtension>
        </extensions>
      </trkpt>
      <trkpt lat="24.49566652067005634307861328125" lon="118.142844401299953460693359375">
        <ele>30.6000003814697265625</ele>
        <time>2026-07-12T08:49:08.000Z</time>
        <extensions>
          <ns3:TrackPointExtension>
            <ns3:hr>104</ns3:hr>
            <ns3:cad>85</ns3:cad>
          </ns3:TrackPointExtension>
        </extensions>
      </trkpt>
      <trkpt lat="24.49566400609910488128662109375" lon="118.14284163527190685272216796875">
        <ele>30.6000003814697265625</ele>
        <time>2026-07-12T08:49:09.000Z</time>
        <extensions>
          <ns3:TrackPointExtension>
            <ns3:hr>105</ns3:hr>
            <ns3:cad>85</ns3:cad>
          </ns3:TrackPointExtension>
        </extensions>
      </trkpt>
      <trkpt lat="24.49565126560628414154052734375" lon="118.142839036881923675537109375">
        <ele>30.6000003814697265625</ele>
        <time>2026-07-12T08:49:10.000Z</time>
        <extensions>
          <ns3:TrackPointExtension>
            <ns3:hr>104</ns3:hr>
            <ns3:cad>85</ns3:cad>
          </ns3:TrackPointExtension>
        </extensions>
      </trkpt>
      <trkpt lat="24.49564405716955661773681640625" lon="118.142841719090938568115234375">
        <ele>30.6000003814697265625</ele>
        <time>2026-07-12T08:49:11.000Z</time>
        <extensions>
          <ns3:TrackPointExtension>
            <ns3:hr>105</ns3:hr>
            <ns3:cad>85</ns3:cad>
          </ns3:TrackPointExtension>
        </extensions>
      </trkpt>
      <trkpt lat="24.49563927948474884033203125" lon="118.14284280873835086822509765625">
        <ele>30.6000003814697265625</ele>
        <time>2026-07-12T08:49:12.000Z</time>
        <extensions>
          <ns3:TrackPointExtension>
            <ns3:hr>105</ns3:hr>
            <ns3:cad>85</ns3:cad>
          </ns3:TrackPointExtension>
        </extensions>
      </trkpt>
      <trkpt lat="24.495630227029323577880859375" lon="118.1428479216992855072021484375">
        <ele>30.6000003814697265625</ele>
        <time>2026-07-12T08:49:13.000Z</time>
        <extensions>
          <ns3:TrackPointExtension>
            <ns3:hr>105</ns3:hr>
            <ns3:cad>85</ns3:cad>
          </ns3:TrackPointExtension>
        </extensions>
      </trkpt>
      <trkpt lat="24.49563324451446533203125" lon="118.142855130136013031005859375">
        <ele>30.6000003814697265625</ele>
        <time>2026-07-12T08:49:14.000Z</time>
        <extensions>
          <ns3:TrackPointExtension>
            <ns3:hr>106</ns3:hr>
            <ns3:cad>85</ns3:cad>
          </ns3:TrackPointExtension>
        </extensions>
      </trkpt>
      <trkpt lat="24.49563399888575077056884765625" lon="118.1428663618862628936767578125">
        <ele>30.6000003814697265625</ele>
        <time>2026-07-12T08:49:15.000Z</time>
        <extensions>
          <ns3:TrackPointExtension>
            <ns3:hr>106</ns3:hr>
            <ns3:cad>86</ns3:cad>
          </ns3:TrackPointExtension>
        </extensions>
      </trkpt>
      <trkpt lat="24.4956505112349987030029296875" lon="118.142871893942356109619140625">
        <ele>30.799999237060546875</ele>
        <time>2026-07-12T08:49:16.000Z</time>
        <extensions>
          <ns3:TrackPointExtension>
            <ns3:hr>106</ns3:hr>
            <ns3:cad>86</ns3:cad>
          </ns3:TrackPointExtension>
        </extensions>
      </trkpt>
      <trkpt lat="24.4956692866981029510498046875" lon="118.1428730674088001251220703125">
        <ele>30.799999237060546875</ele>
        <time>2026-07-12T08:49:17.000Z</time>
        <extensions>
          <ns3:TrackPointExtension>
            <ns3:hr>107</ns3:hr>
            <ns3:cad>86</ns3:cad>
          </ns3:TrackPointExtension>
        </extensions>
      </trkpt>
      <trkpt lat="24.49568395502865314483642578125" lon="118.14287013374269008636474609375">
        <ele>31</ele>
        <time>2026-07-12T08:49:18.000Z</time>
        <extensions>
          <ns3:TrackPointExtension>
            <ns3:hr>107</ns3:hr>
            <ns3:cad>87</ns3:cad>
          </ns3:TrackPointExtension>
        </extensions>
      </trkpt>
      <trkpt lat="24.4956981204450130462646484375" lon="118.14287264831364154815673828125">
        <ele>31</ele>
        <time>2026-07-12T08:49:19.000Z</time>
        <extensions>
          <ns3:TrackPointExtension>
            <ns3:hr>107</ns3:hr>
            <ns3:cad>87</ns3:cad>
          </ns3:TrackPointExtension>
        </extensions>
      </trkpt>
      <trkpt lat="24.49571010656654834747314453125" lon="118.14288027584552764892578125">
        <ele>31</ele>
        <time>2026-07-12T08:49:20.000Z</time>
        <extensions>
          <ns3:TrackPointExtension>
            <ns3:hr>106</ns3:hr>
            <ns3:cad>87</ns3:cad>
          </ns3:TrackPointExtension>
        </extensions>
      </trkpt>
      <trkpt lat="24.49572100304067134857177734375" lon="118.14288404770195484161376953125">
        <ele>31</ele>
        <time>2026-07-12T08:49:21.000Z</time>
        <extensions>
          <ns3:TrackPointExtension>
            <ns3:hr>107</ns3:hr>
            <ns3:cad>87</ns3:cad>
          </ns3:TrackPointExtension>
        </extensions>
      </trkpt>
      <trkpt lat="24.4957333244383335113525390625" lon="118.14288941211998462677001953125">
        <ele>31</ele>
        <time>2026-07-12T08:49:22.000Z</time>
        <extensions>
          <ns3:TrackPointExtension>
            <ns3:hr>108</ns3:hr>
            <ns3:cad>87</ns3:cad>
          </ns3:TrackPointExtension>
        </extensions>
      </trkpt>
      <trkpt lat="24.49574061669409275054931640625" lon="118.14289108850061893463134765625">
        <ele>30.799999237060546875</ele>
        <time>2026-07-12T08:49:23.000Z</time>
        <extensions>
          <ns3:TrackPointExtension>
            <ns3:hr>107</ns3:hr>
            <ns3:cad>87</ns3:cad>
          </ns3:TrackPointExtension>
        </extensions>
      </trkpt>
      <trkpt lat="24.4957477413117885589599609375" lon="118.14288639463484287261962890625">
        <ele>30.799999237060546875</ele>
        <time>2026-07-12T08:49:24.000Z</time>
        <extensions>
          <ns3:TrackPointExtension>
            <ns3:hr>107</ns3:hr>
            <ns3:cad>0</ns3:cad>
          </ns3:TrackPointExtension>
        </extensions>
      </trkpt>
      <trkpt lat="24.4957561232149600982666015625" lon="118.14287960529327392578125">
        <ele>30.799999237060546875</ele>
        <time>2026-07-12T08:49:25.000Z</time>
        <extensions>
          <ns3:TrackPointExtension>
            <ns3:hr>108</ns3:hr>
            <ns3:cad>0</ns3:cad>
          </ns3:TrackPointExtension>
        </extensions>
      </trkpt>
      <trkpt lat="24.49576458893716335296630859375" lon="118.14287750981748104095458984375">
        <ele>30.799999237060546875</ele>
        <time>2026-07-12T08:49:26.000Z</time>
        <extensions>
          <ns3:TrackPointExtension>
            <ns3:hr>108</ns3:hr>
            <ns3:cad>0</ns3:cad>
          </ns3:TrackPointExtension>
        </extensions>
      </trkpt>
      <trkpt lat="24.49577682651579380035400390625" lon="118.1428757496178150177001953125">
        <ele>30.799999237060546875</ele>
        <time>2026-07-12T08:49:27.000Z</time>
        <extensions>
          <ns3:TrackPointExtension>
            <ns3:hr>108</ns3:hr>
            <ns3:cad>0</ns3:cad>
          </ns3:TrackPointExtension>
        </extensions>
      </trkpt>
      <trkpt lat="24.49578143656253814697265625" lon="118.14288035966455936431884765625">
        <ele>30.799999237060546875</ele>
        <time>2026-07-12T08:49:28.000Z</time>
        <extensions>
          <ns3:TrackPointExtension>
            <ns3:hr>108</ns3:hr>
            <ns3:cad>0</ns3:cad>
          </ns3:TrackPointExtension>
        </extensions>
      </trkpt>
      <trkpt lat="24.495801217854022979736328125" lon="118.14289913512766361236572265625">
        <ele>30.6000003814697265625</ele>
        <time>2026-07-12T08:49:29.000Z</time>
        <extensions>
          <ns3:TrackPointExtension>
            <ns3:hr>108</ns3:hr>
            <ns3:cad>0</ns3:cad>
          </ns3:TrackPointExtension>
        </extensions>
      </trkpt>
      <trkpt lat="24.4958137907087802886962890625" lon="118.14291371963918209075927734375">
        <ele>30.6000003814697265625</ele>
        <time>2026-07-12T08:49:30.000Z</time>
        <extensions>
          <ns3:TrackPointExtension>
            <ns3:hr>109</ns3:hr>
            <ns3:cad>0</ns3:cad>
          </ns3:TrackPointExtension>
        </extensions>
      </trkpt>
      <trkpt lat="24.49582544155418872833251953125" lon="118.14292629249393939971923828125">
        <ele>30.3999996185302734375</ele>
        <time>2026-07-12T08:49:31.000Z</time>
        <extensions>
          <ns3:TrackPointExtension>
            <ns3:hr>108</ns3:hr>
            <ns3:cad>0</ns3:cad>
          </ns3:TrackPointExtension>
        </extensions>
      </trkpt>
      <trkpt lat="24.4958463124930858612060546875" lon="118.14294741488993167877197265625">
        <ele>30.3999996185302734375</ele>
        <time>2026-07-12T08:49:32.000Z</time>
        <extensions>
          <ns3:TrackPointExtension>
            <ns3:hr>108</ns3:hr>
            <ns3:cad>0</ns3:cad>
          </ns3:TrackPointExtension>
        </extensions>
      </trkpt>
      <trkpt lat="24.49586483649909496307373046875" lon="118.14296543598175048828125">
        <ele>30.3999996185302734375</ele>
        <time>2026-07-12T08:49:33.000Z</time>
        <extensions>
          <ns3:TrackPointExtension>
            <ns3:hr>108</ns3:hr>
            <ns3:cad>86</ns3:cad>
          </ns3:TrackPointExtension>
        </extensions>
      </trkpt>
      <trkpt lat="24.49587975628674030303955078125" lon="118.14298479817807674407958984375">
        <ele>30.3999996185302734375</ele>
        <time>2026-07-12T08:49:34.000Z</time>
        <extensions>
          <ns3:TrackPointExtension>
            <ns3:hr>107</ns3:hr>
            <ns3:cad>86</ns3:cad>
          </ns3:TrackPointExtension>
        </extensions>
      </trkpt>
      <trkpt lat="24.49589383788406848907470703125" lon="118.14300307072699069976806640625">
        <ele>30.6000003814697265625</ele>
        <time>2026-07-12T08:49:35.000Z</time>
        <extensions>
          <ns3:TrackPointExtension>
            <ns3:hr>106</ns3:hr>
            <ns3:cad>87</ns3:cad>
          </ns3:TrackPointExtension>
        </extensions>
      </trkpt>
      <trkpt lat="24.4959028065204620361328125" lon="118.1430189125239849090576171875">
        <ele>30.6000003814697265625</ele>
        <time>2026-07-12T08:49:36.000Z</time>
        <extensions>
          <ns3:TrackPointExtension>
            <ns3:hr>105</ns3:hr>
            <ns3:cad>87</ns3:cad>
          </ns3:TrackPointExtension>
        </extensions>
      </trkpt>
      <trkpt lat="24.49591881595551967620849609375" lon="118.14303827472031116485595703125">
        <ele>30.6000003814697265625</ele>
        <time>2026-07-12T08:49:37.000Z</time>
        <extensions>
          <ns3:TrackPointExtension>
            <ns3:hr>106</ns3:hr>
            <ns3:cad>87</ns3:cad>
          </ns3:TrackPointExtension>
        </extensions>
      </trkpt>
      <trkpt lat="24.49593029916286468505859375" lon="118.1430531106889247894287109375">
        <ele>30.6000003814697265625</ele>
        <time>2026-07-12T08:49:38.000Z</time>
        <extensions>
          <ns3:TrackPointExtension>
            <ns3:hr>106</ns3:hr>
            <ns3:cad>87</ns3:cad>
          </ns3:TrackPointExtension>
        </extensions>
      </trkpt>
      <trkpt lat="24.49594144709408283233642578125" lon="118.1430692039430141448974609375">
        <ele>30.6000003814697265625</ele>
        <time>2026-07-12T08:49:39.000Z</time>
        <extensions>
          <ns3:TrackPointExtension>
            <ns3:hr>107</ns3:hr>
            <ns3:cad>86</ns3:cad>
          </ns3:TrackPointExtension>
        </extensions>
      </trkpt>
      <trkpt lat="24.49594681151211261749267578125" lon="118.143077753484249114990234375">
        <ele>30.6000003814697265625</ele>
        <time>2026-07-12T08:49:40.000Z</time>
        <extensions>
          <ns3:TrackPointExtension>
            <ns3:hr>106</ns3:hr>
            <ns3:cad>85</ns3:cad>
          </ns3:TrackPointExtension>
        </extensions>
      </trkpt>
      <trkpt lat="24.49594764970242977142333984375" lon="118.1430993787944316864013671875">
        <ele>30.6000003814697265625</ele>
        <time>2026-07-12T08:49:41.000Z</time>
        <extensions>
          <ns3:TrackPointExtension>
            <ns3:hr>106</ns3:hr>
            <ns3:cad>84</ns3:cad>
          </ns3:TrackPointExtension>
        </extensions>
      </trkpt>
      <trkpt lat="24.49594815261662006378173828125" lon="118.1431255303323268890380859375">
        <ele>30.6000003814697265625</ele>
        <time>2026-07-12T08:49:42.000Z</time>
        <extensions>
          <ns3:TrackPointExtension>
            <ns3:hr>106</ns3:hr>
            <ns3:cad>84</ns3:cad>
          </ns3:TrackPointExtension>
        </extensions>
      </trkpt>
      <trkpt lat="24.4959485717117786407470703125" lon="118.1431330740451812744140625">
        <ele>30.6000003814697265625</ele>
        <time>2026-07-12T08:49:43.000Z</time>
        <extensions>
          <ns3:TrackPointExtension>
            <ns3:hr>107</ns3:hr>
            <ns3:cad>85</ns3:cad>
          </ns3:TrackPointExtension>
        </extensions>
      </trkpt>
      <trkpt lat="24.49594966135919094085693359375" lon="118.14314941875636577606201171875">
        <ele>30.6000003814697265625</ele>
        <time>2026-07-12T08:49:44.000Z</time>
        <extensions>
          <ns3:TrackPointExtension>
            <ns3:hr>107</ns3:hr>
            <ns3:cad>85</ns3:cad>
          </ns3:TrackPointExtension>
        </extensions>
      </trkpt>
      <trkpt lat="24.49594764970242977142333984375" lon="118.14316534437239170074462890625">
        <ele>30.3999996185302734375</ele>
        <time>2026-07-12T08:49:45.000Z</time>
        <extensions>
          <ns3:TrackPointExtension>
            <ns3:hr>109</ns3:hr>
            <ns3:cad>85</ns3:cad>
          </ns3:TrackPointExtension>
        </extensions>
      </trkpt>
      <trkpt lat="24.4959484040737152099609375" lon="118.14317573793232440948486328125">
        <ele>30.3999996185302734375</ele>
        <time>2026-07-12T08:49:46.000Z</time>
        <extensions>
          <ns3:TrackPointExtension>
            <ns3:hr>110</ns3:hr>
            <ns3:cad>86</ns3:cad>
          </ns3:TrackPointExtension>
        </extensions>
      </trkpt>
      <trkpt lat="24.4959475658833980560302734375" lon="118.14318470656871795654296875">
        <ele>30.3999996185302734375</ele>
        <time>2026-07-12T08:49:47.000Z</time>
        <extensions>
          <ns3:TrackPointExtension>
            <ns3:hr>111</ns3:hr>
            <ns3:cad>86</ns3:cad>
          </ns3:TrackPointExtension>
        </extensions>
      </trkpt>
      <trkpt lat="24.4959515891969203948974609375" lon="118.143188394606113433837890625">
        <ele>30.3999996185302734375</ele>
        <time>2026-07-12T08:49:48.000Z</time>
        <extensions>
          <ns3:TrackPointExtension>
            <ns3:hr>111</ns3:hr>
            <ns3:cad>86</ns3:cad>
          </ns3:TrackPointExtension>
        </extensions>
      </trkpt>
      <trkpt lat="24.4959485717117786407470703125" lon="118.14319543540477752685546875">
        <ele>30.3999996185302734375</ele>
        <time>2026-07-12T08:49:49.000Z</time>
        <extensions>
          <ns3:TrackPointExtension>
            <ns3:hr>111</ns3:hr>
            <ns3:cad>0</ns3:cad>
          </ns3:TrackPointExtension>
        </extensions>
      </trkpt>
      <trkpt lat="24.49594345875084400177001953125" lon="118.143197782337665557861328125">
        <ele>30.3999996185302734375</ele>
        <time>2026-07-12T08:49:50.000Z</time>
        <extensions>
          <ns3:TrackPointExtension>
            <ns3:hr>111</ns3:hr>
            <ns3:cad>0</ns3:cad>
          </ns3:TrackPointExtension>
        </extensions>
      </trkpt>
      <trkpt lat="24.4959371723234653472900390625" lon="118.143202476203441619873046875">
        <ele>30.3999996185302734375</ele>
        <time>2026-07-12T08:49:51.000Z</time>
        <extensions>
          <ns3:TrackPointExtension>
            <ns3:hr>111</ns3:hr>
            <ns3:cad>0</ns3:cad>
          </ns3:TrackPointExtension>
        </extensions>
      </trkpt>
      <trkpt lat="24.49593759141862392425537109375" lon="118.1431865505874156951904296875">
        <ele>30.3999996185302734375</ele>
        <time>2026-07-12T08:49:52.000Z</time>
        <extensions>
          <ns3:TrackPointExtension>
            <ns3:hr>111</ns3:hr>
            <ns3:cad>0</ns3:cad>
          </ns3:TrackPointExtension>
        </extensions>
      </trkpt>
      <trkpt lat="24.4959403574466705322265625" lon="118.14319015480577945709228515625">
        <ele>30.3999996185302734375</ele>
        <time>2026-07-12T08:49:53.000Z</time>
        <extensions>
          <ns3:TrackPointExtension>
            <ns3:hr>111</ns3:hr>
            <ns3:cad>0</ns3:cad>
          </ns3:TrackPointExtension>
        </extensions>
      </trkpt>
      <trkpt lat="24.495942704379558563232421875" lon="118.1432039849460124969482421875">
        <ele>30.3999996185302734375</ele>
        <time>2026-07-12T08:49:54.000Z</time>
        <extensions>
          <ns3:TrackPointExtension>
            <ns3:hr>110</ns3:hr>
            <ns3:cad>0</ns3:cad>
          </ns3:TrackPointExtension>
        </extensions>
      </trkpt>
      <trkpt lat="24.49593675322830677032470703125" lon="118.14321211539208889007568359375">
        <ele>30.3999996185302734375</ele>
        <time>2026-07-12T08:49:55.000Z</time>
        <extensions>
          <ns3:TrackPointExtension>
            <ns3:hr>109</ns3:hr>
            <ns3:cad>0</ns3:cad>
          </ns3:TrackPointExtension>
        </extensions>
      </trkpt>
      <trkpt lat="24.49593658559024333953857421875" lon="118.1432160548865795135498046875">
        <ele>30.3999996185302734375</ele>
        <time>2026-07-12T08:49:56.000Z</time>
        <extensions>
          <ns3:TrackPointExtension>
            <ns3:hr>109</ns3:hr>
            <ns3:cad>0</ns3:cad>
          </ns3:TrackPointExtension>
        </extensions>
      </trkpt>
      <trkpt lat="24.49593926779925823211669921875" lon="118.14324195496737957000732421875">
        <ele>30.3999996185302734375</ele>
        <time>2026-07-12T08:49:57.000Z</time>
        <extensions>
          <ns3:TrackPointExtension>
            <ns3:hr>109</ns3:hr>
            <ns3:cad>0</ns3:cad>
          </ns3:TrackPointExtension>
        </extensions>
      </trkpt>
      <trkpt lat="24.495937339961528778076171875" lon="118.14325318671762943267822265625">
        <ele>30.3999996185302734375</ele>
        <time>2026-07-12T08:49:58.000Z</time>
        <extensions>
          <ns3:TrackPointExtension>
            <ns3:hr>109</ns3:hr>
            <ns3:cad>0</ns3:cad>
          </ns3:TrackPointExtension>
        </extensions>
      </trkpt>
      <trkpt lat="24.4959269464015960693359375" lon="118.14326860941946506500244140625">
        <ele>30.3999996185302734375</ele>
        <time>2026-07-12T08:49:59.000Z</time>
        <extensions>
          <ns3:TrackPointExtension>
            <ns3:hr>109</ns3:hr>
            <ns3:cad>0</ns3:cad>
          </ns3:TrackPointExtension>
        </extensions>
      </trkpt>
      <trkpt lat="24.49591663666069507598876953125" lon="118.14328805543482303619384765625">
        <ele>30.3999996185302734375</ele>
        <time>2026-07-12T08:50:00.000Z</time>
        <extensions>
          <ns3:TrackPointExtension>
            <ns3:hr>109</ns3:hr>
            <ns3:cad>0</ns3:cad>
          </ns3:TrackPointExtension>
        </extensions>
      </trkpt>
      <trkpt lat="24.4959076680243015289306640625" lon="118.14330398105084896087646484375">
        <ele>30.6000003814697265625</ele>
        <time>2026-07-12T08:50:01.000Z</time>
        <extensions>
          <ns3:TrackPointExtension>
            <ns3:hr>110</ns3:hr>
            <ns3:cad>0</ns3:cad>
          </ns3:TrackPointExtension>
        </extensions>
      </trkpt>
      <trkpt lat="24.4959076680243015289306640625" lon="118.14330029301345348358154296875">
        <ele>30.6000003814697265625</ele>
        <time>2026-07-12T08:50:02.000Z</time>
        <extensions>
          <ns3:TrackPointExtension>
            <ns3:hr>109</ns3:hr>
            <ns3:cad>0</ns3:cad>
          </ns3:TrackPointExtension>
        </extensions>
      </trkpt>
      <trkpt lat="24.49590808711946010589599609375" lon="118.14329442568123340606689453125">
        <ele>30.6000003814697265625</ele>
        <time>2026-07-12T08:50:03.000Z</time>
        <extensions>
          <ns3:TrackPointExtension>
            <ns3:hr>110</ns3:hr>
            <ns3:cad>0</ns3:cad>
          </ns3:TrackPointExtension>
        </extensions>
      </trkpt>
      <trkpt lat="24.49589149095118045806884765625" lon="118.143311776220798492431640625">
        <ele>30.6000003814697265625</ele>
        <time>2026-07-12T08:50:04.000Z</time>
        <extensions>
          <ns3:TrackPointExtension>
            <ns3:hr>110</ns3:hr>
            <ns3:cad>0</ns3:cad>
          </ns3:TrackPointExtension>
        </extensions>
      </trkpt>
    </trkseg>
  </trk>
</gpx>
